{"type":"FeatureCollection","features":[{"type":"Feature","geometry":{"type":"Point","coordinates":[-122.13096156062915,37.02532622277525]},"id":"globalwatershedpoint","properties":{}},{"type":"Feature","geometry":{"type":"Polygon","coordinates":[[[-122.14712524606821,37.05804336279704],[-122.14679750203825,37.05811609969867],[-122.14698254287579,37.058631426326805],[-122.14665479612722,37.05870416282316],[-122.14702488129926,37.05973481585837],[-122.14669712975147,37.05980755243494],[-122.14697469721057,37.06058054189668],[-122.14664694190374,37.06065327831078],[-122.14683198798684,37.06116860460757],[-122.14650422996118,37.061241340616384],[-122.14668927651645,37.06175666700151],[-122.14636151577196,37.061829402605],[-122.14645403896657,37.06208706589143],[-122.14612627654348,37.062159800846864],[-122.14621879933598,37.062417464276805],[-122.14556327049449,37.062562932000446],[-122.14565579184446,37.06282059581673],[-122.14532802542605,37.06289332858497],[-122.14542054637381,37.06315099254482],[-122.14509277827682,37.06322372466493],[-122.1451852988224,37.063481388768274],[-122.14485752904677,37.06355412024026],[-122.14541265948039,37.06510010423311],[-122.14508488282401,37.06517283627109],[-122.14582508415344,37.06723414464722],[-122.14549729853502,37.06730687773697],[-122.14558982553291,37.06756454108039],[-122.14460646172637,37.06778273573231],[-122.14469898624098,37.06804039970513],[-122.14437119598841,37.068113129716664],[-122.14446372010076,37.068370793833125],[-122.14413592816933,37.0684435231965],[-122.14422845187943,37.068701187456654],[-122.14390065826919,37.06877391617186],[-122.1441782301074,37.069546909086014],[-122.14385043273715,37.06961963763876],[-122.14403548173955,37.070134966238165],[-122.1437076816498,37.07020769438567],[-122.14380020606784,37.07046535877952],[-122.14347240429919,37.07053808627885],[-122.14384250419184,37.07156874383454],[-122.14351469762236,37.07164147141435],[-122.14360722315064,37.071899135798375],[-122.14327941490221,37.071971862729995],[-122.14337194002816,37.07222952725776],[-122.14304413010073,37.07230225354124],[-122.14322918018621,37.072817582785305],[-122.14290136753911,37.07289030866344],[-122.14364158508887,37.07495162361998],[-122.14331376347768,37.07502435055027],[-122.14442415391851,37.078116314015304],[-122.1440963191795,37.07818904296959],[-122.14418885482512,37.07844670619106],[-122.14386101840685,37.07851943449711],[-122.1441386260519,37.07929242429654],[-122.1438107858726,37.079365152440324],[-122.14399585874651,37.07988047896432],[-122.14366801584706,37.07995320670288],[-122.14385308919303,37.080468533316974],[-122.14352524357335,37.08054126065032],[-122.14361778016313,37.08079892405195],[-122.14328993286405,37.08087165073712],[-122.14384515956537,37.082417630526756],[-122.14351730538226,37.0824903577786],[-122.14360984435957,37.0827480209737],[-122.14328198849697,37.08282074757735],[-122.14337452707184,37.08307841091647],[-122.14304666952978,37.083151136871955],[-122.14313920770219,37.08340880035512],[-122.14281134848063,37.083481525662485],[-122.14290388625054,37.083739189289716],[-122.14257602534947,37.08381191394884],[-122.14303871857162,37.085100231817115],[-122.14271085182698,37.08517295679999],[-122.14289593150343,37.08568828374127],[-122.14256806203815,37.085761008318926],[-122.14284568321868,37.08653399871849],[-122.14251780999167,37.086606723133954],[-122.1427954337959,37.08737971337306],[-122.14246755680706,37.08745243762636],[-122.14293027071326,37.088740753930445],[-122.14260238788025,37.08881347850759],[-122.14269493153607,37.08907114171509],[-122.14236704702331,37.08914386564403],[-122.14245959027659,37.08940152899572],[-122.141803817253,37.08954697466594],[-122.14189635906254,37.08980463840496],[-122.14156847055169,37.08987736014627],[-122.14166101195862,37.09013502402951],[-122.14133312176801,37.09020774512262],[-122.14142566277232,37.090465409150106],[-122.14109777090192,37.090538129595],[-122.1411903115036,37.09079579376672],[-122.14086241795341,37.09086851356342],[-122.14095495815248,37.091126177879495],[-122.14062706292246,37.09119889702791],[-122.14044198524536,37.090683567810984],[-122.14076987839292,37.09061084914861],[-122.14039972653669,37.08958019050195],[-122.14007183755395,37.089652908192285],[-122.13960916730689,37.08836458144681],[-122.13928128289156,37.08843729703093],[-122.13918875179888,37.08817963114256],[-122.1388608677862,37.08825234559248],[-122.13793560238727,37.085675678845234],[-122.13760772814763,37.08574838997426],[-122.13742268481143,37.08523305495321],[-122.1370948120156,37.08530576470514],[-122.13690977331525,37.08479042880292],[-122.13658190196325,37.08486313717777],[-122.1363968678987,37.08434780039433],[-122.13606899799052,37.08442050739209],[-122.1359764829569,37.08416283860923],[-122.13564861345147,37.08423554447283],[-122.13555610009732,37.08397787534819],[-122.13490036125363,37.08412328391597],[-122.13471534062477,37.08360794439853],[-122.13438747232765,37.0836806468598],[-122.13429496401179,37.08342297670994],[-122.13396709611746,37.083495678037046],[-122.13387458948104,37.083238007545404],[-122.13354672198949,37.08331070773845],[-122.13336171271375,37.08279536597291],[-122.13303384666614,37.082868064788975],[-122.13275634066287,37.08209505067058],[-122.1330842035872,37.082022352583195],[-122.13262170114142,37.08073399495634],[-122.13294955822218,37.080661297192115],[-122.13285705860666,37.08040362561301],[-122.13318491400817,37.080330927200464],[-122.1328149177643,37.079300240866424],[-122.13314276836348,37.07922754253414],[-122.13305026985708,37.07896987094626],[-122.13337811877703,37.07889717196564],[-122.13328561986782,37.07863950052165],[-122.1336134671086,37.078566800892744],[-122.13342846912283,37.07805145819372],[-122.13375631364346,37.077978758159375],[-122.13366381456692,37.07772108690432],[-122.13399165740837,37.07764838622167],[-122.13352916639391,37.07636002967622],[-122.13320132875714,37.07643272914468],[-122.13301633890045,37.07591738534809],[-122.13268850270734,37.075990083439756],[-122.13241102583115,37.07521706627408],[-122.13208319212261,37.07528976274615],[-122.13180572411228,37.0745167439612],[-122.13147789288834,37.07458943881371],[-122.13129291948707,37.074074091976485],[-122.13096508970682,37.07414678545228],[-122.1306876375132,37.073373763725634],[-122.13035981021751,37.07344645558189],[-122.13026732846997,37.07318878123222],[-122.12993950157711,37.07326147195455],[-122.12975454207792,37.07274612247261],[-122.12942671662877,37.07281881181828],[-122.12924176176342,37.07230346145479],[-122.12891393775799,37.07237614942382],[-122.12872898752637,37.07186079817868],[-122.12840116496469,37.071933484771044],[-122.12830869184674,37.071675808757185],[-122.12732522345632,37.071893862459355],[-122.12704781729803,37.07112083163891],[-122.12671999634793,37.07119351369588],[-122.12662752994525,37.0709358363149],[-122.12629970939805,37.07100851723798],[-122.12620724467416,37.07075083951526],[-122.12587942452991,37.07082351930454],[-122.12569449907758,37.070308163076554],[-122.12536668037717,37.07038084148918],[-122.12518175955813,37.069865484379676],[-122.12485394230153,37.06993816141579],[-122.12466902611571,37.06942280342464],[-122.12434121030293,37.069495479084274],[-122.12415629875025,37.068980120211535],[-122.12382848438129,37.06905279449465],[-122.12364357746165,37.06853743474029],[-122.12331576453653,37.0686101076469],[-122.12303841206321,37.06783706654438],[-122.1227106016228,37.067909737831876],[-122.12252570524454,37.06739437611616],[-122.12219789624797,37.06746704602718],[-122.12210545005631,37.06720936477802],[-122.12243325801208,37.06713669510968],[-122.12234081141739,37.06687901400412],[-122.12266861769456,37.06680634368733],[-122.12257617069685,37.06654866272539],[-122.12290397529546,37.066475991760164],[-122.12281152789474,37.06621831094171],[-122.1231393308148,37.06614563932802],[-122.12304688301106,37.06588795865318],[-122.12337468425257,37.0658152863911],[-122.12328223604584,37.06555760585979],[-122.12361003560883,37.065484932949225],[-122.12351758699913,37.06522725256149],[-122.12384538488361,37.06515457900253],[-122.12375293587093,37.064896898758285],[-122.1240807320769,37.06482422455091],[-122.12398828266127,37.06456654445021],[-122.12366048749601,37.06463921841493],[-122.12329070037383,37.06360849605009],[-122.12296290873365,37.06368116815317],[-122.12287046458816,37.063423487071454],[-122.12254267335096,37.06349615804083],[-122.1224502308839,37.06323847661732],[-122.1221224400497,37.063311146453],[-122.12175268072113,37.062280418796945],[-122.12208046739255,37.06220774993175],[-122.12198802811395,37.06195006801246],[-122.1213324562148,37.062095404366566],[-122.12114758373328,37.06158003925996],[-122.12147536792033,37.06150737201368],[-122.12138293159539,37.0612496895542],[-122.12171071410415,37.06117702165946],[-122.1216182773762,37.06091933934342],[-122.12194605820665,37.06084667080024],[-122.1218536210757,37.06058898862762],[-122.12250917874238,37.06044364935327],[-122.12241674016782,37.06018596756667],[-122.12340006876353,37.05996795270021],[-122.1234925104599,37.06022563375901],[-122.12414806174989,37.06008028557436],[-122.12405561797233,37.05982260500078],[-122.12438339162021,37.05974992981456],[-122.1239211770947,37.058461526671195],[-122.12359340864967,37.058534200644374],[-122.12350096869811,37.05827651947541],[-122.12317320065597,37.05834919231501],[-122.12298832474688,37.05783382919409],[-122.12266055814821,37.0579065006575],[-122.12247568687071,37.05739113665442],[-122.12280345138832,37.05731846567614],[-122.12271101566544,37.05706078376825],[-122.12238325218838,37.05713345450395],[-122.12210595196696,37.05636040745702],[-122.12177819097386,37.05643307657397],[-122.12168575988241,37.05617539378387],[-122.12135799929224,37.0562480617673],[-122.12126556987889,37.05599037863534],[-122.12061004886694,37.056135711444036],[-122.12051762217216,37.05587802772776],[-122.12018986175039,37.05595069255303],[-122.12009743673366,37.05569300849488],[-122.11976967671491,37.055765672186645],[-122.1198621006911,37.05602335648735],[-122.11920657665993,37.056168681682955],[-122.11911415476482,37.05591099689717],[-122.1184586302647,37.05605631804363],[-122.11818137464758,37.05528326163547],[-122.11785361456293,37.05535592014461],[-122.11739153981985,37.05406748959954],[-122.1177192947019,37.053994832302955],[-122.1171648198027,37.052448713826955],[-122.11749256780438,37.05237605709439],[-122.11740015651168,37.05211837057658],[-122.11707240955045,37.052191027066655],[-122.11697999993561,37.05193334020701],[-122.11665225337744,37.052005995563675],[-122.11655984544046,37.051748308362214],[-122.11623209928538,37.051820962585374],[-122.11613969302624,37.05156327504213],[-122.11581194727425,37.0516359281318],[-122.11479553193335,37.048801355931964],[-122.1144677969888,37.04887400546364],[-122.11437540045846,37.04861631624321],[-122.11404766591701,37.048688964641535],[-122.11367809032997,37.047658205796196],[-122.11335035931286,37.04773085233383],[-122.11316557742363,37.04721547182995],[-122.11349330635997,37.04714282577715],[-122.11330852493892,37.046627445360514],[-122.11396397673845,37.04648215155168],[-122.11387158490307,37.04622446167908],[-122.116165638846,37.0457159069806],[-122.11607324036562,37.04545821870546],[-122.11672867653343,37.04531290982955],[-122.11663627660973,37.045055221939826],[-122.11696399269744,37.04498256640787],[-122.11687159237076,37.04472487866113],[-122.11719930678095,37.044652222480686],[-122.11710690605129,37.044394534876865],[-122.11809004233743,37.04417656171759],[-122.11799763912433,37.04391887474151],[-122.11832534890492,37.04384621548236],[-122.11814054231013,37.04333084171667],[-122.11846824937302,37.04325818205151],[-122.11828344324695,37.042742808372616],[-122.1186111475922,37.042670148301355],[-122.11851874444488,37.042412461555095],[-122.11884644711266,37.04233980083537],[-122.11866164064949,37.04182442752908],[-122.11898934059971,37.041751766403344],[-122.11880453460527,37.04123639318369],[-122.11913223183795,37.04116373165192],[-122.1190398287565,37.04090604513522],[-122.11936752431177,37.040833382954986],[-122.11927512082744,37.040575696581136],[-122.11960281470536,37.04050303375244],[-122.11951041081818,37.040245347521434],[-122.11983810301874,37.04017268404434],[-122.1195608920604,37.0393996254811],[-122.11988858050347,37.03932696184036],[-122.11979617708509,37.03906927569585],[-122.12012386385085,37.038996611406624],[-122.12003146002967,37.03873892540494],[-122.12035914511813,37.03866626046727],[-122.12026674089412,37.038408574608425],[-122.12059442430532,37.03833590902234],[-122.12050201967851,37.03807822330623],[-122.12082970141243,37.03800555707172],[-122.12027528079336,37.03645944213768],[-122.12060295565004,37.036386776466635],[-122.1205105534038,37.036129090537955],[-122.12083822658332,37.03605642421852],[-122.1207458239343,37.03579873843254],[-122.12107349543666,37.0357260714647],[-122.12098109238491,37.03546838582152],[-122.12130876221008,37.035395718205216],[-122.12121635875559,37.03513803270471],[-122.12154402690363,37.03506536443998],[-122.12071241512724,37.032746192631244],[-122.12104007327902,37.03267352565702],[-122.1209476741165,37.032415839644365],[-122.12127533059122,37.032343172021726],[-122.12099813380696,37.03157011411253],[-122.121325786525,37.03149744632615],[-122.12114098977487,37.03098207437269],[-122.12146863977613,37.030909406180264],[-122.12137624131694,37.03065172029623],[-122.12170388964127,37.03057905145541],[-122.12142669496703,37.02980599393188],[-122.12208198346556,37.02966065503198],[-122.12198958443554,37.02940296947596],[-122.12231722668935,37.02933029893225],[-122.12204003030261,37.02855724239242],[-122.12269530666042,37.028411900086795],[-122.12260290705962,37.02815421485859],[-122.12293054324311,37.028081542612064],[-122.1228381432397,37.02782385752637],[-122.1231657777464,37.0277511846314],[-122.12307337734038,37.02749349968826],[-122.12340101017021,37.02742082614495],[-122.12330860936164,37.02716314134428],[-122.1236362405147,37.02709046715256],[-122.12354383930355,37.02683278249439],[-122.12387146877981,37.026760107654354],[-122.12359426585,37.0259870538078],[-122.1239218915702,37.02591437880396],[-122.1237370907232,37.02539900955842],[-122.12406471372702,37.025326334148524],[-122.12397231321954,37.02506864961824],[-122.12528279470544,37.02477794004124],[-122.12537519937136,37.02503562360229],[-122.12570281918966,37.02496294373905],[-122.12561041348415,37.0247052604203],[-122.12790372709544,37.0241964781354],[-122.12799614007794,37.02445415975783],[-122.12865136888301,37.024308784890174],[-122.12892861789075,37.02508182770395],[-122.12925623445614,37.02500913820712],[-122.12934865310599,37.02526681870295],[-122.13000388640425,37.02512143655261],[-122.1300963077704,37.025379116463775],[-122.1310791560572,37.025161035831346],[-122.1311715811792,37.02541871491554],[-122.13182681226321,37.025273322889305],[-122.13191924010151,37.02553100138885],[-122.13257447071551,37.02538560531532],[-122.1329441967577,37.02641631637549],[-122.13261657761124,37.026489015827146],[-122.13270900967548,37.02674669358484],[-122.13238138885218,37.02681939238823],[-122.13256625281352,37.02733474808879],[-122.13223862927377,37.027407446486336],[-122.13242349370523,37.027922802272265],[-122.13209586744901,37.02799550026396],[-122.13218829958114,37.02825317824949],[-122.13251592687695,37.028180480015465],[-122.13260836068596,37.028438157658776],[-122.13293598838402,37.028365458291624],[-122.13339817218741,37.02965384379848],[-122.1330705392913,37.02972654437774],[-122.13325541519498,37.030241898366576],[-122.13292777958226,37.03031459853997],[-122.13311265595615,37.030829952614354],[-122.13278501762672,37.03090265238195],[-122.13296989447085,37.03141800654203],[-122.13329753487957,37.03134530628952],[-122.1337597433428,37.03263368873106],[-122.13343209773564,37.032706390195784],[-122.13407920907842,37.03451012312074],[-122.13375155555573,37.034582825392015],[-122.13384400154338,37.03484050136761],[-122.13351634634347,37.034913202990616],[-122.1337012381516,37.03542855512757],[-122.13337358023472,37.03550125634481],[-122.13355847251319,37.03601660856786],[-122.13323081187922,37.03608930937936],[-122.13332325793489,37.03634698558375],[-122.13299559562364,37.03641968574697],[-122.13308804127699,37.0366773620942],[-122.13276037728845,37.036750061609155],[-122.13285282253945,37.03700773809915],[-122.13219749057025,37.03715313494176],[-122.13238237882537,37.037668488592615],[-122.13205470980483,37.03774118616275],[-122.13214715384878,37.037998863081185],[-122.13181948315089,37.03807156000304],[-122.13200437107147,37.03858691402589],[-122.13167669765635,37.038659610541956],[-122.13204647698785,37.03969031836175],[-122.13171879877564,37.039763014957046],[-122.13181124416235,37.04002069190536],[-122.13148356427268,37.04009338785242],[-122.13157600925697,37.040351064943586],[-122.13124832768986,37.04042376024232],[-122.13143321749114,37.04093911461088],[-122.13110553320661,37.041011809503864],[-122.13119797802355,37.04126948678125],[-122.13087029206153,37.041342181025925],[-122.13096273647604,37.04159985844618],[-122.13063504883651,37.04167255204257],[-122.13081993749807,37.04218790706939],[-122.13114762721759,37.04211521298797],[-122.13160986522854,37.04340359759979],[-122.13193755951055,37.04333090141496],[-122.13249227240377,37.04487695820825],[-122.13216457188149,37.044949655848306],[-122.13225702522193,37.045207331874686],[-122.13192932302199,37.04528002886644],[-122.13211422953552,37.04579538110563],[-122.13178652461784,37.045868077691686],[-122.13197143160164,37.04638343001791],[-122.13164372396615,37.046456126198215],[-122.13173617737438,37.04671380245461],[-122.13140846806112,37.046786497986666],[-122.13150092106687,37.04704417438611],[-122.13117321007589,37.04711686926988],[-122.13163547946846,37.04840525098754],[-122.13130776263907,37.04847794619324],[-122.1315851288059,37.04925097475789],[-122.1312574082183,37.04932366980046],[-122.13134986384237,37.049581346032326],[-122.13102214157692,37.04965404042664],[-122.13176180120429,37.051715448642426],[-122.13143406997933,37.05178814408658],[-122.13161898918266,37.052303495631534],[-122.13129125523943,37.05237619066996],[-122.13175355920652,37.05366456900592],[-122.1320812983512,37.05359187275443],[-122.13226622648284,37.0541072229079],[-122.13292170702012,37.053961826761565],[-122.1330141741232,37.05421950120394],[-122.1333419144755,37.05414680155178],[-122.13343438325668,37.05440447565218],[-122.13376212401148,37.054331774866455],[-122.13385459447076,37.05458944862483],[-122.13418233562804,37.05451674670549],[-122.1345522280046,37.0555474397747],[-122.13487997268528,37.055474735993855],[-122.13506492478125,37.055990081446964],[-122.13539267090474,37.055917376289834],[-122.13548514894983,37.05617504862466],[-122.13614064136388,37.05602963515231],[-122.13623312212748,37.05628730690246],[-122.13721635908533,37.05606917928396],[-122.13730884360776,37.05632685020675],[-122.13796433380408,37.056181426854415],[-122.13814930892394,37.05669676743103],[-122.1384770551458,37.056624053933106],[-122.13856954470295,37.056881723829626],[-122.14020827144438,37.056518141762766],[-122.14030076684095,37.05677581034638],[-122.14062851131561,37.05670309101754],[-122.14072100839044,37.056960759259105],[-122.14137649750629,37.0568153174433],[-122.14146899729965,37.05707298510001],[-122.1427799720362,37.05678208980663],[-122.14287247662865,37.05703975639302],[-122.14320021975794,37.05696703009969],[-122.1432927260287,37.057224696343944],[-122.14394821245362,37.057079240599116],[-122.14404072144293,37.05733690625852],[-122.1443684647385,37.05726417680697],[-122.14446097540616,37.057521842124245],[-122.14478871910389,37.057449111539036],[-122.14488123144987,37.05770677651423],[-122.14586446183519,37.05748857868501],[-122.14595697793997,37.05774624283247],[-122.14628472116574,37.057673508198164],[-122.14619220402072,37.05741584429347],[-122.14651994556813,37.05734310901108],[-122.14670498257675,37.05785843623552],[-122.14703272556646,37.057785699576655],[-122.14712524606821,37.05804336279704]]]},"id":"globalwatershed","properties":{}}],"bbox":[-122.14712524606821,37.0241964781354,-122.11316557742363,37.09119889702791]}