{"type":"FeatureCollection","features":[{"type":"Feature","geometry":{"type":"Point","coordinates":[-122.12008471733837,36.99992114258542]},"id":"globalwatershedpoint","properties":{}},{"type":"Feature","geometry":{"type":"Polygon","coordinates":[[[-122.12560200243618,37.00495605376084],[-122.12527447018769,37.005028733994614],[-122.12536685041673,37.00528641981501],[-122.1250393164924,37.00535909940043],[-122.12522407678274,37.005874471224814],[-122.12456900286752,37.00601982869286],[-122.12466138188972,37.00627751493904],[-122.12433384293787,37.00635019257946],[-122.1245186008144,37.006865565255445],[-122.12419105914758,37.00693824248966],[-122.12437581749305,37.00745361524913],[-122.12404827311119,37.00752629207721],[-122.12414065219998,37.00778397854885],[-122.12381310614221,37.00785665472856],[-122.12390548482867,37.00811434134217],[-122.12357793709495,37.008187016873514],[-122.12367031537906,37.008444703629124],[-122.12334276596937,37.00851737851217],[-122.12343514385113,37.008775065409715],[-122.12245248868382,37.00899308544215],[-122.12282199410855,37.010023834936845],[-122.12314955062457,37.00995116151452],[-122.12324192961196,37.0102088483957],[-122.12291437205671,37.01028152206014],[-122.12309912986355,37.010796896006404],[-122.12277156959303,37.01086956926466],[-122.12295632786866,37.01138494329478],[-122.12262876488283,37.011457616146856],[-122.12299828491913,37.012488363974526],[-122.1223431487228,37.01263370894453],[-122.1224355282454,37.01289139613556],[-122.12210795815268,37.01296406752691],[-122.12220033727282,37.013221754860034],[-122.12187276550392,37.01329442560304],[-122.1219651442216,37.013552113078305],[-122.12163757077656,37.013624783172894],[-122.12172994909177,37.01388247079032],[-122.12140237397054,37.01395514023655],[-122.12149475188325,37.014212827996076],[-122.12116717508584,37.01428549679389],[-122.12144430952699,37.01505856019879],[-122.12111672897463,37.01513122883262],[-122.12130148637428,37.01564660442013],[-122.12097390310628,37.01571927264773],[-122.12106628172201,37.01597696053368],[-122.12073869677774,37.01604962811293],[-122.12101583332793,37.01682269189716],[-122.12068824462852,37.01689535931238],[-122.12078062371292,37.01715304728274],[-122.1204530333372,37.01722571404958],[-122.12063779133774,37.01774109017458],[-122.12031019824623,37.01781375653526],[-122.12067971773216,37.0188445085545],[-122.12035211984585,37.01891717499343],[-122.12062926302933,37.01969023868487],[-122.12030166138763,37.019762904959876],[-122.12039404268309,37.02002059289937],[-122.12006643936492,37.02009325852594],[-122.12034358395434,37.02086632247149],[-122.12001597688062,37.0209389879341],[-122.12010835864471,37.02119667595839],[-122.1197807498945,37.02126934077262],[-122.11987313125599,37.02152702893916],[-122.11954552082928,37.021599693105],[-122.11963790178811,37.02185738141385],[-122.11931028968488,37.021930044931246],[-122.11967981573133,37.0229607981369],[-122.12000743199295,37.022888133650525],[-122.12009981613656,37.02314582145997],[-122.12173789308818,37.02278248445673],[-122.12183028306677,37.023040170954964],[-122.12215789758571,37.02296750064002],[-122.1225274680286,37.023998244664924],[-122.1228550860689,37.02392557249019],[-122.1229474813118,37.02418325800449],[-122.12327509975465,37.02411058469678],[-122.12345989423083,37.024625954941015],[-122.12378751411582,37.02455328025806],[-122.12406471372702,37.025326334148524],[-122.1237370907232,37.02539900955842],[-122.1239218915702,37.02591437880396],[-122.12359426585,37.0259870538078],[-122.12387146877981,37.026760107654354],[-122.12354383930355,37.02683278249439],[-122.1236362405147,37.02709046715256],[-122.12330860936164,37.02716314134428],[-122.12340101017021,37.02742082614495],[-122.12307337734038,37.02749349968826],[-122.1231657777464,37.0277511846314],[-122.1228381432397,37.02782385752637],[-122.12293054324311,37.028081542612064],[-122.12260290705962,37.02815421485859],[-122.12269530666042,37.028411900086795],[-122.12204003030261,37.02855724239242],[-122.12231722668935,37.02933029893225],[-122.12198958443554,37.02940296947596],[-122.12208198346556,37.02966065503198],[-122.12142669496703,37.02980599393188],[-122.12170388964127,37.03057905145541],[-122.12137624131694,37.03065172029623],[-122.12146863977613,37.030909406180264],[-122.12114098977487,37.03098207437269],[-122.121325786525,37.03149744632615],[-122.12099813380696,37.03157011411253],[-122.12127533059122,37.032343172021726],[-122.1209476741165,37.032415839644365],[-122.12104007327902,37.03267352565702],[-122.12071241512724,37.032746192631244],[-122.12154402690363,37.03506536443998],[-122.12121635875559,37.03513803270471],[-122.12130876221008,37.035395718205216],[-122.12098109238491,37.03546838582152],[-122.12107349543666,37.0357260714647],[-122.1207458239343,37.03579873843254],[-122.12083822658332,37.03605642421852],[-122.1205105534038,37.036129090537955],[-122.12060295565004,37.036386776466635],[-122.12027528079336,37.03645944213768],[-122.12082970141243,37.03800555707172],[-122.12050201967851,37.03807822330623],[-122.12059442430532,37.03833590902234],[-122.12026674089412,37.038408574608425],[-122.12035914511813,37.03866626046727],[-122.12003146002967,37.03873892540494],[-122.12012386385085,37.038996611406624],[-122.11979617708509,37.03906927569585],[-122.11988858050347,37.03932696184036],[-122.1195608920604,37.0393996254811],[-122.11983810301874,37.04017268404434],[-122.11951041081818,37.040245347521434],[-122.11960281470536,37.04050303375244],[-122.11927512082744,37.040575696581136],[-122.11936752431177,37.040833382954986],[-122.1190398287565,37.04090604513522],[-122.11913223183795,37.04116373165192],[-122.11880453460527,37.04123639318369],[-122.11898934059971,37.041751766403344],[-122.11866164064949,37.04182442752908],[-122.11884644711266,37.04233980083537],[-122.11851874444488,37.042412461555095],[-122.1186111475922,37.042670148301355],[-122.11828344324695,37.042742808372616],[-122.11846824937302,37.04325818205151],[-122.11814054231013,37.04333084171667],[-122.11832534890492,37.04384621548236],[-122.11799763912433,37.04391887474151],[-122.11809004233743,37.04417656171759],[-122.11710690605129,37.044394534876865],[-122.11719930678095,37.044652222480686],[-122.11687159237076,37.04472487866113],[-122.11696399269744,37.04498256640787],[-122.11663627660973,37.045055221939826],[-122.11672867653343,37.04531290982955],[-122.11607324036562,37.04545821870546],[-122.116165638846,37.0457159069806],[-122.11387158490307,37.04622446167908],[-122.11396397673845,37.04648215155168],[-122.11330852493892,37.046627445360514],[-122.11349330635997,37.04714282577715],[-122.11316557742363,37.04721547182995],[-122.11307318743485,37.04695778142896],[-122.11274545890166,37.04703042634837],[-122.11265307059047,37.046772735605536],[-122.11134215424711,37.0470633054042],[-122.11152692318355,37.047578688729736],[-122.1111991904239,37.047651329436775],[-122.11110680667748,37.04739363758134],[-122.11045134132748,37.047538915837755],[-122.11035896029908,37.04728122339817],[-122.10937576061653,37.04749913337337],[-122.10928338334658,37.04724144010721],[-122.10862791578668,37.04738670848444],[-122.10751946321253,37.04429437572085],[-122.10784718482618,37.044221744886045],[-122.107754816879,37.04396405008526],[-122.10742709630568,37.04403668067773],[-122.10724236440316,37.04352129029315],[-122.10691464527355,37.043593919510016],[-122.10682228131822,37.0433362239262],[-122.10649456259192,37.043408852009826],[-122.10575568220425,37.04134728182092],[-122.10608339260787,37.04127465567584],[-122.10599103438553,37.04101695919697],[-122.10631874311186,37.040944332403214],[-122.10613402649747,37.040428939631596],[-122.10646173250626,37.04035631243154],[-122.10636937411422,37.040098616138785],[-122.10669707844579,37.040025988290104],[-122.10651236149208,37.039510595890675],[-122.10684006310616,37.039437967635685],[-122.10665534661979,37.03892257532275],[-122.10698304551643,37.03884994666143],[-122.10689068718844,37.038592250597986],[-122.10656298933202,37.03866487901703],[-122.10637827666731,37.038149486106974],[-122.1060505802544,37.03822211315058],[-122.1058658722178,37.03770671935787],[-122.10553817724845,37.037779345026],[-122.10535347383991,37.03726395035063],[-122.10568116672889,37.03719132516696],[-122.10558881493974,37.036933627922224],[-122.10591650615162,37.03686100208997],[-122.10582415395919,37.03660330498791],[-122.10615184349398,37.036530678507],[-122.10587478761751,37.03575758733026],[-122.1055471012032,37.03583021308438],[-122.10536240255026,37.03531481798413],[-122.10470703197174,37.03546006585073],[-122.10461468568086,37.03520236766678],[-122.10494237024838,37.03512974442112],[-122.10475767749682,37.03461434823893],[-122.1050853593472,37.03454172458692],[-122.10490066706272,37.03402632849081],[-122.1055560246925,37.03388107948309],[-122.10472492221274,37.0315617964797],[-122.10439725307704,37.031634419249045],[-122.10421257272192,37.03111902144567],[-122.10388490502956,37.03119164283973],[-122.10370022930157,37.030676244153334],[-122.10337256305256,37.03074886417226],[-122.10318789195165,37.03023346460287],[-122.10286022714601,37.03030608324651],[-122.10276789359067,37.03004838307016],[-122.10244022918835,37.03012100058082],[-122.10234789730977,37.02986330006259],[-122.1020202333108,37.02993591644026],[-122.10174324461528,37.02916281356115],[-122.10141558309975,37.029235428321435],[-122.10113860325437,37.0284623238188],[-122.10146626164985,37.02838970978493],[-122.101373935268,37.02813200832677],[-122.10170159198682,37.02805939364424],[-122.1016092652016,37.027801692328616],[-122.10095395320737,37.02794692031855],[-122.1008616291388,37.02768921841896],[-122.10053397322672,37.02776183083553],[-122.1004416508348,37.02750412859401],[-122.1001139953261,37.02757673987772],[-122.1000216746108,37.027319037294404],[-122.0996940195055,37.02739164744507],[-122.0996017004668,37.02713394451996],[-122.09927404576489,37.0272065535377],[-122.09881246532008,37.02591803620579],[-122.09782951299495,37.02613585428243],[-122.09773720193563,37.02587814979063],[-122.09609894052987,37.02624116089148],[-122.09600663530709,37.02598345508946],[-122.09567898215646,37.02605605439503],[-122.09558667861019,37.02579834825125],[-122.09460371845941,37.02601614009685],[-122.09451141866971,37.02575843312715],[-122.09418376505323,37.02583102838527],[-122.09409146694001,37.025573321073765],[-122.09376381372711,37.025645915198965],[-122.09367151729037,37.025388207545724],[-122.09334386448107,37.02546080053807],[-122.09325156972079,37.02520309254304],[-122.09226861059452,37.02542086544884],[-122.09217631959078,37.02516315662795],[-122.09119335785708,37.02538092079006],[-122.09128564574064,37.02563863033708],[-122.0893196988507,37.02607413606052],[-122.08922741720764,37.02581642506134],[-122.08889975820551,37.02588900598856],[-122.08880747823889,37.02563129464765],[-122.08847981964055,37.025703874442],[-122.08838754135037,37.02544616275937],[-122.0880598831558,37.02551874142081],[-122.08796760654205,37.025261029396574],[-122.08763994875129,37.02533360692512],[-122.08754767381393,37.025075894559166],[-122.087220016427,37.025148470954846],[-122.08703547054138,37.02463304543988],[-122.08670781459834,37.02470562046071],[-122.08633873462273,37.02367476726651],[-122.08601108220384,37.023747340428535],[-122.08582654811366,37.02323191274929],[-122.0851712455275,37.023377055432846],[-122.08498671814255,37.0228616263869],[-122.08465906797531,37.0229341959085],[-122.08456680627721,37.02267648099401],[-122.08423915651389,37.02274904938279],[-122.08414689649206,37.02249133412662],[-122.08349159713703,37.02263646774764],[-122.083030316971,37.02134788755167],[-122.08270267153965,37.021420451816205],[-122.08261041845492,37.02116273523588],[-122.08228277342752,37.02123529836765],[-122.08219052201896,37.020977581445706],[-122.08186287739552,37.02105014344466],[-122.08149388228254,37.02001927379194],[-122.08182152274576,37.01994671276066],[-122.08145253364982,37.01891584247964],[-122.08178016931686,37.01884328152516],[-122.08159567650524,37.01832784626993],[-122.08192330945623,37.01825528490844],[-122.08183106296448,37.017997567373],[-122.08215869423944,37.0179250053626],[-122.08197420108414,37.017409570476275],[-122.08230182964311,37.01733700805879],[-122.08220958297956,37.01707929070785],[-122.08253720986254,37.017006727641444],[-122.08244496279508,37.01674901043261],[-122.08277258800206,37.01667644671729],[-122.08268034053071,37.01641872965054],[-122.08300796406172,37.01634616528633],[-122.08291571618648,37.01608844836163],[-122.08324333804153,37.01601588334849],[-122.08315108976241,37.01575816656588],[-122.0834787099415,37.01568560090385],[-122.08338646125854,37.01542788426329],[-122.08371407976169,37.01535531795238],[-122.08362183067486,37.01509760145388],[-122.08394944750209,37.015025034494066],[-122.08385719801143,37.01476731813757],[-122.08418481316276,37.01469475052888],[-122.08409256326829,37.0144370343144],[-122.08442017674372,37.01436446605683],[-122.0843279264454,37.01410674998442],[-122.08465553824496,37.014034181077946],[-122.08447103747679,37.01351874911725],[-122.08479864656064,37.01344617980377],[-122.08442964849733,37.01241531565135],[-122.08475725278592,37.01234274641467],[-122.08438826073964,37.01131188163138],[-122.08831941268458,37.0104409929231],[-122.08822715378633,37.01018327937995],[-122.08855474460782,37.01011069977312],[-122.08846248530594,37.00985298637192],[-122.08879007445168,37.00978040611625],[-122.08869781474618,37.00952269285697],[-122.08935298905018,37.00937753015733],[-122.08926072790145,37.009119817281814],[-122.08991589758196,37.00897465150318],[-122.08982363499001,37.008716939011414],[-122.090478800047,37.00857177015379],[-122.09038653601189,37.00831405804586],[-122.09071411654668,37.0082414725229],[-122.09062185210806,37.0079837605568],[-122.09094943096717,37.00791117438504],[-122.09085716612502,37.007653462560846],[-122.09118474330849,37.007580875740295],[-122.0912770091902,37.00783858732263],[-122.09160458677717,37.00776599936957],[-122.09169685433451,37.00802371061001],[-122.09202443232499,37.00795112152433],[-122.09211670155801,37.008208832422845],[-122.09277185770972,37.0080636510957],[-122.09286412965803,37.008321361410424],[-122.09253655086066,37.00839395276121],[-122.09272109458645,37.00890937357436],[-122.09239351307379,37.00898196451833],[-122.09248578485128,37.00923967501675],[-122.09215820166291,37.00931226531193],[-122.09280411464005,37.011116237695084],[-122.09313170510578,37.0110436457065],[-122.0932239819725,37.01130135540516],[-122.09420675267152,37.011083573369405],[-122.09429903329335,37.01134128224231],[-122.09528180138547,37.011123491464545],[-122.09537408576237,37.01138119951158],[-122.09570167489356,37.01130860056237],[-122.09579396094635,37.01156630826748],[-122.09612155048093,37.01149370818563],[-122.09621383820954,37.011751415548765],[-122.09654142814749,37.01167881433425],[-122.09709517411855,37.01322505496238],[-122.09742276965802,37.01315245140532],[-122.09751506391984,37.01341015758489],[-122.09817025516911,37.01326494731473],[-122.09853944689685,37.01429576909747],[-122.09984983839358,37.01400533399687],[-122.09994214207495,37.0142630382247],[-122.10026973939786,37.0141904269808],[-122.10036204475526,37.014448130866654],[-122.1006896424814,37.01437551849007],[-122.10078194951485,37.01463322203394],[-122.10110954764421,37.01456060852461],[-122.1012018563537,37.014818311726515],[-122.10152945488629,37.014745697084486],[-122.10134483602448,37.014230291064784],[-122.10167243184142,37.01415767601615],[-122.10148781344606,37.01364227008066],[-122.10181540654737,37.01356965462538],[-122.10172309726468,37.01331195174974],[-122.1023782794789,37.01316671865118],[-122.10228596875346,37.01290901615959],[-122.1026135578664,37.01283639851632],[-122.10252124673782,37.01257869616682],[-122.10350400713943,37.01236083861919],[-122.10359632138666,37.01261854024262],[-122.1042514938847,37.012473296940215],[-122.10434381084747,37.012730997979624],[-122.10499898287878,37.01258575063052],[-122.10509130255704,37.012843451085786],[-122.10574647412156,37.01269819969002],[-122.10583879651536,37.01295589956128],[-122.10649396761299,37.01281064411878],[-122.1065862927223,37.01306834340586],[-122.10691387835587,37.01299571410658],[-122.10682155220705,37.01273801506158],[-122.10714913616462,37.012665385113706],[-122.10696448369748,37.01214998720768],[-122.10729206493954,37.01207735685331],[-122.10683043971295,37.01078886154816],[-122.10748558989302,37.010643600588],[-122.10739326467824,37.01038590171098],[-122.10804841023352,37.01024063767249],[-122.1079560835764,37.009982939179444],[-122.1086112245069,37.00983767206263],[-122.10851889640743,37.00957997395365],[-122.10884646487855,37.0095073393014],[-122.1087541363762,37.009249641334385],[-122.1094092693302,37.00910436984214],[-122.10931693938561,37.00884667225913],[-122.1096445038685,37.008774035419165],[-122.10936751473552,37.00800094279577],[-122.1100226355558,37.00785566789637],[-122.10983797515891,37.007340273281706],[-122.11049308927593,37.00719499578814],[-122.1099391108891,37.005648812445585],[-122.1102666607572,37.00557617381518],[-122.11017433221443,37.00531847648292],[-122.11050188040683,37.005245837204],[-122.11040955146123,37.0049881400136],[-122.11073709797796,37.00491550008615],[-122.11064476862957,37.00465780303764],[-122.1109723134706,37.00458516246163],[-122.11087998371946,37.00432746555494],[-122.1115350694137,37.004182182215416],[-122.1114427382206,37.00392448569259],[-122.11373551082734,37.003415967646745],[-122.11364317299649,37.00315827271794],[-122.11560837560134,37.00272236682945],[-122.11551603217224,37.00246467325265],[-122.11584356267284,37.00239201939654],[-122.11575121884115,37.00213432596152],[-122.1160787476661,37.00206167145697],[-122.11598640343185,37.001803978163714],[-122.11631393058123,37.00173132301076],[-122.11612924194415,37.00121593660765],[-122.11645676637885,37.0011432810482],[-122.11636442197603,37.000885587938285],[-122.11669194473518,37.000812931730444],[-122.116507255761,37.00029754569385],[-122.11683477580557,37.00022488907962],[-122.11665008729933,36.99970950312597],[-122.11697760462937,36.999636846105325],[-122.116885260292,36.99937915322008],[-122.11721277594653,36.99930649555098],[-122.11712043120667,36.99904880280744],[-122.1181029712343,36.99883082518356],[-122.11819531909109,36.999088517200995],[-122.11852283219959,36.9990158559701],[-122.11861518173187,36.99927354764519],[-122.1189426952428,36.9992008852818],[-122.11903504645056,36.99945857661456],[-122.11936256036392,36.999385913118644],[-122.11945491324724,36.99964360410906],[-122.119782427563,36.99957093948069],[-122.11987478212183,36.99982863012869],[-122.12020229684002,36.99975596436781],[-122.12029465307437,37.0000136546734],[-122.12062216819494,36.99994098778005],[-122.12071452610485,37.000198677743334],[-122.1210420416278,37.00012600971746],[-122.12113440121328,37.00038369933836],[-122.12146191713857,37.00031103017998],[-122.12155427839963,37.00056871945847],[-122.12188179472727,37.000496049167566],[-122.12197415766391,37.00075373810369],[-122.1223016743939,37.000681066680265],[-122.12239403900615,37.00093875527404],[-122.12272155613847,37.00086608271807],[-122.122998656912,37.00163914717121],[-122.12332617652456,37.00156647299854],[-122.1234185457614,37.001824160706924],[-122.12374606577625,37.00175148540168],[-122.1239308082379,37.002266860033316],[-122.12425832969404,37.002194183353424],[-122.12462782641376,37.003224930444844],[-122.12495535138912,37.00315225190605],[-122.12560200243618,37.00495605376084]]]},"id":"globalwatershed","properties":{}}],"bbox":[-122.12560200243618,36.99883082518356,-122.08145253364982,37.047651329436775]}