{"type":"FeatureCollection","features":[{"type":"Feature","geometry":{"type":"Point","coordinates":[-122.3289821288719,37.260930936211615]},"id":"globalwatershedpoint","properties":{}},{"type":"Feature","geometry":{"type":"Polygon","coordinates":[[[-122.33242336351675,37.26503444556239],[-122.33209489043263,37.26510767865952],[-122.3321883082265,37.265365178393196],[-122.33185983345308,37.265438410844475],[-122.33195325084927,37.265695910727835],[-122.33129629727799,37.26584237344664],[-122.33138971323287,37.266099873725864],[-122.32909034808692,37.26661246686595],[-122.32918375738258,37.266869968771694],[-122.32885527302085,37.26694319304116],[-122.32894868191867,37.26720069509656],[-122.32862019586757,37.26727391872015],[-122.32890042330463,37.26804642504625],[-122.32857193347692,37.26811964851619],[-122.32866534287048,37.26837715067817],[-122.32833685135336,37.26845037350219],[-122.32843026034901,37.26870787581396],[-122.32777327329023,37.26885431927812],[-122.32796008904413,37.269369324597015],[-122.32763159245876,37.26944254548331],[-122.32809863792592,37.2707300583243],[-122.32777013547624,37.27080327954929],[-122.32833060508545,37.27234829325531],[-122.32767358572376,37.272494735983166],[-122.32776699749807,37.27275223842259],[-122.32743848580473,37.27282545869455],[-122.32753189718107,37.273082961283876],[-122.32720338379812,37.27315618090992],[-122.32729679477649,37.27341368364909],[-122.32696827970393,37.273486902629145],[-122.32706169028428,37.273744405518194],[-122.32673317352209,37.27381762385232],[-122.32682658370445,37.27407512689124],[-122.32649806525261,37.27414834457948],[-122.32659147503696,37.27440584776825],[-122.32626295489544,37.274479064810535],[-122.32635636428176,37.274736568149194],[-122.32602784245059,37.27480978454552],[-122.32621466107294,37.2753247914264],[-122.32654318499185,37.27525157453772],[-122.32710366262225,37.27679659139264],[-122.32677513244002,37.27686980975853],[-122.3269619613959,37.2773848150992],[-122.32729049366594,37.277311596240835],[-122.3274773272932,37.27782660070407],[-122.3278058610052,37.277753380461114],[-122.3283663836523,37.27929839006381],[-122.3280378436766,37.27937161178416],[-122.32831811058838,37.280144116025276],[-122.32798956683486,37.280217337592134],[-122.32817641258447,37.280732340431086],[-122.327847866097,37.28080556159834],[-122.32794128889675,37.281063063119824],[-122.32629854155003,37.281429156804435],[-122.3262051239704,37.281171654051775],[-122.32554802259823,37.2813180847878],[-122.32545460775262,37.281060581446454],[-122.32446895398219,37.28128022012018],[-122.32456236569563,37.281537724200234],[-122.32390525786441,37.28168414601415],[-122.32399866813557,37.281941650490495],[-122.32301299841232,37.28216127725843],[-122.32310640619707,37.28241878237735],[-122.32179216668067,37.28271160656168],[-122.32188557093478,37.28296911256934],[-122.32122844521312,37.28311551980056],[-122.32132184802478,37.28337302620451],[-122.32033615146591,37.28359263109815],[-122.32042955179088,37.283850138144736],[-122.31944384628683,37.284069735746726],[-122.31953724412506,37.284327243435804],[-122.31888010180475,37.28447363786826],[-122.31897349820034,37.28473114595373],[-122.31765920163295,37.28502392509619],[-122.31756580941436,37.28476641602585],[-122.31723723470226,37.284839608334565],[-122.31705045429095,37.2843245894134],[-122.31639330710641,37.28447097036921],[-122.31629991995796,37.28421346027211],[-122.3159713464413,37.28428664916538],[-122.31587796098285,37.284029138726076],[-122.3155493878647,37.28410232648087],[-122.31545600409628,37.283844815699304],[-122.31512743137664,37.28391800231568],[-122.31503404929822,37.28366049119188],[-122.3143769040103,37.28380686125534],[-122.31428352466612,37.28354934954317],[-122.31395495209789,37.283622532990364],[-122.31386157444366,37.283365020935875],[-122.313533002274,37.28343820324461],[-122.31343962630974,37.283180690847956],[-122.31311105453867,37.283253872018214],[-122.31301768026437,37.282996359279345],[-122.31236053687373,37.28314271845078],[-122.31226716533364,37.282885205123485],[-122.31193859371412,37.282958383124644],[-122.31184522386394,37.28270086945519],[-122.3108595082644,37.2829203973664],[-122.31076614219275,37.28266288286248],[-122.31010899732019,37.28280922984956],[-122.31001563398274,37.282551714757375],[-122.30968706162237,37.282624886666326],[-122.30959369997478,37.28236737123189],[-122.30926512801315,37.28244054200246],[-122.30917176805544,37.28218302622592],[-122.30818605142996,37.282402532445445],[-122.30809269525076,37.2821450158345],[-122.30776412279548,37.282218182543645],[-122.30767076830614,37.281960665590525],[-122.30734219624964,37.282033831161286],[-122.30743554969465,37.282291348360495],[-122.3071069759483,37.28236451328502],[-122.30720032899451,37.282622030634265],[-122.30687175355831,37.28269519491256],[-122.30705845949868,37.2832102298151],[-122.30672988132821,37.2832833936933],[-122.30682323422236,37.28354091124664],[-122.30485174537723,37.283979877253586],[-122.30494509265056,37.28423739618746],[-122.30461650787267,37.28431055431151],[-122.30470985474709,37.284568073395526],[-122.30405268116593,37.284714387458855],[-122.30414602659698,37.28497190693902],[-122.30184589141861,37.28548397977406],[-122.30193923018388,37.28574150088083],[-122.3016106358177,37.2858146508196],[-122.30198399315556,37.2868447352716],[-122.30231259169979,37.286771584348465],[-122.30240593369248,37.28702910497552],[-122.30273453263574,37.28695595291389],[-122.30329460441506,37.28850107318501],[-122.30296599920456,37.288574226723235],[-122.30324604067536,37.289346786302204],[-122.30291743168557,37.2894199396864],[-122.30310412713808,37.289934979418454],[-122.30277551541357,37.290008132402484],[-122.30286886306358,37.29026565237081],[-122.30254024964889,37.2903388047086],[-122.30263359689984,37.29059632482716],[-122.30230498179498,37.290669476518644],[-122.30239832864686,37.2909269967875],[-122.30206971185179,37.29100014783269],[-122.30234975314698,37.291772708802405],[-122.30202113257236,37.29184585969354],[-122.3023945258255,37.292875940629244],[-122.30206590042658,37.292949091612535],[-122.30225259883736,37.29346413199769],[-122.30192397070343,37.29353728258083],[-122.30285749104775,37.296112481219886],[-122.3018715714297,37.29633193499949],[-122.30196492388086,37.29658945507511],[-122.30130763881759,37.29673575362478],[-122.30140098982478,37.296993274097005],[-122.29877181538748,37.29757843456551],[-122.29886515868155,37.29783595691136],[-122.29820785652626,37.297982238595786],[-122.29830119837618,37.29823976133824],[-122.29698658213877,37.29853231498152],[-122.29707992045464,37.29878983861291],[-122.29675126373638,37.298862975038574],[-122.29665792646544,37.29860545116109],[-122.29435731867626,37.29911737942689],[-122.29426398936555,37.29885985373067],[-122.29393532957273,37.29893298252378],[-122.29384200195251,37.2986754564858],[-122.29219869853058,37.29904108583253],[-122.29229202092584,37.29929861310112],[-122.29130602799174,37.29951798073687],[-122.2912127087315,37.29926045272992],[-122.2908840441742,37.299333573243906],[-122.2909773623894,37.299591101497015],[-122.29064869614159,37.29966422136454],[-122.29083533241831,37.30017927807601],[-122.29050666343494,37.30025239754323],[-122.29078661955594,37.30102498263151],[-122.29012927338233,37.301171220364914],[-122.29022259129015,37.30142874902868],[-122.28989391619001,37.30150186680259],[-122.2899872336982,37.30175939561691],[-122.28965855690748,37.301832512744326],[-122.28975187401605,37.302090041709164],[-122.28942319553474,37.30216315819016],[-122.28951651224367,37.30242068730551],[-122.28885915125433,37.30256691808191],[-122.28895246651845,37.3028244475939],[-122.28829510085687,37.302970675292144],[-122.28838841467615,37.303228205200796],[-122.288059729832,37.303301317957114],[-122.28815304325157,37.30355884801636],[-122.28716698171071,37.30377818166793],[-122.28726029264017,37.30403571236993],[-122.28693160312375,37.304108822048],[-122.28702491365348,37.30436635290063],[-122.28669622244635,37.30443946193217],[-122.28678953257632,37.30469699293534],[-122.28448866873715,37.30520873288493],[-122.28439536592396,37.304951200158996],[-122.28406666955335,37.30502430204935],[-122.28397336843084,37.304766768981786],[-122.28364467246008,37.304839869733385],[-122.28336477610081,37.30406726921924],[-122.28303608262047,37.30414036833993],[-122.2829427861701,37.30388283439808],[-122.28261409308962,37.30395593238003],[-122.28252079832988,37.30369839809658],[-122.28219210564934,37.303771494939795],[-122.2820988125802,37.30351396031471],[-122.28177012029957,37.30358705601924],[-122.28167682892108,37.30332952105258],[-122.28134813704037,37.30340261561834],[-122.28116155830985,37.30288754490633],[-122.28050417679358,37.30303373037572],[-122.28041089048683,37.30277619438433],[-122.28008219980603,37.30284928553394],[-122.27998891518983,37.30259174920094],[-122.27966022490898,37.3026648392119],[-122.27956694198335,37.30240730253736],[-122.27923825210252,37.302480391409546],[-122.27914497086739,37.30222285439341],[-122.27848759126051,37.30236902896787],[-122.27839431276121,37.30211149136417],[-122.2777369326639,37.302257661875885],[-122.27764365690038,37.30200012368458],[-122.27698627631277,37.30214629013362],[-122.27689300328504,37.301888751354795],[-122.27459215822182,37.30240030408538],[-122.27449889315648,37.30214276348894],[-122.27417019946922,37.30221583863377],[-122.27407693609435,37.301958297695776],[-122.27374824280733,37.30203137170196],[-122.27356172008365,37.30151628904753],[-122.27323302824215,37.30158936166902],[-122.2730465101896,37.30107427814057],[-122.27271781979363,37.30114734937748],[-122.27215828739016,37.29960209502355],[-122.27182960262095,37.29967516389196],[-122.2713633485836,37.29838744807313],[-122.27103466839577,37.29846051481918],[-122.27094142056865,37.29820297112281],[-122.27028406034849,37.29834910144506],[-122.27019081525691,37.298091557161285],[-122.26986213522463,37.29816462073743],[-122.26967564906701,37.29764953139135],[-122.26934697048027,37.297722593583046],[-122.26916048899305,37.29720750336279],[-122.26883181185191,37.29728056416999],[-122.268738573121,37.297023018670636],[-122.26840989638018,37.297096078339294],[-122.26813018719281,37.296323440529925],[-122.26780151294285,37.296396498568264],[-122.26770827888215,37.29613895219473],[-122.26803695208683,37.29606589440233],[-122.26738432440212,37.29426306883217],[-122.26771298964535,37.29419001186819],[-122.26761975865325,37.29393246522163],[-122.26794842220643,37.293859407610874],[-122.26785519081402,37.29360186111449],[-122.26752652830602,37.29367491847936],[-122.26706038624255,37.29238718333358],[-122.26673172831558,37.29246023857648],[-122.26663850288253,37.29220269101455],[-122.2663098453559,37.29227574511905],[-122.26621662161283,37.292018197215576],[-122.26555930671552,37.29216430225501],[-122.26546608570754,37.29190675376424],[-122.26513742833689,37.291979804699196],[-122.26495099034561,37.29146470693902],[-122.2646223344205,37.291537756489696],[-122.26443590109855,37.291022657855244],[-122.26476455493335,37.2909496087962],[-122.26457812210008,37.2904345102707],[-122.26424947035561,37.29050755883812],[-122.26415625595119,37.290250009186046],[-122.26382760460713,37.290323056615044],[-122.26364117982276,37.28980795653226],[-122.26331252992425,37.289881002577054],[-122.26321931954423,37.28962345214633],[-122.26289067004616,37.289696497052745],[-122.26279746135599,37.289438946280555],[-122.2621401625161,37.28958503292394],[-122.26204695656085,37.289327481564506],[-122.26171830721907,37.28940052330153],[-122.26162510295363,37.28914297160061],[-122.26129645401231,37.289216012199205],[-122.26120325143667,37.288958460156834],[-122.2602173038804,37.289177575859654],[-122.2601241050848,37.28892002298432],[-122.25880950349921,37.28921216377499],[-122.25890269811411,37.28946971763337],[-122.25725942640302,37.2898348747663],[-122.25735261643648,37.29009242975774],[-122.25636664253936,37.29031151406303],[-122.2564598300817,37.290569069696076],[-122.25547384724783,37.29078814670471],[-122.25538066284126,37.29053059033445],[-122.25505200165286,37.29060361397297],[-122.25495881893607,37.29034605726138],[-122.25397283463948,37.29056512208369],[-122.25406601422041,37.290822679532454],[-122.25275135528744,37.291114754447754],[-122.2526581798877,37.29085719601612],[-122.25232951458854,37.290930212267554],[-122.25223634087858,37.29067265349454],[-122.25190767598028,37.29074566860756],[-122.25200084864491,37.29100322762626],[-122.25134351482427,37.2911492556657],[-122.25115717432075,37.29063413654991],[-122.25082850853441,37.290707148739195],[-122.25073534029463,37.29044958879222],[-122.25007800887933,37.29059561000135],[-122.24989167851435,37.29008048883778],[-122.24956301393074,37.290153497611946],[-122.24937668823402,37.28963837557461],[-122.24904802509667,37.289711382964704],[-122.24886170406812,37.289196260053615],[-122.24853304237705,37.28926926605967],[-122.24843988387464,37.28901170421499],[-122.2481112225845,37.289084709082786],[-122.24801806577176,37.28882714689681],[-122.24768940488262,37.288900150626226],[-122.24759624975954,37.288642588099044],[-122.24726758927137,37.28871559069011],[-122.24680182854726,37.28742777539134],[-122.24614451609112,37.28757377543904],[-122.24605136796978,37.28731621160112],[-122.24572271182059,37.28738921004037],[-122.24562956538884,37.28713164586116],[-122.24464359621163,37.28735063508594],[-122.24445731155271,37.286835504966916],[-122.24412865596244,37.28690849909857],[-122.24403551564464,37.28665093365003],[-122.24337820462208,37.28679691874407],[-122.24328506703911,37.286539352708694],[-122.24295641160687,37.286612343671095],[-122.2428632757134,37.286354777294434],[-122.24187730868748,37.28657374408882],[-122.24178417657417,37.28631617687979],[-122.24145552065586,37.28638916378025],[-122.24136239023204,37.28613159623006],[-122.24103373471495,37.28620458199228],[-122.24112686409343,37.286462149788065],[-122.24079820688682,37.286535134903225],[-122.24089133586409,37.28679270284902],[-122.23990535724337,37.287011653574886],[-122.2399984837287,37.287269222161804],[-122.23868383236838,37.28756114494741],[-122.23877695531627,37.287818714420986],[-122.23844828982047,37.28789169313123],[-122.23835516791799,37.287634123412055],[-122.2367118360046,37.28799900234434],[-122.23661871997335,37.28774143130183],[-122.23530404703102,37.28803331739633],[-122.23539715888043,37.28829088942109],[-122.23506848798927,37.28836385895837],[-122.23516159943723,37.28862143113311],[-122.23121748596279,37.289496998892844],[-122.23112438706103,37.28923942377177],[-122.23013834733914,37.289458294887936],[-122.23004525221802,37.28920071893477],[-122.22971657206838,37.28927367394241],[-122.22962347863681,37.28901609764824],[-122.22929479888879,37.28908905151764],[-122.22920170714671,37.28883147488243],[-122.22887302780033,37.288904427613524],[-122.22877993774776,37.28864685063728],[-122.22812257921441,37.288792752930114],[-122.2280294918969,37.288535175367414],[-122.226057407117,37.2889728593462],[-122.22596432671696,37.288715280215115],[-122.22333485265293,37.28929880689322],[-122.2232417812618,37.28904122570288],[-122.22291309515226,37.28911416227454],[-122.2228200254506,37.288856580743285],[-122.22216265339154,37.28900245071729],[-122.22206958642496,37.28874486859967],[-122.22141221388212,37.288890734511575],[-122.22131914965067,37.28863315180758],[-122.22099046345929,37.2887060831789],[-122.22089740091725,37.288448500134],[-122.22056871512781,37.288521430367034],[-122.2204756542752,37.28826384698123],[-122.22014696888769,37.288336776075994],[-122.22005390972447,37.28807919234926],[-122.21972522473895,37.28815212030586],[-122.21953911043498,37.28763695207507],[-122.21921042689706,37.28770987864804],[-122.21911737175628,37.287452294144025],[-122.21878868862039,37.287525219578725],[-122.21860258236121,37.28701004979336],[-122.21728785174635,37.28730174064088],[-122.21719480376495,37.28704415462341],[-122.21653743668706,37.28718999419948],[-122.21663048257707,37.28744758070769],[-122.21367228945655,37.288103816813184],[-122.2137653265786,37.288361405434294],[-122.2131079411586,37.288507226349346],[-122.21329401315032,37.28902240428671],[-122.21296531738338,37.289095313895686],[-122.21305835329882,37.28935290296655],[-122.21240095774263,37.28949871999667],[-122.21249399221,37.28975630946283],[-122.2118365919879,37.28990212341215],[-122.21192962500719,37.29015971327366],[-122.21160092288494,37.29023261915439],[-122.21178698876254,37.29074779908183],[-122.21047216547105,37.291039415638735],[-122.2105651951917,37.291297006440864],[-122.21023648671405,37.29136990859319],[-122.21032951603236,37.291627499545264],[-122.21000080586523,37.291700401050115],[-122.21018686434073,37.29221558315888],[-122.20985815143823,37.29228848426153],[-122.2100442103961,37.29280366647958],[-122.20971549475816,37.29287656718004],[-122.20980852415651,37.293134158391375],[-122.20947980682905,37.29320705844433],[-122.20966586546456,37.29372224107178],[-122.20933714540156,37.293795140722466],[-122.20952320451944,37.29431032345938],[-122.20919448172091,37.29438322270793],[-122.20928751119922,37.29464081417878],[-122.20830133580414,37.29485950730299],[-122.208394362788,37.29511709941463],[-122.20806563532311,37.295189995582206],[-122.20815866190452,37.29544758784394],[-122.20782993275004,37.2955204833639],[-122.20792295892898,37.29577807577574],[-122.20759422808486,37.29585097064815],[-122.20787330734495,37.296623748048084],[-122.20721583744955,37.29676953658628],[-122.20730886306458,37.29702712935316],[-122.20665138850269,37.29717291481026],[-122.2067444126691,37.29743050797265],[-122.20641567337664,37.297503399607116],[-122.2065086971405,37.297760992919656],[-122.20585121453264,37.297906774000374],[-122.20594423684781,37.29816436770841],[-122.2052867495734,37.298310145708],[-122.2053797704398,37.298567739811574],[-122.20472227849878,37.298713514729926],[-122.20481529791644,37.298971109229065],[-122.2044865499344,37.29904399559411],[-122.20457956894943,37.2993015902434],[-122.20392206896226,37.29944736078519],[-122.20410810473815,37.29996255077977],[-122.20377935168682,37.30003543520195],[-122.20387236949387,37.30029303030179],[-122.20321485936803,37.30043879695782],[-122.20330787572617,37.30069639245327],[-122.20297911865164,37.30076927468712],[-122.2030721346071,37.3010268703328],[-122.20274337584274,37.301099751918954],[-122.2028363913955,37.30135734771488],[-122.20217886984358,37.30150310869896],[-122.20227188394729,37.30176070489045],[-122.20194312115973,37.30183358428828],[-122.2020361348607,37.30209118063004],[-122.20170737038325,37.30216405938022],[-122.20180038368146,37.302421655872244],[-122.20081408324884,37.3026402875006],[-122.20090709405163,37.30289788463362],[-122.20024955511946,37.30304363507797],[-122.20034256447305,37.303301232606664],[-122.19968502087401,37.30344697996948],[-122.1997780287784,37.30370457789381],[-122.19912048051246,37.30385032217509],[-122.19921348696758,37.30410792049512],[-122.19888471082292,37.304180791541505],[-122.19897771687518,37.30443839001182],[-122.19700504021478,37.304875599007474],[-122.1970980406319,37.30513319885496],[-122.196111690475,37.305351792032],[-122.19620468839624,37.305609392520566],[-122.19587590267714,37.30568225537201],[-122.19596890019534,37.305939856010895],[-122.19564011278628,37.306012718214625],[-122.19573310990145,37.30627031900386],[-122.19540432080238,37.306343180559786],[-122.19652032382012,37.30943438556405],[-122.19619152151884,37.30950724917159],[-122.19647053361321,37.31028004902167],[-122.19679933905428,37.31020718467793],[-122.1972643773163,37.311495181301915],[-122.19693556664207,37.31156804687273],[-122.19758663991429,37.31337123987703],[-122.19725782126977,37.31344410627275],[-122.19837400769643,37.31653528640723],[-122.19870283890167,37.316462417065885],[-122.19879585966805,37.3167200145483],[-122.19846702741603,37.31679288413512],[-122.1985600477794,37.31705048176818],[-122.19790237925059,37.31719621875306],[-122.19799539816411,37.31745381678226],[-122.19766656188735,37.31752668418041],[-122.19785259955198,37.31804188044526],[-122.19752376053783,37.31811474744112],[-122.19761677928895,37.31837234567687],[-122.1966302552436,37.318590942041446],[-122.19653723963302,37.31833334306926],[-122.19620839804398,37.318406206492156],[-122.19611538412393,37.31814860717968],[-122.19545770110841,37.31829433085479],[-122.19536468992574,37.31803673095653],[-122.19503584849932,37.318109591208774],[-122.1949428390072,37.3178519909703],[-122.19461399798392,37.31792485008378],[-122.19452099018234,37.317667249505014],[-122.1938633082985,37.31781296456133],[-122.19377030323432,37.317555363396814],[-122.19344146237377,37.317628219339625],[-122.19334845900006,37.31737061783487],[-122.19301961854276,37.317443472639],[-122.19292661685955,37.31718587079397],[-122.19259777680548,37.31725872445937],[-122.19250477681273,37.317001122274156],[-122.19184709686755,37.31714682643435],[-122.19166110300029,37.316631620797615],[-122.19133226415602,37.316704471046954],[-122.19123926923464,37.31644686784097],[-122.19091043079368,37.316519716951646],[-122.1910034246682,37.31677732040306],[-122.1906745845368,37.31685016886589],[-122.19076757800799,37.31710777246797],[-122.19010989372073,37.31725346720468],[-122.1900169023433,37.316995863111785],[-122.18968806028123,37.317068708894865],[-122.18959507059425,37.31681110446178],[-122.18926622893552,37.31688394910617],[-122.18917324093897,37.316626344332846],[-122.1888443996836,37.31669918783857],[-122.18856544269573,37.315926372213596],[-122.18823660393754,37.31599921408984],[-122.1881436206088,37.31574160844654],[-122.18748594325574,37.315887289028446],[-122.18739296266429,37.31562968279952],[-122.18706412406942,37.31570252150517],[-122.18697114516829,37.315444914936066],[-122.18664230697689,37.3155177525031],[-122.18617742735742,37.31422971700839],[-122.18650626031445,37.31415688066825],[-122.18539060229291,37.31106558875138],[-122.18506178189782,37.31113842214739],[-122.18487584999494,37.31062320500909],[-122.1845470310501,37.310696037021245],[-122.18445406711042,37.310438428064444],[-122.18412524856906,37.31051125893811],[-122.18393932471325,37.309996040249125],[-122.18361050762213,37.310068869738956],[-122.18351754770593,37.30981126000682],[-122.18318873101832,37.30988408835812],[-122.1830957727922,37.309626478285786],[-122.18276695650809,37.30969930549856],[-122.18267399997201,37.30944169508603],[-122.18201636756758,37.30958734634127],[-122.18210932201006,37.30984495724435],[-122.18079404529503,37.310136250017145],[-122.18088699619352,37.31039386180646],[-122.18055817435985,37.310466683011825],[-122.18065112485472,37.31072429495158],[-122.17966465235381,37.31094275394408],[-122.17975760035137,37.31120036652478],[-122.17942877385107,37.311273184647746],[-122.17952172144498,37.311530797378865],[-122.17853523494418,37.31174924712391],[-122.17862818004062,37.31200686049606],[-122.17764168461022,37.31222530293748],[-122.1777346272091,37.312482916950586],[-122.17609045005986,37.312846971047044],[-122.17599751269567,37.31258935580758],[-122.17501100182892,37.31280777681014],[-122.17491806824881,37.31255016074008],[-122.1739315547347,37.312768572967244],[-122.17383862493865,37.3125109560666],[-122.17350978686136,37.312583758110506],[-122.17341685875542,37.312326140869864],[-122.173088021082,37.312398941775186],[-122.17299509466615,37.31214132419451],[-122.1710220614028,37.31257810939558],[-122.17074330485976,37.31180525167076],[-122.17107214220361,37.31173245710616],[-122.17079338830689,37.310959599263796],[-122.17046455410402,37.311032393092745],[-122.17027872348196,37.310517153566714],[-122.16962105733514,37.310662737563995],[-122.16832034430861,37.30705604339536],[-122.16799152492804,37.30712883062163],[-122.16789862272357,37.30687120865305],[-122.16756980374703,37.30694399474096],[-122.16710530760244,37.3056558822491],[-122.16677649321753,37.30572866621805],[-122.16668359696408,37.30547104318995],[-122.16536833718357,37.30576216915252],[-122.16527544576054,37.30550454504897],[-122.16494663025529,37.30557732406135],[-122.16485374052195,37.30531969961788],[-122.16452492542079,37.305392477491836],[-122.16443203737717,37.3051348527084],[-122.16410322268013,37.30520762944394],[-122.16401033632619,37.304950004320496],[-122.16368152203327,37.30502277991773],[-122.16358863736903,37.30476515445425],[-122.16325982348029,37.30483792891312],[-122.16288829543832,37.303807425130074],[-122.16321710513948,37.30373465165159],[-122.162938462716,37.302961773552994],[-122.16326726863382,37.30288899991641],[-122.1629886288542,37.30211612169875],[-122.16331743098877,37.30204334790412],[-122.1632245513008,37.30178572188674],[-122.16355335174582,37.30171294744394],[-122.16346047165374,37.3014553215767],[-122.16378927040927,37.301382546485655],[-122.16323199707236,37.29983679075837],[-122.16356078890445,37.29976401624444],[-122.16346791121755,37.29950639020249],[-122.1637967013602,37.29943361504037],[-122.16370382326922,37.29917598914851],[-122.16403261172246,37.2991032133382],[-122.16393973322741,37.298845587596375],[-122.16426851999124,37.298772811137894],[-122.16417564109211,37.298515185546094],[-122.16483321059833,37.298369630439566],[-122.16474033024843,37.298112005242864],[-122.16506911299084,37.2980392265948],[-122.16497623223692,37.29778160154815],[-122.16530501328995,37.29770882225193],[-122.165212132132,37.29745119735526],[-122.16554091149568,37.29737841741092],[-122.16535514901447,37.296863167822465],[-122.16568392564216,37.29679038747502],[-122.16549816363829,37.29627513799646],[-122.16582693753001,37.29620235724588],[-122.16573405644542,37.29594473260907],[-122.16606282864785,37.29587195121031],[-122.16596994715928,37.29561432672348],[-122.16662748754295,37.295468761736515],[-122.16653460460384,37.29521113764467],[-122.16686337278507,37.29513835405644],[-122.16677048944202,37.29488073011456],[-122.16644172230735,37.294953513457685],[-122.16634884065355,37.29469588917563],[-122.16602007392282,37.29476867138059],[-122.16592719395825,37.29451104675842],[-122.1655984276315,37.29458382782523],[-122.16550554935614,37.29432620286295],[-122.16517678343332,37.29439898279159],[-122.16508390684716,37.294141357489195],[-122.16475514132836,37.29421413627963],[-122.16466226643139,37.293956510637145],[-122.16433350131658,37.294029288289465],[-122.1642406281088,37.293771662306824],[-122.1635830980446,37.29391721444191],[-122.1634902275726,37.29365958787426],[-122.16283269703132,37.29380513594666],[-122.16292556541013,37.2940627630043],[-122.16259679812907,37.29413553594571],[-122.1624110641072,37.293620281245374],[-122.16208229827681,37.29369305280369],[-122.16198943327632,37.293435425065944],[-122.16166066785003,37.293508195486105],[-122.16156780453866,37.293250567408265],[-122.1605815075445,37.293468872574756],[-122.1604886480155,37.29321124366692],[-122.15983111556686,37.293356775488775],[-122.15973825877359,37.29309914599593],[-122.15908072584828,37.2932446737552],[-122.15898787179077,37.29298704367736],[-122.15865910541109,37.29305980597223],[-122.15856625304265,37.29280217555437],[-122.15823748706715,37.29287493671117],[-122.1581446363878,37.2926173059533],[-122.15781587081653,37.292690065971925],[-122.15772302182623,37.29243243487406],[-122.15739425665917,37.29250519375457],[-122.15730140935794,37.29224756231666],[-122.15697264459513,37.29232032005908],[-122.15687979898293,37.29206268828118],[-122.15655103462437,37.292135444885474],[-122.15627250478202,37.291362548246354],[-122.15594374292098,37.29143530322278],[-122.15585090197156,37.29117767057465],[-122.1555221405148,37.291250424412944],[-122.15524362466051,37.29047752516317],[-122.15491486570129,37.29055027737364],[-122.15482202941448,37.290292643855274],[-122.15449327085956,37.290365394927655],[-122.15430760230609,37.289850127115834],[-122.1533213290673,37.29006837350461],[-122.15304284047382,37.28929546886963],[-122.15271408458285,37.289368215144926],[-122.15252843082507,37.28885294442287],[-122.15285718462279,37.288780198637326],[-122.15248588062762,37.28774965703117],[-122.15281462959678,37.287676911331786],[-122.15197922375788,37.28535818935469],[-122.15165048420769,37.28543093285056],[-122.15155766559413,37.28517329635461],[-122.15122892644831,37.28524603871251],[-122.15085766260161,37.28421549079748],[-122.15020019075567,37.28436097087543],[-122.15010737849232,37.28410333316908],[-122.14977864265268,37.28417607162353],[-122.14968583207795,37.2839184335772],[-122.14935709664275,37.283991170893714],[-122.14907867191057,37.28321825544909],[-122.1487499389728,37.283290991138145],[-122.14837871917143,37.28226043489979],[-122.14870744792326,37.2821877001898],[-122.14861464353153,37.28193006113693],[-122.14894337059485,37.28185732577858],[-122.14801535152414,37.2792809324584],[-122.14834406748115,37.279208198654416],[-122.14825126805864,37.27895055904315],[-122.14857998232728,37.27887782459085],[-122.14830158477247,37.27810490591943],[-122.14797287364296,37.27817763963754],[-122.14769448500488,37.2774047193742],[-122.14736577637248,37.277477451465074],[-122.14708739665086,37.276704529609766],[-122.14774480699559,37.27655906600319],[-122.14765201294622,37.27630142568344],[-122.14798071610937,37.2762286927852],[-122.14788792165561,37.275971052614906],[-122.14821662313057,37.27589831906831],[-122.14812382827239,37.275640679047335],[-122.14779512784374,37.275713412349205],[-122.14760954214572,37.27519813153184],[-122.14728084316779,37.27527086345128],[-122.1468168953872,37.27398265851553],[-122.14648820099879,37.274055388318494],[-122.14574592629602,37.271994253504225],[-122.14541723963582,37.27206698045684],[-122.14523167947068,37.27155169530996],[-122.14490299426112,37.27162442088028],[-122.14481021618747,37.271366777919056],[-122.1451389003508,37.2712940525934],[-122.14476779028891,37.27026348077304],[-122.14509646962567,37.27019075553288],[-122.14500369266842,37.269933112583814],[-122.14533237031725,37.269860386695264],[-122.14523959295556,37.26960274389543],[-122.14556826891648,37.26953001735851],[-122.14547549115035,37.26927237470781],[-122.1461328390546,37.269126919444155],[-122.14604005983796,37.268869277187235],[-122.14472536564706,37.26916018316399],[-122.14463259125675,37.26890253983314],[-122.14397524240323,37.26904798697423],[-122.14388247074695,37.26879034305872],[-122.14322512141894,37.26893578613849],[-122.14313235249668,37.268678141638276],[-122.1428036779163,37.268750861594064],[-122.14261814408918,37.26823557181813],[-122.14196079718812,37.26838100807221],[-122.1418680333294,37.2681233625519],[-122.14088201130396,37.26834150950161],[-122.14078925122543,37.26808386315207],[-122.13914587358154,37.26844742231827],[-122.13868210896763,37.26715918302466],[-122.13835343674508,37.267231890956],[-122.13816793748283,37.26671659408128],[-122.1378392667111,37.26678930063057],[-122.1376537721074,37.266274002884884],[-122.13732510278652,37.26634670805205],[-122.1372323574931,37.266089058791486],[-122.1369036885769,37.2661617628211],[-122.13681094497119,37.265904113220486],[-122.13648227645963,37.265976816112556],[-122.13638953454158,37.26571916617203],[-122.13606086643473,37.2657918679265],[-122.13587538661544,37.265276567269915],[-122.13554671995948,37.2653492676424],[-122.13545398205821,37.26509161692639],[-122.13578264766801,37.26501891679843],[-122.13559717169751,37.26450361556892],[-122.13526850818002,37.26457631520789],[-122.13452663832442,37.262515104513945],[-122.1341979825346,37.262587801304036],[-122.13401252357693,37.262072497186395],[-122.13368386923798,37.262145192594566],[-122.13359114176731,37.26188754014801],[-122.13326248783308,37.26196023441869],[-122.13316976204989,37.26170258163216],[-122.13284110852042,37.261775274765355],[-122.13265566097026,37.26125996841675],[-122.13232700889169,37.26133266016806],[-122.13214156599902,37.26081735294844],[-122.13181291537134,37.26089004331789],[-122.13172019593306,37.260632389320264],[-122.13139154571017,37.260705078552334],[-122.1312988279593,37.260447424214775],[-122.13097017814124,37.260520112309365],[-122.13087746207775,37.26026245763186],[-122.13054881266451,37.26033514458905],[-122.13045609828836,37.26007748957153],[-122.13012744928,37.2601501753913],[-122.13003473659118,37.25989252003381],[-122.12970608798767,37.25996520471615],[-122.12961337698621,37.25970754901879],[-122.12928472878755,37.25978023256371],[-122.12919201947344,37.259522576526315],[-122.12886337167967,37.259595258933864],[-122.12877066405288,37.25933760255654],[-122.12844201666398,37.259410283826696],[-122.1282566054262,37.258894970296524],[-122.12792795948832,37.258967650184914],[-122.12783525587733,37.25870999303214],[-122.12750661034434,37.25878267178311],[-122.12741390842062,37.25852501429037],[-122.12708526329259,37.258597691903994],[-122.12699256305612,37.25834003407128],[-122.12633527296879,37.25848538613076],[-122.12624257546565,37.25822772771379],[-122.12591393050637,37.258300402159676],[-122.1258212346905,37.25804274340276],[-122.12614987860366,37.25797006920125],[-122.12596448680306,37.257454751889505],[-122.1262931279829,37.25738207728369],[-122.12610773665459,37.256866760078324],[-122.12643637510119,37.256794085068286],[-122.1262509842452,37.25627876796928],[-122.12690825503087,37.25613341624762],[-122.12681555847244,37.25587575804337],[-122.12977323585827,37.2552216332932],[-122.12968053052697,37.254963977192546],[-122.13165228032328,37.2545278553091],[-122.13174499193026,37.25478550994346],[-122.1343739641192,37.254203962139464],[-122.13428124414497,37.253946309460204],[-122.13460986173719,37.25387361221097],[-122.13451714135834,37.25361595968041],[-122.13484575726343,37.25354326178264],[-122.13475303647998,37.253285609400784],[-122.135081650698,37.25321291085447],[-122.13498892950992,37.25295525862127],[-122.13597476517901,37.252737158358215],[-122.1358820414947,37.252479506762555],[-122.13621065105609,37.25240680513345],[-122.13611792696722,37.252149153686474],[-122.13677514207464,37.25200374823841],[-122.13621879845802,37.25045784047862],[-122.13654739877525,37.250385137881565],[-122.13636195394137,37.2498698350177],[-122.13669055152592,37.24979713201661],[-122.13659782902508,37.2495394806854],[-122.13692642492268,37.24946677703576],[-122.1367409797532,37.24895147457474],[-122.13706957291818,37.24887877052106],[-122.13688412822214,37.248363468165635],[-122.13721271865455,37.24829076370783],[-122.13711999622264,37.24803311263077],[-122.13744858496817,37.24796040752448],[-122.1373558621318,37.24770275659595],[-122.13768444919046,37.24763005084122],[-122.13759172594965,37.24737240006128],[-122.13792031132148,37.24729969365807],[-122.1378275876762,37.24704204302668],[-122.1381561713612,37.24696933597501],[-122.1380634473115,37.24671168549209],[-122.13839202930967,37.24663897779195],[-122.13829930485554,37.24638132745761],[-122.1386278851669,37.24630861910904],[-122.13853516030836,37.246050968923164],[-122.13886373893294,37.24597825992613],[-122.13877101367001,37.245720609888835],[-122.1390995906078,37.24564790024335],[-122.1390068649405,37.24539025035452],[-122.13933544019152,37.24531754006057],[-122.13924271411983,37.245059890320256],[-122.1408855755291,37.24469632668036],[-122.1409783068285,37.24495397519886],[-122.14229258859604,37.24466310723931],[-122.14219985311456,37.24440545969832],[-122.14285698805985,37.24426002085059],[-122.14276425112863,37.24400237370242],[-122.1430928165939,37.24392965318376],[-122.14318555457061,37.24418730008752],[-122.14351412044009,37.24411457843173],[-122.14360686010353,37.24437222499519],[-122.14393542637723,37.24429950220229],[-122.1440281677274,37.24455714842544],[-122.1443567344053,37.2444844244953],[-122.14454222112049,37.24499971616514],[-122.14519935673428,37.24485426464902],[-122.1452921031448,37.24511190985125],[-122.14562067103518,37.245039182509586],[-122.1457134191325,37.24529682737155],[-122.14604198742703,37.24522409889272],[-122.14613473721117,37.24548174341434],[-122.14646330590982,37.24540901379835],[-122.1465560573808,37.245666657979605],[-122.14721319494495,37.24552119558048],[-122.14730594914822,37.245778839177014],[-122.14829165382051,37.245560638149236],[-122.14838441180156,37.24581828091656],[-122.1487129797883,37.24574554521067],[-122.14880573945621,37.2460031876376],[-122.149134307847,37.245930450794546],[-122.14904154713363,37.24567280861203],[-122.14937011383756,37.24560007112062],[-122.14927735272018,37.24534242908665],[-122.14960591773725,37.24526969094699],[-122.14951315621586,37.24501204906153],[-122.15017028223488,37.244866570592734],[-122.15007751926409,37.244608929100266],[-122.1507346406266,37.24446344754945],[-122.15064187620648,37.24420580644995],[-122.15195610705277,37.24391483361329],[-122.15186333909257,37.24365719339557],[-122.15219189415518,37.243584448199066],[-122.15107871612028,37.24049276103345],[-122.1507501736014,37.240565503296736],[-122.15056465499897,37.24005022026956],[-122.15023611392925,37.24012296115134],[-122.14958682633988,37.23831946582033],[-122.14991536009286,37.23824672664935],[-122.14963710046716,37.237473799371344],[-122.14930856984982,37.2375465378092],[-122.14921581896905,37.23728889494669],[-122.14888728875565,37.23736163224749],[-122.1487017910083,37.23684634574552],[-122.14837326224405,37.236919081664915],[-122.14818776915219,37.23640379428992],[-122.14785924183705,37.23647652882794],[-122.14767375340053,37.23596124057989],[-122.14734522753456,37.236033973736546],[-122.14715974375329,37.23551868461545],[-122.14683121933652,37.23559141639072],[-122.14673847945285,37.23533377144171],[-122.14706700282444,37.23526103991081],[-122.1469742625368,37.23500339511001],[-122.14730278422202,37.23493066293075],[-122.14711730347999,37.234415373529586],[-122.1474458224337,37.23434264094634],[-122.1473530819793,37.23408499634591],[-122.14768159924668,37.234012263114366],[-122.14758885838835,37.23375461866213],[-122.1479173739694,37.2336818847822],[-122.14773189208601,37.23316659607806],[-122.14806040493568,37.23309386179422],[-122.14796766391062,37.232836217542264],[-122.14829617507401,37.23276348261006],[-122.14820343364505,37.23250583850631],[-122.14853194312218,37.23243310292582],[-122.1484392012893,37.23217545897019],[-122.14876770908019,37.23210272274143],[-122.14867496684342,37.23184507893395],[-122.14900347294804,37.23177234205689],[-122.14891073030742,37.231514698397575],[-122.1492392347258,37.23144196087221],[-122.14905374927795,37.2309266737537],[-122.14971075201112,37.23078119700244],[-122.14961800815891,37.230523553787556],[-122.14994650751872,37.23045081431734],[-122.14976101964777,37.229935528087545],[-122.15008951627642,37.229862788213424],[-122.14999677225772,37.22960514519849],[-122.14966827667405,37.22967788482838],[-122.14957553434152,37.22942024147294],[-122.14990402888019,37.229347502087414],[-122.14981128614379,37.229089858880116],[-122.15013977899636,37.229017118846265],[-122.15004703585616,37.228759475787015],[-122.15070401754788,37.22861399353018],[-122.15051852901118,37.22809870810024],[-122.15084701680541,37.22802596612161],[-122.15075427245387,37.22776832350655],[-122.15108275856205,37.22769558087963],[-122.15099001380675,37.22743793841266],[-122.15296091072207,37.22700146537326],[-122.15286816033861,37.226743824275815],[-122.15319663986888,37.22667107588964],[-122.15310388908173,37.226413434940284],[-122.15343236692595,37.22634068590582],[-122.15333961573513,37.22608304510449],[-122.15399656741037,37.22593754484669],[-122.15390381477108,37.22567990443763],[-122.1542322886021,37.22560715321422],[-122.15404678315745,37.2250918725958],[-122.1543752542577,37.2250191209685],[-122.15409699776514,37.22424620005138],[-122.15376852979924,37.22431895094578],[-122.15367577996217,37.22406131020308],[-122.15400424688328,37.223988559552986],[-122.15372599808461,37.223215637479775],[-122.15405446123029,37.22314288667004],[-122.15386896314736,37.22262760529473],[-122.15419742356245,37.222554854081054],[-122.15382643091124,37.22152429115107],[-122.15415488650633,37.22145154002208],[-122.15387664561553,37.22067861754533],[-122.15420509743545,37.220605866256605],[-122.15355588381563,37.21880237881309],[-122.15388432768194,37.21872962834176],[-122.15323513816159,37.21692613788258],[-122.1529067016075,37.216998886644284],[-122.15281396385618,37.21674124452],[-122.15314239936565,37.2166684960026],[-122.15304966121073,37.21641085402609],[-122.15370652821757,37.21626535480231],[-122.15361378861454,37.21600771321775],[-122.15394222011189,37.215934962511454],[-122.15384948010531,37.215677321074665],[-122.15417790991711,37.21560456972014],[-122.154085169507,37.21534692843108],[-122.15441359763328,37.21527417642838],[-122.15385716236658,37.213728328132625],[-122.15418558358483,37.21365557670277],[-122.15409284557268,37.21339793522652],[-122.15474968399735,37.213252430177974],[-122.15465694453727,37.212994789093656],[-122.15531377830908,37.21284928096392],[-122.15522103740108,37.21259164027141],[-122.15620628011808,37.21237337211659],[-122.1561135367178,37.21211573206014],[-122.15644194863042,37.212042974467984],[-122.15634920482672,37.21178533455915],[-122.1573344335853,37.211567057161],[-122.15724168728948,37.211309417888266],[-122.1578985011681,37.21116389564942],[-122.15780575342455,37.2109062567685],[-122.158134158358,37.21083349455477],[-122.15804141021113,37.21057585582142],[-122.1583698134592,37.21050309295951],[-122.15744235680211,37.207926702753994],[-122.15777074896617,37.20785394144179],[-122.15767800578155,37.20759630213387],[-122.15800639626039,37.207523540173504],[-122.1573572046047,37.20572006402047],[-122.157685587133,37.20564730287702],[-122.15750010748272,37.205132023594274],[-122.15782848728169,37.20505926204683],[-122.15773574737372,37.204801622504554],[-122.15806412548763,37.20472886030897],[-122.1579713851764,37.204471220914115],[-122.15829976160519,37.20439845807039],[-122.15811428081713,37.2038831794789],[-122.15877102757541,37.20373765209119],[-122.15867828605445,37.20348001313865],[-122.15900665742811,37.203407248350516],[-122.15891391550393,37.20314960954537],[-122.15924228519255,37.20307684410914],[-122.15905680117869,37.202561566696914],[-122.15971353445678,37.20241603412425],[-122.15980627823147,37.2026736723904],[-122.16046301103411,37.20252813576038],[-122.16037026517128,37.20227049798252],[-122.16102699332208,37.202124958271746],[-122.16093424601202,37.20186732088537],[-122.161590969511,37.20172177809391],[-122.16149822075378,37.201464141099095],[-122.16215493960094,37.20131859522698],[-122.16224769044622,37.20157623173345],[-122.16290440881762,37.20143068180399],[-122.16281165588433,37.201173045785865],[-122.16346836960388,37.201027492775815],[-122.16337561522352,37.20076985714922],[-122.16370397007785,37.20069707955002],[-122.16361121529445,37.20043944407076],[-122.16426792099229,37.200293886684],[-122.16417516476193,37.20003625159627],[-122.16450351560542,37.19996347180875],[-122.16441075897207,37.19970583686833],[-122.16506745664826,37.199560275105],[-122.16497469856797,37.1993026405561],[-122.16563139159243,37.19915707571225],[-122.16553863206526,37.19889944155488],[-122.16619532043796,37.19875387363053],[-122.16591703943902,37.19798097204216],[-122.16624537953226,37.1979081874742],[-122.16596710117044,37.197135285746356],[-122.16629543749109,37.19706250101874],[-122.16620267827523,37.19680486715983],[-122.16653101291105,37.19673208178418],[-122.16643825329233,37.196474448072514],[-122.16840824138417,37.19603771854814],[-122.16850100726582,37.19629535079482],[-122.16915766692281,37.196149766661065],[-122.16906489895362,37.195892134902756],[-122.17234814833972,37.19516416314697],[-122.1724409267464,37.195421792463385],[-122.17276924920299,37.195348990136836],[-122.17267646975259,37.19509136106465],[-122.17464638476717,37.19465452983613],[-122.17473917047974,37.19491215744307],[-122.17506748844866,37.194839348871696],[-122.17516027584598,37.195096976137485],[-122.17548859421748,37.19502416642975],[-122.1755813832996,37.19528179335436],[-122.17590970207362,37.19520898251025],[-122.17600249284057,37.195466609093586],[-122.17633081201711,37.19539379711322],[-122.17651639756176,37.19590904950048],[-122.17684471818448,37.19583623613949],[-122.17693751296224,37.19609386194344],[-122.17890742949578,37.19565696157784],[-122.17900023117669,37.19591458581927],[-122.18031350021602,37.19562330008981],[-122.18040630671265,37.1958809232572],[-122.18106293947213,37.19573527455136],[-122.18171261751496,37.197538630587225],[-122.18204094023821,37.1974658031862],[-122.18213375499602,37.19772342484479],[-122.18311872244877,37.19750493655605],[-122.18321154097882,37.1977625573848],[-122.18353986322403,37.19768972592667],[-122.18363268343909,37.197947346414146],[-122.18396100608659,37.197874513819656],[-122.18405382798663,37.19813213396579],[-122.1843821510364,37.19805930023485],[-122.18447497462145,37.19831692003967],[-122.18480329807346,37.19824408517236],[-122.18489612334355,37.198501704635895],[-122.1852244471978,37.19842886863209],[-122.18550292998732,37.199201725707844],[-122.18583125633111,37.19912888807897],[-122.18610974802439,37.199901743548985],[-122.18643807685767,37.19982890429496],[-122.18662374328109,37.2003441403015],[-122.18695207356022,37.20027129966661],[-122.18704490877778,37.20052891728008],[-122.18737323945913,37.20045607550877],[-122.18746607636183,37.2007136927809],[-122.18779440744532,37.20064084987311],[-122.18798008526254,37.20115608363783],[-122.1886367496797,37.20101039416841],[-122.1887295916379,37.2012680104166],[-122.18971458658315,37.201049468788476],[-122.18980743231386,37.20130708420652],[-122.19013576372284,37.2012342349685],[-122.19022861113872,37.201491850045244],[-122.1915419345336,37.20120044319481],[-122.1916347867656,37.20145805719691],[-122.19196311705399,37.20138520300964],[-122.1920559709712,37.20164281667046],[-122.1923843016616,37.201569961346635],[-122.19247715726408,37.20182757466604],[-122.19543211399687,37.20117183440848],[-122.1957107128314,37.20194466718507],[-122.1960390412797,37.20187180196274],[-122.19622477913168,37.20238702284009],[-122.19655310902549,37.202314156236724],[-122.19664597995762,37.20257176628553],[-122.19697431025327,37.2024988985456],[-122.19706718287071,37.20275650825294],[-122.197723843624,37.20261076960801],[-122.19781671897036,37.20286837872942],[-122.19814504942798,37.20279550782439],[-122.19823792645968,37.20305311660436],[-122.1985662573191,37.202980244562745],[-122.19875201539499,37.20349546134289],[-122.19908034769979,37.20342258792023],[-122.19917322874402,37.20368019592036],[-122.19982989351541,37.20353444590982],[-122.19992277728859,37.20379205332397],[-122.20156443320313,37.20342766146389],[-122.20147154421214,37.20317005527226],[-122.20212819999801,37.20302429277276],[-122.20203530956177,37.20276668697314],[-122.2023636354484,37.20269380462988],[-122.20227074461052,37.202436198977786],[-122.2025990688118,37.202363315986965],[-122.20250617757222,37.20210571048242],[-122.20283450008814,37.20203282684409],[-122.20302028529612,37.20254803726713],[-122.20334860925719,37.20247515224766],[-122.20353439911962,37.20299036179371],[-122.20386272452583,37.20291747539317],[-122.20404851904281,37.2034326840622],[-122.2037201915496,37.20350557095182],[-122.20381308872741,37.20376317538543],[-122.20414141726418,37.20369028825126],[-122.2045130165687,37.204720704037776],[-122.20484134863766,37.20464781503341],[-122.20530586742962,37.20593583136213],[-122.20563420407439,37.205862940242916],[-122.20591292618388,37.20663574814311],[-122.20656960380892,37.20648996176097],[-122.20666251454989,37.20674756371138],[-122.20699085344296,37.206674668937616],[-122.20717667893811,37.20718987205838],[-122.20750501927631,37.20711697590337],[-122.20759793403052,37.20737457707372],[-122.20825461486791,37.20722878159837],[-122.2083475323513,37.20748638218266],[-122.20867587285049,37.207413482862194],[-122.2089546322838,37.208186283299604],[-122.20928297527163,37.20811338235329],[-122.20937589741051,37.20837098206061],[-122.2097042407998,37.208298079977595],[-122.21044764937575,37.21035887219055],[-122.21077600047174,37.21028596725836],[-122.21114772434585,37.21131636006085],[-122.21147607897419,37.211243453257936],[-122.21166194685165,37.21175864858857],[-122.21199030292505,37.21168574040421],[-122.21217617545867,37.21220093485807],[-122.21250453297714,37.212128025292316],[-122.21259747125093,37.21238562212926],[-122.2129258291708,37.21231271142666],[-122.21301876913049,37.212570307922064],[-122.21334712745175,37.212497396082725],[-122.21344006909737,37.212754992236604],[-122.21376842782001,37.21268207926045],[-122.21386137115152,37.21293967507273],[-122.21418973027556,37.21286676095978],[-122.21437562095275,37.2133819518044],[-122.21470398152177,37.21330903630997],[-122.21479692886747,37.213566631342296],[-122.21512528983783,37.21349371471102],[-122.21521823886948,37.21375130940177],[-122.21587496097058,37.21360547297357],[-122.21606086513547,37.214120661085666],[-122.21638922730982,37.21404774104393],[-122.21666809150577,37.21482052175152],[-122.2169964561687,37.21474760008351],[-122.21718237093187,37.21526278624824],[-122.21751073703975,37.215189863198646],[-122.2176036964286,37.21544745589101],[-122.21793206293773,37.21537453170457],[-122.21811798572996,37.215889716309306],[-122.21844635368403,37.21581679074122],[-122.21853931708746,37.21607438265362],[-122.21886768544277,37.216001455948714],[-122.2189606505323,37.21625904751944],[-122.2196173874029,37.21611319094377],[-122.21971035522222,37.21637078192815],[-122.22003872373749,37.21629785205737],[-122.22022466339091,37.21681303324617],[-122.22055303335102,37.216740101993715],[-122.22073897766172,37.21725528230563],[-122.22106734906669,37.21718234967146],[-122.22125329803477,37.217697529106566],[-122.22158167088458,37.21762459509072],[-122.22167464737609,37.217882184418286],[-122.22200302062706,37.2178092492655],[-122.22209599880478,37.21806683825139],[-122.22242437245687,37.21799390196174],[-122.22344718630224,37.22082737172549],[-122.22377557079254,37.220754431850544],[-122.2239615473876,37.22126960642347],[-122.22428993332275,37.22119666516672],[-122.22447591457589,37.2217118388629],[-122.22480430195587,37.221638896224334],[-122.22508328178687,37.222411655308385],[-122.22475489127562,37.222484598681646],[-122.2250338737595,37.223257357629784],[-122.22470547947422,37.22333030084557],[-122.22526345553224,37.224875817599795],[-122.22493505434139,37.22494876139278],[-122.22502805155675,37.22520634742493],[-122.22535645379145,37.225133403387076],[-122.22591445684449,37.22667891608031],[-122.22624286469957,37.226605969680826],[-122.22680089715605,37.228151477424674],[-122.22712931063163,37.228078528663374],[-122.22722231933477,37.228336112704106],[-122.22689390481533,37.228409061710394],[-122.22717293165016,37.229181813987715],[-122.22750134930133,37.229108864246605],[-122.2275943605759,37.22936644790084],[-122.22792277862817,37.229293497022596],[-122.22810880519373,37.229808663551275],[-122.22843722469095,37.2297357112909],[-122.22918136502068,37.23179637158149],[-122.22885293717184,37.231869325801725],[-122.22894595656223,37.23212690814835],[-122.22927438545504,37.232053953683156],[-122.22936740653239,37.23231153568823],[-122.22969583582623,37.23223858008581],[-122.22978885859048,37.23249616174929],[-122.23011728828533,37.23242320500964],[-122.23021031273656,37.232680786331535],[-122.23053874283241,37.2326078284547],[-122.2306317689706,37.232865409435014],[-122.23096019946743,37.23279245042094],[-122.23105322729259,37.23305003105968],[-122.23138165819041,37.23297707090835],[-122.23147468770254,37.23323465120552],[-122.23213154965711,37.23308872773622],[-122.23222458190021,37.23334630744672],[-122.23288144337057,37.23320037991855],[-122.23297447834464,37.23345795904243],[-122.23330290915922,37.23338499369504],[-122.23348898312447,37.23390015116288],[-122.23381741538391,37.233827184433196],[-122.23391045437513,37.234084762777215],[-122.23423888703545,37.234011794910295],[-122.23470409685777,37.235299683956775],[-122.23503253409488,37.23522671397228],[-122.2351255790327,37.23548429124687],[-122.23545401667067,37.23541132012507],[-122.23564011056368,37.23592647389438],[-122.2359685496465,37.23585350139023],[-122.23606159860171,37.23611107788499],[-122.23671847692586,37.23596512970985],[-122.23681152861225,37.23622270561789],[-122.23713996785352,37.23614972994694],[-122.23732607524384,37.236664880983184],[-122.23765451592993,37.2365919039298],[-122.23774757163388,37.236849479057994],[-122.23807601272073,37.236776500867286],[-122.23816907011191,37.237034075653824],[-122.23849751159952,37.23696109632577],[-122.23859057067791,37.237218670770694],[-122.2389190125663,37.23714569030532],[-122.23901207333193,37.237403264408606],[-122.23934051562105,37.2373302828059],[-122.23943357807393,37.23758785656747],[-122.23976202076379,37.23751487382743],[-122.24022734789733,37.23880273996183],[-122.2405557951639,37.23872975510386],[-122.24083500229573,37.239502472890834],[-122.24116345205104,37.239429486405164],[-122.24125652342565,37.239687058562666],[-122.24158497358164,37.23961407093963],[-122.24214342160403,37.24115950038718],[-122.2424718773809,37.24108651040084],[-122.2427511132099,37.24185922308653],[-122.24307957147555,37.24178623147241],[-122.24317265241612,37.242043801929505],[-122.24350111108241,37.24197080917793],[-122.24359419371045,37.242228379293365],[-122.24392265277737,37.24215538540436],[-122.24401573709294,37.242412955178104],[-122.24467265538456,37.242266964232975],[-122.24476574243168,37.24252453341981],[-122.24542266023758,37.24237853841529],[-122.2455157500163,37.242636107015244],[-122.24617266733634,37.24249010795139],[-122.24626575984665,37.242747675964395],[-122.24659421858544,37.242674674848914],[-122.2467804076247,37.243189810094975],[-122.24710886780808,37.24311680759681],[-122.24738815932554,37.24388950900678],[-122.24771662199757,37.24381650488058],[-122.24780972150118,37.244074071579085],[-122.24846664700264,37.243928060159504],[-122.24855974923798,37.24418562627101],[-122.24888821206741,37.24411261897765],[-122.24898131599036,37.244370184747396],[-122.24930977922027,37.2442971763165],[-122.24940288483087,37.244554741744594],[-122.2497313484612,37.24448173217616],[-122.24982445575947,37.244739297262484],[-122.25015291979025,37.24466628655661],[-122.25033913840575,37.245181415949304],[-122.250667603881,37.24510840386065],[-122.25076071519825,37.245365968167],[-122.25108918107392,37.24529295494081],[-122.25118229407889,37.24555051890544],[-122.25183922598734,37.2454044892857],[-122.25193234172407,37.24566205266332],[-122.2525892731459,37.24551601898413],[-122.25268239161441,37.24577358177465],[-122.25301085740385,37.24570056335135],[-122.2531039775601,37.245958125800165],[-122.25343244374989,37.245885106239335],[-122.25352556559389,37.24614266834637],[-122.25385403218395,37.24606964764798],[-122.25394715571575,37.2463272094132],[-122.2542756227061,37.246254187577314],[-122.25446187378898,37.24676931032775],[-122.2547903422237,37.24669628710898],[-122.25488346977482,37.24695384809421],[-122.25521193860983,37.24688082373786],[-122.25530506784875,37.2471383843813],[-122.25629047362318,37.24691930522291],[-122.25638360663801,37.24717686503381],[-122.25671207498593,37.2471038366179],[-122.2568052096886,37.247361396087044],[-122.25746214654102,37.24721533608777],[-122.25755528397558,37.24747289496975],[-122.25886915413051,37.247180763283204],[-122.25905543928326,37.24769587879482],[-122.25938390730035,37.24762284315187],[-122.25947705188655,37.24788040051766],[-122.25980552030379,37.24780736373712],[-122.25989866657788,37.24806492076106],[-122.26022713539523,37.24799188284297],[-122.26032028335722,37.248249439525004],[-122.2616341563635,37.24795727794886],[-122.2617273091454,37.24821483355291],[-122.26271271027078,37.24799570226647],[-122.26299218187606,37.24876836629103],[-122.26332065076187,37.24869532000824],[-122.26360013129491,37.2494679824285],[-122.26392860266868,37.24939493451717],[-122.26420809212978,37.2501675953332],[-122.26453656599156,37.25009454579335],[-122.2647228976071,37.250609652030995],[-122.2650513729129,37.25053660110805],[-122.26523770919265,37.251051706469084],[-122.2655661859424,37.25097865416297],[-122.2656593560924,37.251236206453406],[-122.26598783324208,37.251163153009614],[-122.26617417756236,37.251678256810315],[-122.266502656156,37.251605201983345],[-122.26668900514076,37.2521203049074],[-122.2680029214263,37.25182807471357],[-122.26809610106093,37.252085625049055],[-122.268424579566,37.252012565024565],[-122.26851776088877,37.25227011501815],[-122.26884623979369,37.252197053855916],[-122.26893942280465,37.25245460350756],[-122.2692679021094,37.2523815412077],[-122.26945427215188,37.25289663973072],[-122.27175362386367,37.25238517521252],[-122.27184681715917,37.2526427226107],[-122.27217529444225,37.25256965243663],[-122.27226848942593,37.252827199492934],[-122.27259696710873,37.25275412818111],[-122.27269016378068,37.25301167489544],[-122.27301864186316,37.252938602445894],[-122.27311184022335,37.253196148818205],[-122.27344031870554,37.25312307523093],[-122.27353351875396,37.25338062126133],[-122.27386199763586,37.253307546536334],[-122.27395519937255,37.2535650922247],[-122.27494063528432,37.2533458619598],[-122.27503384079722,37.25360340681513],[-122.27601927404194,37.253384167783885],[-122.27611248333103,37.25364171180596],[-122.27676943769372,37.25349554749979],[-122.27686264971501,37.25375309093434],[-122.27719112697373,37.25368000719735],[-122.27728434068338,37.2539375502899],[-122.27761281834165,37.253864465415134],[-122.27779924978194,37.25437955081977],[-122.27845620734111,37.25423337741134],[-122.27854942611572,37.25449091947782],[-122.2788779049726,37.254417831189755],[-122.27906434654298,37.254932914542195],[-122.27939282684329,37.25485982487075],[-122.2794860496391,37.2551173661567],[-122.27915756829482,37.255190456073834],[-122.2796236867208,37.25647816228582],[-122.27995217328488,37.256405071140556],[-122.28004539994745,37.256662611848206],[-122.28037388691104,37.25658951956513],[-122.28046711526207,37.25684705993064],[-122.28079560262513,37.25677396650976],[-122.28098206334867,37.25728904646043],[-122.28131055215518,37.25721595165604],[-122.28140378452771,37.25747349124112],[-122.28173227373365,37.25740039529892],[-122.28182550779471,37.257657934541946],[-122.28215399740009,37.25758483746187],[-122.28224723314965,37.25784237636286],[-122.28454664964728,37.257330670101304],[-122.28445340659,37.25707313291999],[-122.28675278419495,37.25656138466171],[-122.2868460345596,37.25681892012318],[-122.28717451553997,37.25674580941478],[-122.28708126413144,37.256488274199015],[-122.288395177431,37.25619582342674],[-122.28830192249167,37.255938289097394],[-122.28928734756589,37.25571894238784],[-122.28919409013969,37.25546140869906],[-122.28952256283125,37.25538829159069],[-122.28961582130128,37.255645825033675],[-122.290272766838,37.255499587649034],[-122.29036602804032,37.25575712050417],[-122.29102297308589,37.25561087905957],[-122.29111623702055,37.25586841132678],[-122.29177318157485,37.25572216582224],[-122.2918664482418,37.25597969750155],[-122.29285186336918,37.25576032181662],[-122.29294513381224,37.25601785266227],[-122.29393054626814,37.255798468211076],[-122.29402382048731,37.25605599822297],[-122.29468076098823,37.25590973697013],[-122.29477403793969,37.256167266394066],[-122.29543097794894,37.256021001081244],[-122.29552425763275,37.25627852991723],[-122.29618119715023,37.25613226054443],[-122.29627447956638,37.256389788792376],[-122.296931418592,37.256243515359685],[-122.29711798953379,37.256758570583],[-122.29777493015494,37.25661229259876],[-122.29786821868063,37.25686981957413],[-122.29852515880977,37.256723537529844],[-122.29861845006783,37.256981063917166],[-122.29894692020878,37.25690792131113],[-122.29913350674707,37.25742297330471],[-122.30011891956279,37.25720353865911],[-122.30002562284001,37.25694601344799],[-122.30035409144502,37.25687286702774],[-122.30026079432344,37.25661534196598],[-122.3012461931377,37.25639589809017],[-122.30133949339034,37.25665342241453],[-122.30265335362138,37.25636081710776],[-122.30256004919401,37.256103293766685],[-122.3028885115957,37.25603014045562],[-122.30279520676967,37.25577261726386],[-122.30312366748271,37.255699463306556],[-122.3029370576783,37.25518441712509],[-122.30326551565909,37.255111262767386],[-122.30289229961537,37.254081170229284],[-122.30322075277677,37.25400801596279],[-122.30284754287783,37.25297792286317],[-122.30317599122,37.2529047686878],[-122.30308268931404,37.252647245417315],[-122.30406802734028,37.25242777827657],[-122.30397472294862,37.25217025564683],[-122.30496005203982,37.25195078121529],[-122.30486674516254,37.2516932592264],[-122.30749425267952,37.251107956793675],[-122.3074009380994,37.25085043667468],[-122.30871467220446,37.25055776503366],[-122.30862135409562,37.25030024580129],[-122.30894978496598,37.25022707590692],[-122.30885646645874,37.24996955682372],[-122.30951332417756,37.249823214850664],[-122.30942000422853,37.24956569616247],[-122.31073370775249,37.24927300249614],[-122.31064038427503,37.24901548469454],[-122.3109688075001,37.24894230929386],[-122.3108754836243,37.24868479164141],[-122.31218916590089,37.248392082102626],[-122.31228249394998,37.2486495987717],[-122.31261091394981,37.24857641891129],[-122.31270424368728,37.24883393523785],[-122.31303266408537,37.2487607542397],[-122.31312599551121,37.249018270223694],[-122.31345441630752,37.248945088087694],[-122.31354774942179,37.249202603729174],[-122.3145330110701,37.24898305123198],[-122.31462634795938,37.249240566039155],[-122.31758210745703,37.24858185817058],[-122.31748876117832,37.24832434557629],[-122.31781717463127,37.248251151599376],[-122.3179105219532,37.24850866394782],[-122.31889576157064,37.248289075928],[-122.31898911266744,37.24854658744204],[-122.31931752562608,37.248473389405724],[-122.31959758591739,37.24924592262973],[-122.31926916982906,37.24931912140374],[-122.3195492327977,37.25009165449492],[-122.31987765201576,37.25001845498321],[-122.32053116216261,37.25182102708979],[-122.32085958803829,37.25174782496459],[-122.32141977101894,37.253292881523805],[-122.32174820250917,37.25321967703106],[-122.32202830584143,37.25399220326777],[-122.32235673981629,37.25391899714515],[-122.32254348068462,37.25443401366108],[-122.32287191610074,37.254360806154544],[-122.32296528854633,37.2546183140216],[-122.32329372436038,37.25454510537714],[-122.32348047327442,37.25506012032924],[-122.32446578310419,37.254840487568316],[-122.32455916165934,37.25509799416143],[-122.32488759802172,37.255024781211226],[-122.32498097826561,37.2552822874617],[-122.32563785114071,37.25513585839347],[-122.32573123411673,37.25539336405533],[-122.32605967062938,37.25532014793725],[-122.32624644060449,37.25583515847893],[-122.32657487855832,37.255761940976896],[-122.32666826555742,37.25601944585671],[-122.32699670390907,37.25594622721674],[-122.327090092597,37.2562037317539],[-122.32741853134648,37.25613051197599],[-122.32825906797696,37.25844804624797],[-122.32793061983735,37.25852126824029],[-122.32802401498071,37.2587787718113],[-122.32769556515214,37.258851993157755],[-122.32778895989769,37.259109496878246],[-122.32746050838013,37.259182717578774],[-122.32764729772117,37.259697725222054],[-122.3273188434712,37.25977094552276],[-122.32759902919439,37.26054345700159],[-122.32792748657461,37.26047023596265],[-122.32802088415032,37.26072773934978],[-122.32834934192839,37.26065451717279],[-122.32844274119313,37.26091202021724],[-122.32909965689927,37.2607655726952],[-122.32919305889651,37.261023075150895],[-122.32952151682456,37.260949849805804],[-122.32961492051086,37.26120735191885],[-122.32994337883672,37.261134125435724],[-122.33059723002378,37.262936635801005],[-122.33092569500806,37.26286340670307],[-122.33101910594675,37.26312090755155],[-122.33134757132876,37.26304767731552],[-122.3318146409255,37.26433517887936],[-122.33214311087917,37.26426194652068],[-122.33242336351675,37.26503444556239]]]},"id":"globalwatershed","properties":{}}],"bbox":[-122.33242336351675,37.19465452983613,-122.1258212346905,37.318590942041446]}