{"type":"FeatureCollection","features":[{"type":"Feature","geometry":{"type":"Point","coordinates":[-122.07195096616205,37.04424418862395]},"id":"globalwatershedpoint","properties":{}},{"type":"Feature","geometry":{"type":"Polygon","coordinates":[[[-122.19547412245883,37.147187190616485],[-122.19514603407247,37.147260055886534],[-122.19533162982198,37.14777528927911],[-122.19500353871072,37.14784815414552],[-122.19509633650452,37.14810577093883],[-122.19476824371044,37.14817863515768],[-122.19486104110288,37.14843625209702],[-122.19453294662594,37.1485091156683],[-122.19462574361704,37.14876673275363],[-122.1929852564106,37.14913103845653],[-122.19307804883178,37.1493886566638],[-122.19274994842613,37.149461515373716],[-122.19284274044587,37.14971913372708],[-122.19218653562811,37.14986484896006],[-122.19227932620424,37.15012246770339],[-122.19195122179208,37.15019532422651],[-122.19204401196674,37.150452943115944],[-122.19171590587166,37.15052579899144],[-122.19190148605877,37.15104103696454],[-122.19157337723856,37.15111389243638],[-122.19166616725097,37.151371511520075],[-122.19068183381928,37.151590073317976],[-122.19058904693355,37.151332453502384],[-122.18993282352669,37.151478156421724],[-122.1900256083279,37.151735776725275],[-122.18904126528557,37.151954325149205],[-122.18913404760069,37.15221194608674],[-122.18880593092959,37.15228479402217],[-122.1888987128431,37.1525424151058],[-122.18857059448901,37.15261526239356],[-122.18866337600089,37.15287288362336],[-122.1883352559638,37.15294573026339],[-122.18842803707408,37.15320335163935],[-122.18711554634957,37.1534947302592],[-122.18730110215346,37.15400997466928],[-122.18762922788031,37.153937130863845],[-122.18772200778565,37.15419475267819],[-122.18805013391416,37.154121907737114],[-122.18814291550252,37.15437952920971],[-122.1884710420327,37.154306683133036],[-122.18856382530414,37.15456430426384],[-122.18889195223596,37.15449145705157],[-122.18907752278574,37.155006698531764],[-122.18940565116152,37.15493384993992],[-122.18968401491887,37.155706710694744],[-122.19001214578101,37.155633860479256],[-122.19010493602403,37.15589148029134],[-122.1897768041195,37.15596433075079],[-122.1898695939609,37.156221950709046],[-122.1892133261448,37.15636764944103],[-122.18930611454219,37.156625269789565],[-122.18864984207819,37.156770965442945],[-122.18883541662562,37.15728620682261],[-122.18916355526285,37.15721335895368],[-122.18953471621677,37.158243839563895],[-122.18920657340979,37.15831668840882],[-122.18939215564662,37.15883192861548],[-122.18906401011392,37.15890477705673],[-122.18943517810749,37.15993525727343],[-122.18910702776401,37.160008105799164],[-122.18929261352073,37.160523345809295],[-122.18896446045143,37.16059619393136],[-122.1890572532485,37.16085381403393],[-122.18872909849584,37.16092666150838],[-122.18882189089123,37.161184281757244],[-122.1884937344552,37.161257128583976],[-122.18858652644889,37.16151474897928],[-122.18825836832944,37.16158759515833],[-122.18835115992142,37.16184521569995],[-122.18802300011858,37.16191806123136],[-122.1881157913088,37.16217568191936],[-122.18778762982258,37.16224852680309],[-122.18788042061108,37.16250614763748],[-122.1875522574414,37.16257899187349],[-122.18764504782814,37.16283661285428],[-122.18698871748109,37.162982299139244],[-122.18708150642345,37.16323992051043],[-122.18675333924605,37.163312762559364],[-122.18684612778662,37.16357038407703],[-122.18618978942405,37.163716065987785],[-122.18628257652018,37.16397368789579],[-122.18595440533501,37.16404652775762],[-122.18604719202929,37.16430414981205],[-122.18506267150084,37.16452266477913],[-122.18524824055585,37.16503791005951],[-122.18557641679153,37.164965072140795],[-122.18566920332297,37.16522269439054],[-122.18599737996051,37.165149855336054],[-122.18609016817548,37.16540747724416],[-122.18641834521485,37.165334637053874],[-122.18651113511338,37.165592258620286],[-122.18683931255458,37.16551941729422],[-122.18702489635962,37.166034659646236],[-122.18735307524533,37.165961816940225],[-122.18763145888764,37.16673467900413],[-122.18795964026054,37.16666183467415],[-122.18823803279919,37.16743469512766],[-122.18856621665934,37.16736184917367],[-122.1887518169752,37.1678770885],[-122.18908000227982,37.16780424116605],[-122.18917280444194,37.16806186043878],[-122.18950099014835,37.16798901196899],[-122.1895937939941,37.168246630900036],[-122.18992198010227,37.16817378129435],[-122.19001478563175,37.168431399883715],[-122.19034297214166,37.1683585491422],[-122.19071420484048,37.1693890215477],[-122.19038601415963,37.16946187326577],[-122.19066444228619,37.17023472727806],[-122.1909926360953,37.17016187482767],[-122.19117826013704,37.170677109860016],[-122.19150645539064,37.1706042560295],[-122.19187771533794,37.171634723947314],[-122.19220591412162,37.17156186824845],[-122.19248436894186,37.172334717430516],[-122.19215616702981,37.17240757386184],[-122.19224898554265,37.172665190305025],[-122.19192078194669,37.17273804608871],[-122.1920136000578,37.17299566267858],[-122.19135718885691,37.173141372058936],[-122.19145000552346,37.17339898903961],[-122.19046538078533,37.17361754715406],[-122.19055819496441,37.173875164769775],[-122.18990177318113,37.17402086620857],[-122.18999458591556,37.1742784842152],[-122.18933815948213,37.174424182575045],[-122.18943097077184,37.174681800972536],[-122.1891027555506,37.17475464905889],[-122.1891955664385,37.17501226760304],[-122.18886734953324,37.17508511504171],[-122.18896016001926,37.17534273373262],[-122.18863194143003,37.17541558052361],[-122.18891037360581,37.17618843674444],[-122.18858215124665,37.17626128337602],[-122.18904621248014,37.17754937635014],[-122.1893744400542,37.17747652849766],[-122.18946725526723,37.17773414655613],[-122.18913902665018,37.17780699465278],[-122.19071696563944,37.18218649090257],[-122.19038871864932,37.18225934225901],[-122.19066719457797,37.183032192351334],[-122.19099544469742,37.18295934026222],[-122.19118110060903,37.183474572682144],[-122.1915093521735,37.18340171921266],[-122.19197350839067,37.18468979733878],[-122.19230176452952,37.184616941756026],[-122.19267310521948,37.18564740152902],[-122.19300136488967,37.185574544077205],[-122.19327988027077,37.18634738715294],[-122.19295161747105,37.186420245337615],[-122.19304445617097,37.186677859746005],[-122.1927161916867,37.18675071728306],[-122.19280902998476,37.18700833183851],[-122.19248076381595,37.18708118872785],[-122.19266644024977,37.1875964180357],[-122.19233817135314,37.187669274521745],[-122.19308089439805,37.18973018981926],[-122.19340917164072,37.18965733137866],[-122.1937805527303,37.19068778571775],[-122.19410883350467,37.190614925407885],[-122.19420168142399,37.19087253850535],[-122.19387339960632,37.19094539905956],[-122.19415194408316,37.19171823850215],[-122.19382365849407,37.191791098897404],[-122.19391650689263,37.19204871209494],[-122.19424479352506,37.19197585145535],[-122.194709050357,37.193263914764415],[-122.19438075850783,37.19333677662581],[-122.19456646364449,37.193852001758344],[-122.19423816906706,37.19392486321646],[-122.19433102155429,37.194182475881405],[-122.19400272529197,37.19425533669191],[-122.19437413748258,37.19528578735826],[-122.1940458364051,37.19535864825424],[-122.19441725468673,37.19638909834484],[-122.19474555993794,37.19631623647129],[-122.19483841715571,37.196573848506915],[-122.19516672280879,37.196500985496925],[-122.19525958171158,37.19675859719108],[-122.19558788776654,37.196685733044674],[-122.19568074835436,37.19694334439735],[-122.19600905481116,37.196870479114516],[-122.19619477999854,37.197385701039856],[-122.19652308790063,37.197312834376156],[-122.19661595250021,37.19757044494881],[-122.19694426080409,37.19749757714868],[-122.19703712708875,37.19775518737989],[-122.19736543579445,37.19768231844332],[-122.19755117237565,37.19819753812567],[-122.19787948252657,37.19812466780818],[-122.19797235282313,37.19838227725941],[-122.19830066337585,37.19830940580546],[-122.19839353535754,37.19856701491518],[-122.198721846312,37.19849414232473],[-122.19881471997883,37.19875175109293],[-122.1994713420496,37.19860600274715],[-122.19956421844503,37.198863610929415],[-122.1998925295613,37.198790735174],[-122.19998540764192,37.19904834301474],[-122.20031371915988,37.19897546612285],[-122.20040659892568,37.19923307362209],[-122.20073491084536,37.19916019559375],[-122.20092067438907,37.19967540981217],[-122.20124898775389,37.199602530402835],[-122.20199207594786,37.20166338143965],[-122.20232039701861,37.201590499182366],[-122.2024132869745,37.201848104880874],[-122.20274160844693,37.20177522148701],[-122.20283450008814,37.20203282684409],[-122.20250617757222,37.20210571048242],[-122.2025990688118,37.202363315986965],[-122.20227074461052,37.202436198977786],[-122.2023636354484,37.20269380462988],[-122.20203530956177,37.20276668697314],[-122.20212819999801,37.20302429277276],[-122.20147154421214,37.20317005527226],[-122.20156443320313,37.20342766146389],[-122.19992277728859,37.20379205332397],[-122.19982989351541,37.20353444590982],[-122.19917322874402,37.20368019592036],[-122.19908034769979,37.20342258792023],[-122.19875201539499,37.20349546134289],[-122.1985662573191,37.202980244562745],[-122.19823792645968,37.20305311660436],[-122.19814504942798,37.20279550782439],[-122.19781671897036,37.20286837872942],[-122.197723843624,37.20261076960801],[-122.19706718287071,37.20275650825294],[-122.19697431025327,37.2024988985456],[-122.19664597995762,37.20257176628553],[-122.19655310902549,37.202314156236724],[-122.19622477913168,37.20238702284009],[-122.1960390412797,37.20187180196274],[-122.1957107128314,37.20194466718507],[-122.19543211399687,37.20117183440848],[-122.19247715726408,37.20182757466604],[-122.1923843016616,37.201569961346635],[-122.1920559709712,37.20164281667046],[-122.19196311705399,37.20138520300964],[-122.1916347867656,37.20145805719691],[-122.1915419345336,37.20120044319481],[-122.19022861113872,37.201491850045244],[-122.19013576372284,37.2012342349685],[-122.18980743231386,37.20130708420652],[-122.18971458658315,37.201049468788476],[-122.1887295916379,37.2012680104166],[-122.1886367496797,37.20101039416841],[-122.18798008526254,37.20115608363783],[-122.18779440744532,37.20064084987311],[-122.18746607636183,37.2007136927809],[-122.18737323945913,37.20045607550877],[-122.18704490877778,37.20052891728008],[-122.18695207356022,37.20027129966661],[-122.18662374328109,37.2003441403015],[-122.18643807685767,37.19982890429496],[-122.18610974802439,37.199901743548985],[-122.18583125633111,37.19912888807897],[-122.18550292998732,37.199201725707844],[-122.1852244471978,37.19842886863209],[-122.18489612334355,37.198501704635895],[-122.18480329807346,37.19824408517236],[-122.18447497462145,37.19831692003967],[-122.1843821510364,37.19805930023485],[-122.18405382798663,37.19813213396579],[-122.18396100608659,37.197874513819656],[-122.18363268343909,37.197947346414146],[-122.18353986322403,37.19768972592667],[-122.18321154097882,37.1977625573848],[-122.18311872244877,37.19750493655605],[-122.18213375499602,37.19772342484479],[-122.18204094023821,37.1974658031862],[-122.18171261751496,37.197538630587225],[-122.18106293947213,37.19573527455136],[-122.18040630671265,37.1958809232572],[-122.18031350021602,37.19562330008981],[-122.17900023117669,37.19591458581927],[-122.17890742949578,37.19565696157784],[-122.17693751296224,37.19609386194344],[-122.17684471818448,37.19583623613949],[-122.17651639756176,37.19590904950048],[-122.17633081201711,37.19539379711322],[-122.17600249284057,37.195466609093586],[-122.17590970207362,37.19520898251025],[-122.1755813832996,37.19528179335436],[-122.17548859421748,37.19502416642975],[-122.17516027584598,37.195096976137485],[-122.17506748844866,37.194839348871696],[-122.17473917047974,37.19491215744307],[-122.17464638476717,37.19465452983613],[-122.17267646975259,37.19509136106465],[-122.17276924920299,37.195348990136836],[-122.1724409267464,37.195421792463385],[-122.17234814833972,37.19516416314697],[-122.16906489895362,37.195892134902756],[-122.16915766692281,37.196149766661065],[-122.16850100726582,37.19629535079482],[-122.16840824138417,37.19603771854814],[-122.16643825329233,37.196474448072514],[-122.16653101291105,37.19673208178418],[-122.16620267827523,37.19680486715983],[-122.16629543749109,37.19706250101874],[-122.16596710117044,37.197135285746356],[-122.16624537953226,37.1979081874742],[-122.16591703943902,37.19798097204216],[-122.16619532043796,37.19875387363053],[-122.16553863206526,37.19889944155488],[-122.16563139159243,37.19915707571225],[-122.16497469856797,37.1993026405561],[-122.16506745664826,37.199560275105],[-122.16441075897207,37.19970583686833],[-122.16450351560542,37.19996347180875],[-122.16417516476193,37.20003625159627],[-122.16426792099229,37.200293886684],[-122.16361121529445,37.20043944407076],[-122.16370397007785,37.20069707955002],[-122.16337561522352,37.20076985714922],[-122.16346836960388,37.201027492775815],[-122.16281165588433,37.201173045785865],[-122.16290440881762,37.20143068180399],[-122.16224769044622,37.20157623173345],[-122.16215493960094,37.20131859522698],[-122.16149822075378,37.201464141099095],[-122.161590969511,37.20172177809391],[-122.16093424601202,37.20186732088537],[-122.16102699332208,37.202124958271746],[-122.16037026517128,37.20227049798252],[-122.16046301103411,37.20252813576038],[-122.15980627823147,37.2026736723904],[-122.15971353445678,37.20241603412425],[-122.15905680117869,37.202561566696914],[-122.15924228519255,37.20307684410914],[-122.15891391550393,37.20314960954537],[-122.15900665742811,37.203407248350516],[-122.15867828605445,37.20348001313865],[-122.15877102757541,37.20373765209119],[-122.15811428081713,37.2038831794789],[-122.15829976160519,37.20439845807039],[-122.1579713851764,37.204471220914115],[-122.15806412548763,37.20472886030897],[-122.15773574737372,37.204801622504554],[-122.15782848728169,37.20505926204683],[-122.15750010748272,37.205132023594274],[-122.157685587133,37.20564730287702],[-122.1573572046047,37.20572006402047],[-122.15800639626039,37.207523540173504],[-122.15767800578155,37.20759630213387],[-122.15777074896617,37.20785394144179],[-122.15744235680211,37.207926702753994],[-122.1583698134592,37.21050309295951],[-122.15804141021113,37.21057585582142],[-122.158134158358,37.21083349455477],[-122.15780575342455,37.2109062567685],[-122.1578985011681,37.21116389564942],[-122.15724168728948,37.211309417888266],[-122.1573344335853,37.211567057161],[-122.15634920482672,37.21178533455915],[-122.15644194863042,37.212042974467984],[-122.1561135367178,37.21211573206014],[-122.15620628011808,37.21237337211659],[-122.15522103740108,37.21259164027141],[-122.15531377830908,37.21284928096392],[-122.15465694453727,37.212994789093656],[-122.15474968399735,37.213252430177974],[-122.15409284557268,37.21339793522652],[-122.15418558358483,37.21365557670277],[-122.15385716236658,37.213728328132625],[-122.15441359763328,37.21527417642838],[-122.154085169507,37.21534692843108],[-122.15417790991711,37.21560456972014],[-122.15384948010531,37.215677321074665],[-122.15394222011189,37.215934962511454],[-122.15361378861454,37.21600771321775],[-122.15370652821757,37.21626535480231],[-122.15304966121073,37.21641085402609],[-122.15314239936565,37.2166684960026],[-122.15281396385618,37.21674124452],[-122.1529067016075,37.216998886644284],[-122.15323513816159,37.21692613788258],[-122.15388432768194,37.21872962834176],[-122.15355588381563,37.21880237881309],[-122.15420509743545,37.220605866256605],[-122.15387664561553,37.22067861754533],[-122.15415488650633,37.22145154002208],[-122.15382643091124,37.22152429115107],[-122.15419742356245,37.222554854081054],[-122.15386896314736,37.22262760529473],[-122.15405446123029,37.22314288667004],[-122.15372599808461,37.223215637479775],[-122.15400424688328,37.223988559552986],[-122.15367577996217,37.22406131020308],[-122.15376852979924,37.22431895094578],[-122.15409699776514,37.22424620005138],[-122.1543752542577,37.2250191209685],[-122.15404678315745,37.2250918725958],[-122.1542322886021,37.22560715321422],[-122.15390381477108,37.22567990443763],[-122.15399656741037,37.22593754484669],[-122.15333961573513,37.22608304510449],[-122.15343236692595,37.22634068590582],[-122.15310388908173,37.226413434940284],[-122.15319663986888,37.22667107588964],[-122.15286816033861,37.226743824275815],[-122.15296091072207,37.22700146537326],[-122.15099001380675,37.22743793841266],[-122.15108275856205,37.22769558087963],[-122.15075427245387,37.22776832350655],[-122.15084701680541,37.22802596612161],[-122.15051852901118,37.22809870810024],[-122.15070401754788,37.22861399353018],[-122.15004703585616,37.228759475787015],[-122.15013977899636,37.229017118846265],[-122.14981128614379,37.229089858880116],[-122.14990402888019,37.229347502087414],[-122.14957553434152,37.22942024147294],[-122.14966827667405,37.22967788482838],[-122.14999677225772,37.22960514519849],[-122.15008951627642,37.229862788213424],[-122.14976101964777,37.229935528087545],[-122.14994650751872,37.23045081431734],[-122.14961800815891,37.230523553787556],[-122.14971075201112,37.23078119700244],[-122.14905374927795,37.2309266737537],[-122.1492392347258,37.23144196087221],[-122.14891073030742,37.231514698397575],[-122.14900347294804,37.23177234205689],[-122.14867496684342,37.23184507893395],[-122.14876770908019,37.23210272274143],[-122.1484392012893,37.23217545897019],[-122.14853194312218,37.23243310292582],[-122.14820343364505,37.23250583850631],[-122.14829617507401,37.23276348261006],[-122.14796766391062,37.232836217542264],[-122.14806040493568,37.23309386179422],[-122.14773189208601,37.23316659607806],[-122.1479173739694,37.2336818847822],[-122.14758885838835,37.23375461866213],[-122.14768159924668,37.234012263114366],[-122.1473530819793,37.23408499634591],[-122.1474458224337,37.23434264094634],[-122.14711730347999,37.234415373529586],[-122.14730278422202,37.23493066293075],[-122.1469742625368,37.23500339511001],[-122.14706700282444,37.23526103991081],[-122.14673847945285,37.23533377144171],[-122.14683121933652,37.23559141639072],[-122.14715974375329,37.23551868461545],[-122.14734522753456,37.236033973736546],[-122.14767375340053,37.23596124057989],[-122.14785924183705,37.23647652882794],[-122.14818776915219,37.23640379428992],[-122.14837326224405,37.236919081664915],[-122.1487017910083,37.23684634574552],[-122.14888728875565,37.23736163224749],[-122.14921581896905,37.23728889494669],[-122.14930856984982,37.2375465378092],[-122.14963710046716,37.237473799371344],[-122.14991536009286,37.23824672664935],[-122.14958682633988,37.23831946582033],[-122.15023611392925,37.24012296115134],[-122.15056465499897,37.24005022026956],[-122.1507501736014,37.240565503296736],[-122.15107871612028,37.24049276103345],[-122.15219189415518,37.243584448199066],[-122.15186333909257,37.24365719339557],[-122.15195610705277,37.24391483361329],[-122.15064187620648,37.24420580644995],[-122.1507346406266,37.24446344754945],[-122.15007751926409,37.244608929100266],[-122.15017028223488,37.244866570592734],[-122.14951315621586,37.24501204906153],[-122.14960591773725,37.24526969094699],[-122.14927735272018,37.24534242908665],[-122.14937011383756,37.24560007112062],[-122.14904154713363,37.24567280861203],[-122.149134307847,37.245930450794546],[-122.14880573945621,37.2460031876376],[-122.1487129797883,37.24574554521067],[-122.14838441180156,37.24581828091656],[-122.14829165382051,37.245560638149236],[-122.14730594914822,37.245778839177014],[-122.14721319494495,37.24552119558048],[-122.1465560573808,37.245666657979605],[-122.14646330590982,37.24540901379835],[-122.14613473721117,37.24548174341434],[-122.14604198742703,37.24522409889272],[-122.1457134191325,37.24529682737155],[-122.14562067103518,37.245039182509586],[-122.1452921031448,37.24511190985125],[-122.14519935673428,37.24485426464902],[-122.14454222112049,37.24499971616514],[-122.1443567344053,37.2444844244953],[-122.1440281677274,37.24455714842544],[-122.14393542637723,37.24429950220229],[-122.14360686010353,37.24437222499519],[-122.14351412044009,37.24411457843173],[-122.14318555457061,37.24418730008752],[-122.1430928165939,37.24392965318376],[-122.14276425112863,37.24400237370242],[-122.14285698805985,37.24426002085059],[-122.14219985311456,37.24440545969832],[-122.14229258859604,37.24466310723931],[-122.1409783068285,37.24495397519886],[-122.1408855755291,37.24469632668036],[-122.13924271411983,37.245059890320256],[-122.13933544019152,37.24531754006057],[-122.1390068649405,37.24539025035452],[-122.1390995906078,37.24564790024335],[-122.13877101367001,37.245720609888835],[-122.13886373893294,37.24597825992613],[-122.13853516030836,37.246050968923164],[-122.1386278851669,37.24630861910904],[-122.13829930485554,37.24638132745761],[-122.13839202930967,37.24663897779195],[-122.1380634473115,37.24671168549209],[-122.1381561713612,37.24696933597501],[-122.1378275876762,37.24704204302668],[-122.13792031132148,37.24729969365807],[-122.13759172594965,37.24737240006128],[-122.13768444919046,37.24763005084122],[-122.1373558621318,37.24770275659595],[-122.13744858496817,37.24796040752448],[-122.13711999622264,37.24803311263077],[-122.13721271865455,37.24829076370783],[-122.13688412822214,37.248363468165635],[-122.13706957291818,37.24887877052106],[-122.1367409797532,37.24895147457474],[-122.13692642492268,37.24946677703576],[-122.13659782902508,37.2495394806854],[-122.13669055152592,37.24979713201661],[-122.13636195394137,37.2498698350177],[-122.13654739877525,37.250385137881565],[-122.13621879845802,37.25045784047862],[-122.13677514207464,37.25200374823841],[-122.13611792696722,37.252149153686474],[-122.13621065105609,37.25240680513345],[-122.1358820414947,37.252479506762555],[-122.13597476517901,37.252737158358215],[-122.13498892950992,37.25295525862127],[-122.135081650698,37.25321291085447],[-122.13475303647998,37.253285609400784],[-122.13484575726343,37.25354326178264],[-122.13451714135834,37.25361595968041],[-122.13460986173719,37.25387361221097],[-122.13428124414497,37.253946309460204],[-122.1343739641192,37.254203962139464],[-122.13174499193026,37.25478550994346],[-122.13165228032328,37.2545278553091],[-122.12968053052697,37.254963977192546],[-122.12977323585827,37.2552216332932],[-122.12681555847244,37.25587575804337],[-122.12690825503087,37.25613341624762],[-122.1262509842452,37.25627876796928],[-122.12643637510119,37.256794085068286],[-122.12610773665459,37.256866760078324],[-122.1262931279829,37.25738207728369],[-122.12596448680306,37.257454751889505],[-122.12614987860366,37.25797006920125],[-122.1258212346905,37.25804274340276],[-122.12591393050637,37.258300402159676],[-122.12459934425813,37.2585910910131],[-122.12469203653062,37.25884875065185],[-122.12403473746757,37.2589940902092],[-122.12412742828889,37.259251750241155],[-122.12347012456911,37.25939708671514],[-122.12356281393919,37.25965474714028],[-122.12323416007149,37.2597274142821],[-122.12332684903646,37.25998507485603],[-122.12266953728539,37.26013040694924],[-122.12257685041278,37.25987274588657],[-122.12224819462183,37.25994541034931],[-122.12187745772691,37.258914764166086],[-122.12154880547965,37.258987426758424],[-122.12127076267802,37.25821444038496],[-122.12159941178675,37.25814177852563],[-122.12095066036206,37.25633814202052],[-122.12062201857636,37.25641080216966],[-122.1205293434115,37.25615313918521],[-122.12020070203094,37.256225798197015],[-122.12010802855319,37.255968134872745],[-122.11977938757782,37.25604079274725],[-122.11968671578713,37.255783129083085],[-122.11935807521694,37.25585578582032],[-122.11926540511331,37.2555981218163],[-122.11893676494829,37.255670777416185],[-122.11884409653175,37.2554131130723],[-122.11851545677192,37.25548576753495],[-122.11823745850613,37.25471277319698],[-122.11790882124376,37.2547854260338],[-122.11781615748308,37.25452776081901],[-122.11748752062596,37.254600412518556],[-122.11730219711946,37.254085081313754],[-122.11697356171366,37.254157731631786],[-122.11688090196782,37.25390006564173],[-122.11622363132595,37.25404536311028],[-122.11613097431317,37.25378769653618],[-122.11580233907708,37.25386034368664],[-122.11570968375126,37.2536026767727],[-122.11538104892045,37.25367532278593],[-122.11436189413617,37.25084097773579],[-122.11403327017156,37.250913620169705],[-122.11366269183877,37.249882945396706],[-122.11333407141764,37.24995558596079],[-122.11324142948229,37.24969791678428],[-122.11291280946651,37.24977055621119],[-122.11282016921787,37.24951288669478],[-122.11249154960744,37.2495855249846],[-122.1121209992039,37.248554844985755],[-122.11179238313692,37.2486274814059],[-122.1116997481837,37.2483698109229],[-122.11137113252212,37.248442446205885],[-122.11118586662967,37.24792710446448],[-122.11085725241949,37.247999738366204],[-122.11076462148021,37.24774206710781],[-122.11043600767545,37.24781469987244],[-122.11006549450843,37.24678401290566],[-122.10973688424711,37.24685664380073],[-122.10945900923593,37.246083626838505],[-122.10978761635924,37.24601099667581],[-122.10969499159067,37.24575332440776],[-122.11002359702744,37.245680693596206],[-122.10956047756285,37.244392332040896],[-122.10923187735585,37.2444649616319],[-122.10886139749744,37.24343426968806],[-122.10853280083369,37.243506897409716],[-122.10834756683931,37.242991550375216],[-122.1080189716269,37.24306417671576],[-122.10783374228625,37.24254882881002],[-122.10750514852523,37.24262145376948],[-122.10741253586151,37.2423637794289],[-122.10708394250594,37.242436403251396],[-122.10689872119165,37.24192105379482],[-122.10657012928748,37.24199367623626],[-122.10619969852753,37.24096297519764],[-122.10587111016655,37.24103559576994],[-122.10550069383646,37.24000489222264],[-122.10517210901862,37.240077510925886],[-122.10489430663249,37.23930448152752],[-122.10522288831271,37.23923186355641],[-122.10503768783192,37.23871651063318],[-122.10470910824341,37.23878912811628],[-122.10443131546222,37.238016097280784],[-122.10475989191323,37.23794348052975],[-122.10448210175734,37.237170449563806],[-122.10415352844376,37.23724306558283],[-122.10396834029959,37.236727710638355],[-122.10363976843736,37.23680032527651],[-122.10345458494584,37.2362849694607],[-122.10312601453494,37.23635758271797],[-122.10303342479536,37.23609990442234],[-122.10270485479005,37.236172516542744],[-122.10261226673649,37.235914837907224],[-122.1022836971367,37.235987448890775],[-122.1021911107692,37.23572976991543],[-122.10251967932317,37.235657159175865],[-122.10187158535582,37.23385340537194],[-122.10154302412228,37.23392601440385],[-122.10145044287631,37.233668334661544],[-122.10112188204832,37.2337409425566],[-122.10093672356835,37.233225582296384],[-122.1002796041749,37.233370794432155],[-122.10000187753047,37.23259775185901],[-122.09967332001081,37.23267035585584],[-122.09939560226461,37.23189731168783],[-122.09906704724206,37.231969914060016],[-122.0989744769859,37.231712232234955],[-122.098645922369,37.23178483347035],[-122.09855335379864,37.23152715130548],[-122.09822479958738,37.23159975140406],[-122.09794710085384,37.230826703602276],[-122.09761854913972,37.230899302076345],[-122.09743342194233,37.23038393590771],[-122.09677632077687,37.23052912920169],[-122.09668376022964,37.23027144548576],[-122.09635520973262,37.23034404054959],[-122.09598497812645,37.22931330375096],[-122.09631352444063,37.229240709662605],[-122.09594329889123,37.22820997230426],[-122.09495767057705,37.22842774896458],[-122.09486511892663,37.22817006365352],[-122.09420803227557,37.22831524314173],[-122.09374529407889,37.227026812708864],[-122.09407383249598,37.22695422463033],[-122.09379619411962,37.22618116595039],[-122.0941247287599,37.22610857771044],[-122.0932918387725,37.2237893986808],[-122.09296331354273,37.22386198472653],[-122.09268569820055,37.22308892259017],[-122.09235717546771,37.22316150701175],[-122.09226463934547,37.222903819197086],[-122.09193611701842,37.22297640248207],[-122.09184358258153,37.222718714327634],[-122.08954391569809,37.22322677061708],[-122.08945138922007,37.22296908066032],[-122.08879433787274,37.22311423107716],[-122.08870181412568,37.22285654053686],[-122.0877162354438,37.22307425873463],[-122.08762371547331,37.222816567367076],[-122.08663813417122,37.22303427679812],[-122.08654561797731,37.22277658460339],[-122.08556003405528,37.22299428526756],[-122.085467521638,37.222736592245646],[-122.0834963427981,37.2231719680047],[-122.08358884894132,37.22342966248888],[-122.08326031585038,37.223502222234096],[-122.08316781075284,37.223244527506225],[-122.08283927806802,37.22331708611481],[-122.08274677465577,37.223059391047286],[-122.08208970945883,37.22320450509855],[-122.08199720877758,37.222946809447635],[-122.08166867626547,37.22301936489026],[-122.08176117590101,37.223277060784845],[-122.08077557139026,37.22349472248652],[-122.08068307489191,37.2232370258609],[-122.08002600411189,37.22338212871023],[-122.07993351034453,37.22312443150124],[-122.07861936529338,37.223414625510664],[-122.07852687634852,37.22315692723109],[-122.07819833953275,37.22322947325751],[-122.07801336565305,37.22271407592311],[-122.0783419003773,37.22264153038396],[-122.07778698781055,37.221095337539055],[-122.07745845936073,37.22116788161635],[-122.07708853462104,37.22013708349191],[-122.07676000971463,37.220209625701855],[-122.07666753117392,37.21995192568705],[-122.07633900667382,37.22002446676048],[-122.07624652981818,37.219766766406075],[-122.07591800572442,37.21983930634307],[-122.07582553055384,37.21958160564903],[-122.07516848253965,37.219726682357184],[-122.07507601009985,37.21946898107994],[-122.0744189616197,37.21961405372932],[-122.07432649191064,37.21935635186883],[-122.0736694429646,37.219501420459615],[-122.07357697598628,37.21924371801593],[-122.07324845160005,37.21931625072843],[-122.07315598630677,37.21905854794521],[-122.07249893770782,37.219203610204325],[-122.07240647514526,37.21894590683791],[-122.07207795093261,37.21901843638461],[-122.07198549005506,37.21876073267862],[-122.07165696624887,37.21883326108887],[-122.07128713331412,37.21780244433046],[-122.07095861305154,37.217874970873574],[-122.07086615746165,37.2176172662004],[-122.0705376376056,37.21768979160709],[-122.07044518370064,37.21743208659432],[-122.07011666425107,37.217504610864566],[-122.070024212031,37.217246905512226],[-122.06969569298799,37.21731942864609],[-122.06960324245281,37.21706172295415],[-122.0692747238163,37.217134244951595],[-122.06890493225022,37.21610342024939],[-122.06857641715739,37.216175940379934],[-122.06839152730062,37.21566052696548],[-122.06773449938031,37.21580556357386],[-122.06764205750201,37.21554785623554],[-122.06797057073604,37.2154753386213],[-122.06778568680538,37.21495992414353],[-122.0681141973089,37.21488740612336],[-122.06783687306918,37.214114284416674],[-122.06816537979667,37.214041766234196],[-122.06770318028396,37.212753229351996],[-122.06803168114419,37.21268071149411],[-122.06793924211327,37.21242300407281],[-122.06826774128884,37.212350485565544],[-122.06808286305296,37.211835070921644],[-122.06775436596858,37.21190758894195],[-122.06747705654442,37.21113446552472],[-122.06714856195777,37.21120698192186],[-122.06650153631935,37.209403022212484],[-122.06584455986685,37.20954804892002],[-122.06575213227984,37.20929033951863],[-122.06476666594557,37.20950787215351],[-122.06467424213417,37.209250161925674],[-122.0640172634744,37.20939517873131],[-122.06392484239305,37.20913746792047],[-122.06195389735325,37.209572495448946],[-122.06186148318432,37.20931478308154],[-122.06153299115383,37.20938728430129],[-122.06162540427715,37.20964499691211],[-122.06129691056219,37.209717497482394],[-122.06138932327876,37.20997521024048],[-122.06106082787933,37.21004771016135],[-122.06133806672545,37.210820848588966],[-122.06100956755023,37.21089334834718],[-122.06110198073105,37.21115106120753],[-122.05913096598913,37.21158604246707],[-122.05903855908235,37.21132832814633],[-122.0577245406601,37.21161829682166],[-122.05781694338403,37.211876012116],[-122.05715992824848,37.2120209915832],[-122.05706752761598,37.21176327580209],[-122.05673902013571,37.21183576395295],[-122.05664662118775,37.2115780478324],[-122.05631811411442,37.211650534847024],[-122.05622571685099,37.21139281838704],[-122.05589721018461,37.211465304265374],[-122.05580481460572,37.21120758746596],[-122.05547630834627,37.21128007220803],[-122.0548295644993,37.20947605021829],[-122.05417256470427,37.20962101361697],[-122.05408017737248,37.20936329531882],[-122.05375167756262,37.209435775435466],[-122.05365929191521,37.20917805679787],[-122.05333079251236,37.20925053577836],[-122.05323840854936,37.20899281680133],[-122.05258140991899,37.20913777159699],[-122.05239664809189,37.208622332381424],[-122.05206814991013,37.2086948079533],[-122.05188339272902,37.20817936786663],[-122.05155489600004,37.20825184205902],[-122.05146251941315,37.20799412162827],[-122.05113402309124,37.20806659468445],[-122.05104164818866,37.20780887391427],[-122.05071315227384,37.207881345834274],[-122.05062077905559,37.20762362472472],[-122.05029228354788,37.20769609550858],[-122.05010754111856,37.207180652514445],[-122.04977904706364,37.207253121918875],[-122.04950194134608,37.206479955977],[-122.04917344978969,37.20655242375874],[-122.04889635295615,37.20577925622185],[-122.04856786389827,37.205851722380956],[-122.0483831379599,37.20533627638917],[-122.04805465035484,37.20540874116883],[-122.0479622893891,37.205151017785504],[-122.0476338021912,37.20522348142908],[-122.04754144290963,37.20496575770638],[-122.04721295611891,37.20503822021384],[-122.04702824156256,37.20452277199349],[-122.0466997562247,37.204595233121594],[-122.0466074009499,37.204337508623944],[-122.04627891601928,37.204409968616005],[-122.04618656242855,37.20415224377897],[-122.04585807790514,37.20422470263489],[-122.04576572599854,37.20396697745852],[-122.04543724188237,37.20403943517841],[-122.04534489165985,37.203781709662586],[-122.04501640795095,37.203854166246416],[-122.04492405941252,37.20359644039125],[-122.04459557611084,37.203668895838966],[-122.04441088304053,37.20315344335383],[-122.04408240119182,37.20322589742228],[-122.0439900566599,37.20296817079223],[-122.04366157521844,37.20304062372462],[-122.04347689016102,37.20252516968974],[-122.04314841017255,37.202597621242845],[-122.04305606964704,37.20233989383793],[-122.04272759006585,37.20241234425509],[-122.04254291302117,37.201896888670376],[-122.04221443489295,37.20196933770828],[-122.04147576061159,37.199907509576725],[-122.04114729021016,37.19997995577654],[-122.04059331758,37.198433579178335],[-122.0409217817079,37.1983611344373],[-122.04082945412445,37.198103404910604],[-122.04115791656852,37.198030959519905],[-122.04106558857772,37.197773230140065],[-122.04205096894393,37.1975558893403],[-122.04195863845473,37.197298160593576],[-122.04163018001644,37.19737060817655],[-122.04135319551477,37.19659742062949],[-122.04102473957484,37.19666986659023],[-122.04047079407594,37.195123487438],[-122.04014234377085,37.195195931047316],[-122.03995770246756,37.19468047007341],[-122.03962925361527,37.194752912303805],[-122.03925998284822,37.193721988228006],[-122.03893153753974,37.1937944285933],[-122.03883922248873,37.19353669709051],[-122.0385107775876,37.19360913631989],[-122.03832615149082,37.19309367253925],[-122.03766926395618,37.19323854734739],[-122.03757695395585,37.19298081482648],[-122.03692006595988,37.19312568557733],[-122.03682775868853,37.19286795247402],[-122.03617087023135,37.19301281916754],[-122.03607856568898,37.19275508548182],[-122.03575012154882,37.19282751724636],[-122.03565781868998,37.1925697832213],[-122.03532937495729,37.192642213850014],[-122.03514477324457,37.192126745024844],[-122.0354732148863,37.19205431488221],[-122.03519631396576,37.19128111165111],[-122.03453943631709,37.191425969585495],[-122.03444713937714,37.191168234496395],[-122.0341187006413,37.19124066188136],[-122.03402640538475,37.19098292645295],[-122.03369796705644,37.19105535270216],[-122.0336056734833,37.19079761693443],[-122.03327723556251,37.19087004204777],[-122.03263120573042,37.189065887274836],[-122.03295963633316,37.188993463862374],[-122.03286734786333,37.18873572732374],[-122.03319577678273,37.188663303261485],[-122.03301119966592,37.18814783038109],[-122.0336680514095,37.18800298055006],[-122.03357576171716,37.18774524445125],[-122.03423260881846,37.18760039153509],[-122.03414031767325,37.18734265582584],[-122.0344687392217,37.187270228271615],[-122.03437644766905,37.1870124927089],[-122.03503328676157,37.18686763540813],[-122.03457182811331,37.18557895857793],[-122.03424341411257,37.18565138645984],[-122.03387426285681,37.18462044228794],[-122.03354585239939,37.184692868305305],[-122.03326899879069,37.18391965843481],[-122.0329405908313,37.1839920828306],[-122.03275602703843,37.183476608615415],[-122.03242762053176,37.18354903163266],[-122.03168939923346,37.18148712896931],[-122.03201779737816,37.18141470789539],[-122.03192552154053,37.18115696987111],[-122.03126872670381,37.18130181064046],[-122.03089963809221,37.18027085563528],[-122.03057124389812,37.180343273709354],[-122.03029443727084,37.17957005571333],[-122.02996604557467,37.17964247216606],[-122.02987377901944,37.17938473239812],[-122.02954538773078,37.17945714771528],[-122.02936085862369,37.178941667404104],[-122.02903246878779,37.17901408134277],[-122.02894020623587,37.17875634079955],[-122.02861181680751,37.178828753602716],[-122.02851955593843,37.17857101272008],[-122.02819116691764,37.17864342438774],[-122.02809890773133,37.17838568316567],[-122.0274421298673,37.178530503337136],[-122.02734987340898,37.17827276153283],[-122.02767826161461,37.17820035213635],[-122.02740149292961,37.177427126872786],[-122.02707310785952,37.17749953554081],[-122.02698085395151,37.177241793350355],[-122.02665246928902,37.17731420088292],[-122.02656021706375,37.177056458353086],[-122.02623183280888,37.17712886475006],[-122.0261395822663,37.17687112188086],[-122.0258111984191,37.1769435271424],[-122.02562670133686,37.1764280406287],[-122.02595508309375,37.17635563585283],[-122.0257705864713,37.17584014943845],[-122.02609896550035,37.1757677442555],[-122.02600671710024,37.17551000114622],[-122.02633509444671,37.17543759531338],[-122.02568936618006,37.17363339254363],[-122.02601773557329,37.17356098751764],[-122.02583324542998,37.17304550062802],[-122.02616161209559,37.172973095195005],[-122.02606936693506,37.172715351848026],[-122.02639773191814,37.1726429457651],[-122.02602875347051,37.171611972381896],[-122.02570039266757,37.17168437749376],[-122.02505471224049,37.16988016865247],[-122.02472635811519,37.16995257117235],[-122.02454188581976,37.16943708157641],[-122.02421353314705,37.16950948271821],[-122.02384460038445,37.168478501395114],[-122.0235162512543,37.1685509006734],[-122.023424020702,37.16829315485814],[-122.02276732261963,37.16843795025142],[-122.02267509479458,37.16818020385406],[-122.02201839625292,37.16832499519134],[-122.02192617115514,37.168067248211855],[-122.02159782197334,37.168139642298904],[-122.02150559855781,37.16788189497996],[-122.0211772497837,37.16795428793166],[-122.02099280695442,37.16743879251837],[-122.02066445963302,37.1675111840921],[-122.02057224021927,37.16725343599767],[-122.02024389330559,37.167325826436084],[-122.02015167557401,37.16706807800223],[-122.01982332906807,37.167140467305295],[-122.01973111301875,37.16688271853217],[-122.01940276692055,37.16695510669992],[-122.01921833882348,37.166439608378106],[-122.01888999417801,37.16651199516789],[-122.01879778213025,37.16625424561927],[-122.01846943789258,37.16632663127375],[-122.01837722752697,37.16606888138572],[-122.01772053923003,37.166213649531564],[-122.01753612459024,37.16569814849475],[-122.01720778157596,37.16577053074342],[-122.01711557625677,37.16551277983731],[-122.01678723365032,37.16558516095072],[-122.01669503001327,37.165327409705185],[-122.01538165739615,37.16561692426199],[-122.01528945857613,37.1653591719493],[-122.01430442555869,37.16557629776637],[-122.01421223051076,37.16531854462905],[-122.01388388594245,37.165390917873545],[-122.01379169257659,37.16513316439688],[-122.01346334841622,37.165205536506114],[-122.01327896568569,37.164690028777464],[-122.01295062297828,37.164762399508874],[-122.01267405679528,37.163989136462725],[-122.01234571658581,37.16406150557364],[-122.01216134440554,37.16354599590744],[-122.01248968252501,37.16347362728167],[-122.01221312589716,37.16270036278447],[-122.01188479091262,37.16277273068256],[-122.01179260768892,37.162514975414105],[-122.01146427311235,37.162587342176934],[-122.01127991066582,37.16207183086466],[-122.0109515775422,37.16214419624975],[-122.01085939831931,37.161886440205926],[-122.0105310656037,37.16195880445584],[-122.01043888806272,37.16170104807269],[-122.01011055575513,37.16177341118744],[-122.01001837989602,37.161515654464964],[-122.00969004799649,37.16158801644456],[-122.00950570027892,37.16107250222423],[-122.00917736983237,37.16114486282611],[-122.00899302675231,37.16062934773367],[-122.00866469775876,37.16070170695788],[-122.008572528219,37.16044394902395],[-122.00758754055205,37.16066102061328],[-122.00749537478399,37.16040326185502],[-122.00585372116035,37.1607650287721],[-122.00576156125399,37.160507268704585],[-122.00543322966378,37.16057961916753],[-122.00534107143922,37.16032185876079],[-122.00468440843842,37.16046655652386],[-122.0045922529406,37.16020879553532],[-122.00393558948267,37.16035348924294],[-122.00384343671163,37.16009572767266],[-122.0035151050725,37.16016807294503],[-122.00287006081889,37.158363737546324],[-122.0025417358579,37.15843608022878],[-122.00235744532013,37.15792055447324],[-122.00202912181237,37.15799289577814],[-122.00193697854347,37.15773513251278],[-122.00128033170787,37.157879811959816],[-122.00118819116554,37.15762204811273],[-122.00151651385671,37.157549709077976],[-122.00050299841493,37.1547143030378],[-122.00017468721796,37.15478663940594],[-121.9999904220488,37.15427110929143],[-121.99966211230503,37.15434344428217],[-121.99938572246023,37.153570147656865],[-121.99905741521458,37.15364248102785],[-121.99868890851259,37.15261141653528],[-121.99770399549486,37.15282840838404],[-121.99761187354525,37.15257064129162],[-121.99728356897789,37.152642969880326],[-121.99719144870966,37.152385202448706],[-121.9968631445507,37.15245752990238],[-121.99677102596378,37.15219976213155],[-121.99644272221323,37.152272088450346],[-121.99598214404995,37.15098324693124],[-121.99565384488723,37.15105557114579],[-121.99546962016666,37.150540033375286],[-121.99514132245721,37.15061235621249],[-121.99504921209639,37.15035458693961],[-121.9947209147954,37.1504269086419],[-121.99462880611581,37.15016913902982],[-121.9943005092233,37.15024145959718],[-121.99420840222493,37.1499836896459],[-121.99388010574087,37.15005600907843],[-121.99369589574295,37.14954046840047],[-121.9933676007122,37.149612786455755],[-121.99318339534935,37.14909724490561],[-121.99351168829041,37.14902492733487],[-121.99222230739015,37.145416129020205],[-121.99255058506797,37.14534381394881],[-121.99190593407036,37.143539409360585],[-121.99223420379893,37.143467095092376],[-121.9921421122995,37.14320932286257],[-121.99247038034716,37.143137007944084],[-121.99237828843927,37.142879235859574],[-121.99270655480606,37.14280692029076],[-121.99243027976561,37.142033604181734],[-121.99210201653278,37.142105919023834],[-121.9920099271697,37.14184814655117],[-121.99135340088479,37.141992773073326],[-121.99116922824572,37.141477226868055],[-121.99084096623832,37.14154953830595],[-121.99074888191767,37.141291764815534],[-121.99042062031874,37.14136407511872],[-121.99023645567517,37.14084852736238],[-121.98990819552942,37.14092083628858],[-121.98972403551964,37.14040528765968],[-121.98939577682707,37.140477595209],[-121.98911954471711,37.13970427081122],[-121.98879128852231,37.13977657674146],[-121.98860713905202,37.1392610261733],[-121.98827888431039,37.1393333307267],[-121.98818681157397,37.13907555505486],[-121.98785855724091,37.13914785847355],[-121.98767441576545,37.13863230635431],[-121.98734616288557,37.138704608396196],[-121.98725409414654,37.138446831948805],[-121.98758234598178,37.13837453014909],[-121.98730614044692,37.13760120095092],[-121.98763438851233,37.137528898985174],[-121.98754232022816,37.13727112263374],[-121.98787056661301,37.137198820017645],[-121.98777849792027,37.13694104381125],[-121.98810674262454,37.13686874054477],[-121.98801467352324,37.13661096448343],[-121.98768642986354,37.13668326750775],[-121.98722609911982,37.13539438453373],[-121.98755433755682,37.135322082720066],[-121.98727814360873,37.13454875249647],[-121.98694990830526,37.13462105358372],[-121.98685784597231,37.13436327640614],[-121.98652961107742,37.134435576358825],[-121.98643755042494,37.13417779884196],[-121.98610931593859,37.134250097660036],[-121.98574108386588,37.13321898565265],[-121.9844281562735,37.133508168126845],[-121.98433610402306,37.13325038891372],[-121.98203846356708,37.133756422188696],[-121.98213050850578,37.13401420309637],[-121.9814740319924,37.13415877648386],[-121.98128994692907,37.13364321360315],[-121.98096170980777,37.13371549847402],[-121.98050151349868,37.1324265883621],[-121.98017328096437,37.13249887113025],[-121.97980513953914,37.131467740323885],[-121.97947691054719,37.13154002123138],[-121.97929284573809,37.13102445476115],[-121.9789646181994,37.13109673429211],[-121.97859650038781,37.13006559921756],[-121.97826827639146,37.13013787688801],[-121.97817624957229,37.12988009263441],[-121.97784802598476,37.12995236917039],[-121.97757195247476,37.12917901510042],[-121.97724373138504,37.12925129001795],[-121.9760474925252,37.12590007579271],[-121.97571928437773,37.125972346672114],[-121.97479918417372,37.12339447597319],[-121.97512738187733,37.123322207513084],[-121.97503537430788,37.12306442015011],[-121.97536357033168,37.1229921510395],[-121.97527156235338,37.122734363821095],[-121.97592795040576,37.122589823406514],[-121.97574393217837,37.1220742496455],[-121.9760721231627,37.1220019785834],[-121.97588810538869,37.12148640491699],[-121.9762162936489,37.12141413344634],[-121.97603227632827,37.12089855987436],[-121.97636046186449,37.120826287995186],[-121.97626845311311,37.12056850130507],[-121.97659663696956,37.120496228775345],[-121.97650462780942,37.120238442229834],[-121.97683280998612,37.12016616904972],[-121.97674080041723,37.11990838264872],[-121.97706898091424,37.11983610881812],[-121.97679295288768,37.119062749756694],[-121.97712112961655,37.11899047575939],[-121.97693711202112,37.11847490304865],[-121.97726528602614,37.11840262864278],[-121.97698926126633,37.11762926957198],[-121.97731743150335,37.11755699499945],[-121.97722542347682,37.117299208689566],[-121.97755359203427,37.11722693346653],[-121.97727756863488,37.1164535746781],[-121.97760573342445,37.116381299288435],[-121.97723770694475,37.11535015384056],[-121.97756586692245,37.115277878526015],[-121.97747386084697,37.11502009216239],[-121.97714570191339,37.11509236723506],[-121.97705369751739,37.11483458053198],[-121.9767255389925,37.114906854470455],[-121.97663353627598,37.114649067428104],[-121.97630537815978,37.11472134023241],[-121.97621337712275,37.11446355285073],[-121.97654153419488,37.1143912802883],[-121.97580554041909,37.112328979660724],[-121.9761336885034,37.11225670814072],[-121.97594969432478,37.11174113249263],[-121.97627783968574,37.111668860563995],[-121.97600185005068,37.11089549708591],[-121.97632999164429,37.11082322499047],[-121.97623799532592,37.1105654372112],[-121.97590985477629,37.110637709064854],[-121.9757258661334,37.1101221327301],[-121.97605400459507,37.1100498613601],[-121.9759620101826,37.10979207328825],[-121.9756338727649,37.10986434441641],[-121.97508192589451,37.108317612485756],[-121.97541005704853,37.10824534280838],[-121.97531806708292,37.10798755405358],[-121.97498993697283,37.1080598234892],[-121.97489794868638,37.10780203439506],[-121.97456981898499,37.107874302696615],[-121.97447783237772,37.10761651326312],[-121.974149703085,37.10768878043062],[-121.9739657338639,37.10717320078728],[-121.97363760602386,37.10724546657895],[-121.97308571986851,37.10569872385628],[-121.97341384144516,37.105626459515165],[-121.97313790381055,37.10485308756142],[-121.97346602162042,37.10478082305325],[-121.97337404263534,37.104523032448554],[-121.97370215876622,37.1044507672899],[-121.97342622249022,37.10367739561511],[-121.97375433485448,37.10360513028941],[-121.97366235632225,37.10334733977762],[-121.97595911778143,37.102841459208186],[-121.97586713257782,37.10258367029089],[-121.97619523777333,37.10251139831102],[-121.97610325216112,37.10225360953777],[-121.97643135567772,37.102181336907414],[-121.97615539952083,37.101407970726804],[-121.97648349927107,37.101335697929514],[-121.97620754569938,37.10056233159477],[-121.97653564168333,37.10049005863055],[-121.97635167372387,37.099974481068934],[-121.97667976698528,37.09990220769596],[-121.97658778291456,37.099644419010275],[-121.97691587449718,37.09957214498683],[-121.97682389001793,37.09931435644514],[-121.97748006919048,37.09916980620527],[-121.97738808325906,37.09891201804928],[-121.97771617084899,37.09883974183279],[-121.97753219880427,37.098324165711055],[-121.97786028367182,37.09825188908587],[-121.97776829755855,37.097994101120086],[-121.97809638074736,37.09792182384448],[-121.9780043942256,37.097664036022614],[-121.97833247573568,37.09759175809662],[-121.97824048880547,37.09733397041865],[-121.97856856863683,37.09726169184224],[-121.97801665413154,37.09571496517129],[-121.97768858056155,37.09578724229746],[-121.97741263501335,37.09501387691634],[-121.97774070545275,37.09494160051531],[-121.97764872382996,37.09468381210099],[-121.97797679259075,37.094611535049516],[-121.9769650251749,37.09177585869251],[-121.9772930818224,37.09170358340737],[-121.97710913027885,37.091188005098864],[-121.97743718420449,37.091115729405054],[-121.97752916070218,37.09137351836654],[-121.97982552770506,37.09086756183956],[-121.97991751214161,37.09112534901148],[-121.98057361337098,37.09098078149178],[-121.98066560052936,37.09123856808241],[-121.98132170130519,37.09109399651109],[-121.98141369118538,37.091351782520434],[-121.9820697915076,37.09120720689742],[-121.98197779954066,37.090949421371455],[-121.98361803401504,37.0905879679115],[-121.98352603746652,37.09033018349615],[-121.9838540814127,37.09025789036971],[-121.983762084456,37.090000106098096],[-121.98409012672377,37.08992781232131],[-121.98399812935888,37.089670028193446],[-121.98662243628976,37.089091647799975],[-121.9867144420008,37.08934942999409],[-121.98704247855218,37.08927712818911],[-121.98722649396632,37.089792691800035],[-121.98755453196904,37.08972038861956],[-121.98764654167212,37.08997817003635],[-121.98895869150383,37.08968894742731],[-121.9890507060151,37.08994672777918],[-121.98937874292821,37.08987441965511],[-121.98947075911796,37.09013219966729],[-121.98979879643902,37.09005989040945],[-121.98998283281074,37.090575449656214],[-121.99031087158299,37.090503139022886],[-121.99049491258226,37.09101869739427],[-121.99082295280576,37.09094638538539],[-121.99091497530154,37.09120416418231],[-121.99124301593295,37.0911318510397],[-121.99133504010729,37.091389629496845],[-121.99199112155065,37.09124500005196],[-121.99208314844678,37.09150277792762],[-121.99273922943533,37.09135814443118],[-121.99283125905325,37.09161592172528],[-121.99381537890062,37.09139896406516],[-121.99390741228355,37.091656740535925],[-121.9952195673577,37.09136745020044],[-121.9953116055488,37.091625225605966],[-121.99662375462933,37.09133592003141],[-121.99653171226547,37.09107814559312],[-121.9968597469039,37.091005817211276],[-121.99667566199615,37.090490268524384],[-121.99700369391283,37.09041793973422],[-121.99691165136895,37.09016016548556],[-121.99723968160708,37.0900878360453],[-121.99714763865546,37.08983006194041],[-121.99747566721507,37.08975773184998],[-121.99738362385578,37.08949995788891],[-121.99771165073683,37.08942762714831],[-121.99761960696985,37.089169853330965],[-121.99794763217241,37.08909752194026],[-121.99785558799773,37.0888397482667],[-121.9981836115218,37.088767416225835],[-121.99809156693945,37.088509642696096],[-121.99841958878503,37.08843731000502],[-121.99832754379503,37.08817953661907],[-121.9989835834938,37.08803486904479],[-121.99889153705311,37.08777709604433],[-121.99954757212411,37.08763242538589],[-121.9993634769769,37.08711688005809],[-121.99969149147321,37.08704454387458],[-121.99950739678162,37.086528998637995],[-121.99983540855652,37.0864566620462],[-121.99974336112086,37.086198889522585],[-122.00007137121739,37.08612655228069],[-121.99997932337413,37.08586877990074],[-122.00030733179227,37.0857964420087],[-122.00021528354146,37.08553866977251],[-122.00185531088604,37.08517696814279],[-122.00167120586129,37.08466142579402],[-122.00199920733807,37.08458908327595],[-122.00190715473592,37.084331312196156],[-122.00223515453438,37.08425896902804],[-122.00205104915055,37.08374342705763],[-122.00237904622782,37.083671083481214],[-122.00228699344615,37.083413312590565],[-122.00294298360865,37.083268623245786],[-122.00285092937666,37.08301085274057],[-122.00317892246191,37.082938506972155],[-122.00308686782252,37.082680736610556],[-122.0034148592295,37.08260839019208],[-122.00323074977128,37.08209284965793],[-122.0035587384572,37.0820205028312],[-122.00346668363841,37.08176273265862],[-122.00379467064607,37.081690385181815],[-122.00370261541988,37.081432615152856],[-122.00403060074935,37.08136026702599],[-122.00393854511579,37.08110249714061],[-122.00426652876703,37.08103014836372],[-122.0041744727261,37.08077237862187],[-122.00450245469915,37.080700029194915],[-122.00441039825087,37.080442259596694],[-122.00473837854575,37.08036990951968],[-122.00464632169012,37.08011214006497],[-122.00497430030683,37.08003978933795],[-122.00488224304385,37.079782020026805],[-122.00521021998242,37.07970966864975],[-122.00502610527727,37.07919413021623],[-122.00535407949498,37.079121778430924],[-122.00526202205278,37.07886400930858],[-122.00558999459238,37.07879165687325],[-122.00540587952882,37.078276118817335],[-122.00573384934764,37.078203765973775],[-122.00564179172628,37.07794599704013],[-122.00596975986699,37.07787364354655],[-122.00578564444513,37.07735810586807],[-122.00611360986512,37.07728575196624],[-122.00602155206464,37.0770279832213],[-122.00634951580656,37.076955628669445],[-122.00625745759885,37.07669786006798],[-122.00658541966277,37.076625504866115],[-122.0064013030682,37.07610996785179],[-122.0067292624115,37.076037612241734],[-122.00663720402467,37.075779843828855],[-122.00696516168999,37.07570748756874],[-122.00678104473731,37.0751919509316],[-122.00710899968206,37.07511959426322],[-122.0070169411162,37.074861826038884],[-122.007344894383,37.07478946872051],[-122.00725283540996,37.0745317006396],[-122.00758078699883,37.074459342671254],[-122.00748872761861,37.07420157473371],[-122.00781667752955,37.07412921611534],[-122.00772461774217,37.073871448321256],[-122.00805256597518,37.07379908905293],[-122.00786844622148,37.07328355365313],[-122.00852433661132,37.073138833408244],[-122.0084322756025,37.07288106604423],[-122.00876021880185,37.07280870482597],[-122.00857609660537,37.07229317028636],[-122.00923197692804,37.0721484461416],[-122.00913991469791,37.07189067920775],[-122.0094678528637,37.07181831603954],[-122.00937579022651,37.071560549248986],[-122.00970372671449,37.071488185430795],[-122.00951960126129,37.0709726520379],[-122.00984753502904,37.07090028781157],[-122.00975547221306,37.07064252120922],[-122.01008340430302,37.070570156332856],[-122.00999134108002,37.07031238987387],[-122.01031927149221,37.070240024347584],[-122.0100430825081,37.06946672510501],[-122.01037100915777,37.06939435941227],[-122.01018688426039,37.06887882657507],[-122.0108427314842,37.0687340934815],[-122.01075066790385,37.06847632739869],[-122.01107858952037,37.06840395975605],[-122.010986525533,37.06814619381653],[-122.01131444547187,37.068073825523975],[-122.01122238107752,37.06781605972765],[-122.01155029933871,37.06774369078517],[-122.01108998168559,37.066454861534616],[-122.01141789409992,37.066382492909135],[-122.01123376940143,37.065866961002726],[-122.01156167909593,37.06579459196906],[-122.0114696166574,37.06553682610976],[-122.01179752467432,37.06546445642617],[-122.01170546182885,37.06520669071005],[-122.01203336816823,37.06513432037651],[-122.01184924229878,37.064618789132034],[-122.01316085296533,37.0643293008153],[-122.01306878681474,37.06407153601211],[-122.01339668685087,37.06399916194557],[-122.01293636041682,37.062710337659404],[-122.01326425460681,37.062637963909815],[-122.01308012639602,37.06212243398856],[-122.01340801786642,37.062050059830796],[-122.01331595367184,37.06179229496393],[-122.01364384346485,37.061719920156285],[-122.01355177886343,37.061462155432515],[-122.01387966697902,37.06138977997494],[-122.01378760197082,37.0611320153942],[-122.014115488409,37.06105963928677],[-122.01402342299397,37.06080187484914],[-122.0143513077548,37.06072949809182],[-122.01425924193298,37.06047173379724],[-122.01458712501645,37.06039935638996],[-122.01449505878786,37.06014159223848],[-122.01482294019395,37.060069214181354],[-122.0147308735586,37.05981145017287],[-122.01505875328735,37.05973907146589],[-122.01496668624524,37.0594813076004],[-122.01693394502428,37.059047018085685],[-122.01684187236536,37.05878925557179],[-122.01716974556295,37.058716871107194],[-122.01707767249738,37.05845910873633],[-122.01740554401768,37.05838672362196],[-122.01731347054543,37.05812896139409],[-122.01764134038844,37.05805657562984],[-122.01754926650959,37.05779881354494],[-122.01787713467529,37.05772642713085],[-122.01778506038978,37.05746866518894],[-122.01811292687825,37.05739627812501],[-122.01792877812933,37.05688075442845],[-122.01825664189862,37.05680836695643],[-122.01816456743519,37.05655060520167],[-122.01849242952729,37.056478217079814],[-122.01830828042256,37.055962693757586],[-122.0186361397955,37.05589030522757],[-122.01845199114821,37.05537478199372],[-122.01877984780212,37.05530239305559],[-122.01868777338957,37.05504463153218],[-122.0190156283663,37.054972241944284],[-122.01883147936333,37.05445671908448],[-122.0191593316211,37.054384329088435],[-122.0190672570307,37.05412656775208],[-122.01939510761132,37.054054177106224],[-122.01930303261442,37.05379641591276],[-122.01963088151791,37.05372402461706],[-122.01953880611445,37.05346626356643],[-122.02085019120835,37.053176690435585],[-122.02075811227301,37.052918930252936],[-122.02141379892458,37.052774138822],[-122.02132171854105,37.052516379023906],[-122.0216495598721,37.05244398221294],[-122.0215574790821,37.05218622255768],[-122.02221315775479,37.052041426744665],[-122.02184483261401,37.05101038906877],[-122.02217266683051,37.050937990791816],[-122.02189642652046,37.05016471222179],[-122.0277972775273,37.04886140385277],[-122.02788937574466,37.04911915912441],[-122.02854501523252,37.048974328771685],[-122.02863711616844,37.04923208346094],[-122.02929275519779,37.049087249059156],[-122.02920065217877,37.04882949485331],[-122.02952846969877,37.04875707655702],[-122.02943636627364,37.048499322493946],[-122.02976418211668,37.04842690354804],[-122.02967207828543,37.04816914962777],[-122.02999989245151,37.048096730032164],[-122.02990778821417,37.04783897625463],[-122.03023560070332,37.04776655600939],[-122.03014349605989,37.047508802374594],[-122.03047130687213,37.047436381479656],[-122.03037920182263,37.04717862798767],[-122.03070701095794,37.04710620644309],[-122.03061490550238,37.046848453093794],[-122.0309427129608,37.046776030899565],[-122.03085060709915,37.04651827769303],[-122.03117841288072,37.04644585484919],[-122.03108630661303,37.046188101785376],[-122.03141411071773,37.046115678291855],[-122.03132200404401,37.04585792537077],[-122.03164980647185,37.04578550122763],[-122.03155769939214,37.045527748449196],[-122.0318855001431,37.04545532365646],[-122.03179339265739,37.045197571020736],[-122.03244899017028,37.045052719244616],[-122.03226477293946,37.04453721464298],[-122.03488712091163,37.04395777575253],[-122.03479500491851,37.04370002523696],[-122.03512279451418,37.04362759160644],[-122.03503067811516,37.043369841233506],[-122.03535846603407,37.043297406953364],[-122.03526634922918,37.04303965672306],[-122.03559413547133,37.04296722179339],[-122.0355020182606,37.04270947170573],[-122.03582980282599,37.042637036126486],[-122.03546133617242,37.04160603575187],[-122.03578911593725,37.041533600248144],[-122.03514431646876,37.039729347468665],[-122.03481654399256,37.03980178128039],[-122.03472443336564,37.039544030245075],[-122.03439666129528,37.03961646292387],[-122.03421244402995,37.039100960072446],[-122.03388467340666,37.03917339137656],[-122.03379256676826,37.03891563956047],[-122.03346479655083,37.03898806973161],[-122.033372691589,37.03873031757468],[-122.03304492177743,37.03880274661287],[-122.03295281849212,37.03854499411518],[-122.03328058726247,37.0384725653186],[-122.03318848357128,37.03821481296338],[-122.03351625066509,37.03814238351724],[-122.03342414656805,37.03788463130444],[-122.03375191198535,37.03781220120873],[-122.03356770361485,37.03729669696905],[-122.03389546631448,37.03722426646537],[-122.03380336204106,37.03696651443842],[-122.0341311230642,37.03689408328517],[-122.03403901838493,37.036636331400715],[-122.03436677773162,37.03656389959785],[-122.03445888345202,37.03682165124062],[-122.03511440232165,37.036676784477834],[-122.03520651075965,37.036934535538116],[-122.03586202917018,37.036789664726975],[-122.03595414032579,37.0370474152047],[-122.03857619688189,37.0364678943772],[-122.03848407739746,37.03621014583304],[-122.03881183056659,37.03613770196074],[-122.03890395109208,37.03639545026324],[-122.03923170466688,37.03632300525809],[-122.0393238268689,37.03658075321965],[-122.03965158084932,37.036508307081576],[-122.03974370472781,37.03676605470225],[-122.04007145911385,37.03669360743122],[-122.04016358466885,37.036951354710936],[-122.04049133946053,37.036878906306974],[-122.04058346669206,37.03713665324579],[-122.04091122188935,37.03706420370885],[-122.04100335079741,37.03732195030672],[-122.04133110640028,37.03724949963689],[-122.04151536820501,37.03776499205148],[-122.04184312525452,37.03769254000699],[-122.0419352581512,37.037950285823705],[-122.04226301560625,37.037877832646245],[-122.04235515017955,37.03813557812205],[-122.04268290804015,37.03806312381162],[-122.04277504429004,37.03832086894644],[-122.04310280255618,37.03824841350305],[-122.04319494048266,37.0385061582969],[-122.04352269915434,37.038433701720514],[-122.04361483875743,37.038691446173466],[-122.04394259783464,37.03861898846411],[-122.04403473911438,37.038876732576085],[-122.04436249859707,37.038804273733724],[-122.04445464155344,37.039062017504726],[-122.04576567729256,37.03877217225606],[-122.04585782504878,37.03902991496082],[-122.0461855834356,37.038957451178824],[-122.0462777328685,37.03921519354251],[-122.04660549166073,37.039142728627574],[-122.04669764277028,37.03940047065029],[-122.04702540196794,37.03932800460231],[-122.0471175547542,37.03958574628401],[-122.04744531435726,37.03951327910303],[-122.04772177965312,37.040286502827584],[-122.04804954174367,37.04021403402998],[-122.04814169915471,37.040471774831296],[-122.04879722351083,37.04032683407885],[-122.04888938363968,37.04058457429734],[-122.04921714590525,37.04051210234248],[-122.04912498473534,37.0402543623658],[-122.04978050527723,37.04010941626613],[-122.0498726685292,37.04036715575914],[-122.05020042888759,37.040294681130625],[-122.05029259381632,37.04055242028264],[-122.05062035458002,37.04047994452111],[-122.05071252118552,37.04073768333206],[-122.05104028235449,37.0406652064375],[-122.0511324506368,37.04092294490739],[-122.05146021221103,37.04085046687984],[-122.05155238217013,37.041108205008676],[-122.05188014414964,37.041035725848026],[-122.05197231578552,37.04129346363586],[-122.05230007817028,37.04122098334217],[-122.05239225148301,37.04147872078892],[-122.05370329882803,37.04118878973469],[-122.05379547694065,37.04144652611485],[-122.05445099888026,37.041301554756835],[-122.05454317971072,37.041559290553955],[-122.05487094076776,37.04148680329633],[-122.05560841863087,37.043548684167526],[-122.05593618738021,37.043476194083524],[-122.05602837601566,37.043733928504224],[-122.05635614517014,37.04366143728714],[-122.05644833548256,37.043919171366696],[-122.05743164225349,37.04370169164247],[-122.05752383632496,37.043959424897146],[-122.05817937307458,37.043814433474495],[-122.05827156986405,37.04407216614608],[-122.05892710615183,37.04392717067478],[-122.05901930565932,37.04418490276338],[-122.05934707389024,37.044112403449006],[-122.05943927507477,37.04437013519646],[-122.0597670437107,37.044297634748936],[-122.05985924657224,37.04455536615532],[-122.0605147840181,37.044410362102745],[-122.06060698959767,37.04466809292608],[-122.06093475840756,37.044595589321055],[-122.06102696566418,37.04485331980324],[-122.06135473487905,37.044780815065096],[-122.06144694381274,37.04503854520612],[-122.06177471343254,37.04496603933474],[-122.06195913529014,37.045481498835315],[-122.06556458202778,37.044683870109374],[-122.0656568053615,37.04494159704911],[-122.06598457047095,37.04486907975771],[-122.06607679548178,37.045126806356194],[-122.06673232587406,37.044981768615834],[-122.06682455360297,37.04523949463113],[-122.07206872178226,37.04407906050971],[-122.07216096680166,37.044336782553394],[-122.07281647845329,37.044191711763624],[-122.07300097456437,37.04470715458498],[-122.07332873151739,37.0446346173693],[-122.07342098156823,37.04489233838907],[-122.0737487389258,37.044819800040194],[-122.07393324301816,37.04533524129784],[-122.07884955824314,37.044247051867934],[-122.07894182685592,37.04450476871661],[-122.08025282422881,37.04421455003821],[-122.08034509764104,37.044472265819195],[-122.0816560889935,37.04418203191487],[-122.0817483672051,37.044439746628065],[-122.08240386114386,37.04429462384514],[-122.08249614207341,37.044552337974835],[-122.08446261485746,37.04411694678739],[-122.0845549026677,37.04437465936493],[-122.08521039058473,37.04422952135625],[-122.08530268111292,37.04448723335018],[-122.085958168565,37.04434209129295],[-122.08605046181111,37.044599802703246],[-122.08637820562294,37.04452723009589],[-122.08647050054631,37.04478494116473],[-122.0867982447622,37.0447123674241],[-122.08689054136283,37.04497007815141],[-122.08721828598279,37.04489750327758],[-122.08731058426068,37.04515521366345],[-122.08763832928467,37.04508263765635],[-122.08773062923989,37.0453403477007],[-122.08805837466791,37.04526777056037],[-122.08815067630043,37.04552548026328],[-122.0924113224557,37.04458189320483],[-122.09250363825304,37.04483959965975],[-122.09283137684862,37.04476700956034],[-122.0929236943233,37.04502471567374],[-122.0932514333227,37.04495212444112],[-122.09334375247471,37.04520983021288],[-122.09367149187794,37.04513723784697],[-122.0937638127073,37.04539494327718],[-122.09540250537475,37.04503196687111],[-122.09549483204373,37.04528967099079],[-122.09680577887744,37.044999272858504],[-122.09671344804626,37.0447415697078],[-122.09704118212208,37.04466896818947],[-122.09694885088722,37.0444112651817],[-122.09760431504733,37.04426605995645],[-122.09751198236827,37.04400835733381],[-122.09816744190005,37.0438631490291],[-122.09807510777682,37.04360544679154],[-122.09873056268027,37.04346023540743],[-122.09863822711294,37.043202533554954],[-122.09994912511578,37.04291210106387],[-122.10031848785353,37.04394290400089],[-122.10064621492384,37.043870292681575],[-122.10073855824096,37.044127992925056],[-122.10106628571485,37.04405538047249],[-122.10115863070932,37.044313080374295],[-122.10148635858674,37.04424046678844],[-122.1015787052586,37.04449816634854],[-122.10190643353957,37.04442555162945],[-122.10199878188878,37.04468325084786],[-122.10429286930395,37.04417492117055],[-122.10438522557321,37.04443261859351],[-122.10569612281569,37.04414212392161],[-122.10588084558846,37.04465751653061],[-122.10620857038735,37.04458489015059],[-122.10630093376967,37.04484258606362],[-122.10662865897191,37.044769958550276],[-122.10672102403169,37.0450276541216],[-122.10704874963729,37.044955025475],[-122.10714111637454,37.045212720704576],[-122.1074688423835,37.045140090924605],[-122.10765357984995,37.0456554806008],[-122.10798130730262,37.045582849445246],[-122.10862791578668,37.04738670848444],[-122.10928338334658,37.04724144010721],[-122.10937576061653,37.04749913337337],[-122.11035896029908,37.04728122339817],[-122.11045134132748,37.047538915837755],[-122.11110680667748,37.04739363758134],[-122.1111991904239,37.047651329436775],[-122.11152692318355,37.047578688729736],[-122.11134215424711,37.0470633054042],[-122.11265307059047,37.046772735605536],[-122.11274545890166,37.04703042634837],[-122.11307318743485,37.04695778142896],[-122.11335035931286,37.04773085233383],[-122.11367809032997,37.047658205796196],[-122.11404766591701,37.048688964641535],[-122.11437540045846,37.04861631624321],[-122.1144677969888,37.04887400546364],[-122.11479553193335,37.048801355931964],[-122.11581194727425,37.0516359281318],[-122.11613969302624,37.05156327504213],[-122.11623209928538,37.051820962585374],[-122.11655984544046,37.051748308362214],[-122.11665225337744,37.052005995563675],[-122.11697999993561,37.05193334020701],[-122.11707240955045,37.052191027066655],[-122.11740015651168,37.05211837057658],[-122.11749256780438,37.05237605709439],[-122.1171648198027,37.052448713826955],[-122.1177192947019,37.053994832302955],[-122.11739153981985,37.05406748959954],[-122.11785361456293,37.05535592014461],[-122.11818137464758,37.05528326163547],[-122.1184586302647,37.05605631804363],[-122.11911415476482,37.05591099689717],[-122.11920657665993,37.056168681682955],[-122.1198621006911,37.05602335648735],[-122.11976967671491,37.055765672186645],[-122.12009743673366,37.05569300849488],[-122.12018986175039,37.05595069255303],[-122.12051762217216,37.05587802772776],[-122.12061004886694,37.056135711444036],[-122.12126556987889,37.05599037863534],[-122.12135799929224,37.0562480617673],[-122.12168575988241,37.05617539378387],[-122.12177819097386,37.05643307657397],[-122.12210595196696,37.05636040745702],[-122.12238325218838,37.05713345450395],[-122.12271101566544,37.05706078376825],[-122.12280345138832,37.05731846567614],[-122.12247568687071,37.05739113665442],[-122.12266055814821,37.0579065006575],[-122.12298832474688,37.05783382919409],[-122.12317320065597,37.05834919231501],[-122.12350096869811,37.05827651947541],[-122.12359340864967,37.058534200644374],[-122.1239211770947,37.058461526671195],[-122.12438339162021,37.05974992981456],[-122.12405561797233,37.05982260500078],[-122.12414806174989,37.06008028557436],[-122.1234925104599,37.06022563375901],[-122.12340006876353,37.05996795270021],[-122.12241674016782,37.06018596756667],[-122.12250917874238,37.06044364935327],[-122.1218536210757,37.06058898862762],[-122.12194605820665,37.06084667080024],[-122.1216182773762,37.06091933934342],[-122.12171071410415,37.06117702165946],[-122.12138293159539,37.0612496895542],[-122.12147536792033,37.06150737201368],[-122.12114758373328,37.06158003925996],[-122.1213324562148,37.062095404366566],[-122.12198802811395,37.06195006801246],[-122.12208046739255,37.06220774993175],[-122.12175268072113,37.062280418796945],[-122.1221224400497,37.063311146453],[-122.1224502308839,37.06323847661732],[-122.12254267335096,37.06349615804083],[-122.12287046458816,37.063423487071454],[-122.12296290873365,37.06368116815317],[-122.12329070037383,37.06360849605009],[-122.12366048749601,37.06463921841493],[-122.12398828266127,37.06456654445021],[-122.1240807320769,37.06482422455091],[-122.12375293587093,37.064896898758285],[-122.12384538488361,37.06515457900253],[-122.12351758699913,37.06522725256149],[-122.12361003560883,37.065484932949225],[-122.12328223604584,37.06555760585979],[-122.12337468425257,37.0658152863911],[-122.12304688301106,37.06588795865318],[-122.1231393308148,37.06614563932802],[-122.12281152789474,37.06621831094171],[-122.12290397529546,37.066475991760164],[-122.12257617069685,37.06654866272539],[-122.12266861769456,37.06680634368733],[-122.12234081141739,37.06687901400412],[-122.12243325801208,37.06713669510968],[-122.12210545005631,37.06720936477802],[-122.12219789624797,37.06746704602718],[-122.12252570524454,37.06739437611616],[-122.1227106016228,37.067909737831876],[-122.12303841206321,37.06783706654438],[-122.12331576453653,37.0686101076469],[-122.12364357746165,37.06853743474029],[-122.12382848438129,37.06905279449465],[-122.12415629875025,37.068980120211535],[-122.12434121030293,37.069495479084274],[-122.12466902611571,37.06942280342464],[-122.12485394230153,37.06993816141579],[-122.12518175955813,37.069865484379676],[-122.12536668037717,37.07038084148918],[-122.12569449907758,37.070308163076554],[-122.12587942452991,37.07082351930454],[-122.12620724467416,37.07075083951526],[-122.12629970939805,37.07100851723798],[-122.12662752994525,37.0709358363149],[-122.12671999634793,37.07119351369588],[-122.12704781729803,37.07112083163891],[-122.12732522345632,37.071893862459355],[-122.12830869184674,37.071675808757185],[-122.12840116496469,37.071933484771044],[-122.12872898752637,37.07186079817868],[-122.12891393775799,37.07237614942382],[-122.12924176176342,37.07230346145479],[-122.12942671662877,37.07281881181828],[-122.12975454207792,37.07274612247261],[-122.12993950157711,37.07326147195455],[-122.13026732846997,37.07318878123222],[-122.13035981021751,37.07344645558189],[-122.1306876375132,37.073373763725634],[-122.13096508970682,37.07414678545228],[-122.13129291948707,37.074074091976485],[-122.13147789288834,37.07458943881371],[-122.13180572411228,37.0745167439612],[-122.13208319212261,37.07528976274615],[-122.13241102583115,37.07521706627408],[-122.13268850270734,37.075990083439756],[-122.13301633890045,37.07591738534809],[-122.13320132875714,37.07643272914468],[-122.13352916639391,37.07636002967622],[-122.13399165740837,37.07764838622167],[-122.13366381456692,37.07772108690432],[-122.13375631364346,37.077978758159375],[-122.13342846912283,37.07805145819372],[-122.1336134671086,37.078566800892744],[-122.13328561986782,37.07863950052165],[-122.13337811877703,37.07889717196564],[-122.13305026985708,37.07896987094626],[-122.13314276836348,37.07922754253414],[-122.1328149177643,37.079300240866424],[-122.13318491400817,37.080330927200464],[-122.13285705860666,37.08040362561301],[-122.13294955822218,37.080661297192115],[-122.13262170114142,37.08073399495634],[-122.1330842035872,37.082022352583195],[-122.13275634066287,37.08209505067058],[-122.13303384666614,37.082868064788975],[-122.13336171271375,37.08279536597291],[-122.13354672198949,37.08331070773845],[-122.13387458948104,37.083238007545404],[-122.13396709611746,37.083495678037046],[-122.13429496401179,37.08342297670994],[-122.13438747232765,37.0836806468598],[-122.13471534062477,37.08360794439853],[-122.13490036125363,37.08412328391597],[-122.13555610009732,37.08397787534819],[-122.13564861345147,37.08423554447283],[-122.1359764829569,37.08416283860923],[-122.13606899799052,37.08442050739209],[-122.1363968678987,37.08434780039433],[-122.13658190196325,37.08486313717777],[-122.13690977331525,37.08479042880292],[-122.1370948120156,37.08530576470514],[-122.13742268481143,37.08523305495321],[-122.13760772814763,37.08574838997426],[-122.13793560238727,37.085675678845234],[-122.1388608677862,37.08825234559248],[-122.13918875179888,37.08817963114256],[-122.13928128289156,37.08843729703093],[-122.13960916730689,37.08836458144681],[-122.14007183755395,37.089652908192285],[-122.14039972653669,37.08958019050195],[-122.14076987839292,37.09061084914861],[-122.14044198524536,37.090683567810984],[-122.14090468422748,37.091971890112845],[-122.14057678523514,37.09204460909908],[-122.14076186721563,37.09255993781482],[-122.14043396550215,37.0926326563959],[-122.14052650640905,37.09289032084873],[-122.14019860301566,37.09296303878158],[-122.14029114351987,37.09322070337877],[-122.13996323844661,37.09329342066338],[-122.1400557785481,37.09355108540494],[-122.13972787179495,37.093623802041265],[-122.13982041149374,37.09388146692716],[-122.13949250306064,37.093954182915276],[-122.13986266407669,37.094984842444305],[-122.1395347508396,37.0950575585133],[-122.13971983309665,37.095572888171965],[-122.13939191713823,37.09564560383579],[-122.1401322633813,37.097706920469385],[-122.139804338453,37.09777963718643],[-122.14008197570794,37.09855263002611],[-122.13975404701667,37.09862534658108],[-122.14040188234257,37.10042899479152],[-122.14072981832417,37.100356276534896],[-122.1409149219631,37.100871603221734],[-122.1405869838985,37.10094432196452],[-122.14086464102303,37.10171731198493],[-122.14053669919512,37.10179003056573],[-122.14072180505558,37.10230535723954],[-122.14039386050582,37.10237807541525],[-122.14057896683825,37.10289340218118],[-122.1402510195666,37.10296611995173],[-122.1418245088533,37.10734638568933],[-122.14215247383241,37.10727366378525],[-122.14261530514477,37.10856197060654],[-122.14294327469335,37.10848924659511],[-122.14303584391429,37.108746907420915],[-122.14336381386562,37.10867418227484],[-122.14345638476716,37.10893184275901],[-122.14378435512126,37.10885911647838],[-122.14387692770345,37.10911677662092],[-122.14420489846026,37.109044049205664],[-122.1442974727231,37.10930170900656],[-122.14462544388265,37.109228980456685],[-122.14471801982612,37.109486639916],[-122.14504599138837,37.109413910231446],[-122.14513856901254,37.10967156934911],[-122.14579451230344,37.109526106819466],[-122.14597967363551,37.110041423786576],[-122.14630764640582,37.1099686906982],[-122.14649281237739,37.11048400678525],[-122.14682078659202,37.11041127231893],[-122.14691337157807,37.11066892997159],[-122.14724134619533,37.11059619437065],[-122.14733393286211,37.11085385168165],[-122.14798988226283,37.110708377319],[-122.14808247165207,37.11096603404509],[-122.1484104464355,37.110893295283404],[-122.1485030375055,37.11115095166785],[-122.14883101269153,37.111078211771456],[-122.14892360544229,37.11133586781428],[-122.14859562921461,37.111408607953884],[-122.14924378907355,37.113212199201264],[-122.14957177259322,37.11313945735865],[-122.14966437045705,37.11339711261436],[-122.1499923543793,37.113324369637056],[-122.15008495392404,37.11358202455108],[-122.15041293824883,37.11350928043905],[-122.15069074384331,37.11428224386104],[-122.15101873065413,37.11420949812765],[-122.1511113348391,37.11446715216163],[-122.15143932205245,37.11439440529355],[-122.15153192791837,37.114652058985875],[-122.15185991553425,37.114579310983004],[-122.15195252308112,37.1148369643336],[-122.1552323744984,37.11410943284377],[-122.15588071814666,37.115912986510274],[-122.15555272858974,37.115985745374104],[-122.15564535062653,37.11624339574785],[-122.15531735938855,37.116316153963574],[-122.1554099810229,37.11657380448232],[-122.15508198810384,37.11664656205008],[-122.15535985371775,37.117419513746356],[-122.15568784976207,37.11734675544852],[-122.15587309878501,37.11786205560103],[-122.15620109627348,37.11778929592497],[-122.15675686493812,37.11933519256268],[-122.15708486803793,37.11926243053481],[-122.1577333011997,37.12106597043592],[-122.15740529080712,37.12113873416767],[-122.1575905610962,37.12165403088467],[-122.15726254798047,37.121726794211796],[-122.15735518304236,37.121984442666296],[-122.15768319719994,37.12191167909574],[-122.15777583394318,37.12216932720862],[-122.15810384850315,37.12209656250313],[-122.15828912599183,37.12261185794726],[-122.15861714199605,37.12253909186344],[-122.15870978274152,37.12279673919463],[-122.15903779914807,37.12272397197587],[-122.15913044157496,37.12298161896544],[-122.15945845838387,37.12290885061179],[-122.15955110249212,37.12316649725964],[-122.15987911970335,37.123093727771],[-122.16006441192229,37.123609020285066],[-122.1603924305777,37.123536249418095],[-122.16057772743865,37.12405154105227],[-122.16090574753827,37.123978768806815],[-122.16118370075226,37.124751704791],[-122.16151172333791,37.12467893092366],[-122.16169703076238,37.125194220601664],[-122.16202505479221,37.1251214453558],[-122.16211771050577,37.12537908980404],[-122.16244573493788,37.12530631342322],[-122.16253839233299,37.1255639575297],[-122.16286641716732,37.12549118001391],[-122.16295907624401,37.12574882377868],[-122.16328710148056,37.125676045127875],[-122.16337976223879,37.12593368855095],[-122.1637077878776,37.12586090876515],[-122.16426377211185,37.127406765780144],[-122.16459180336241,37.127333983641684],[-122.16477713864208,37.12784926804078],[-122.16510517133675,37.12777648452374],[-122.16519784097812,37.12803412633248],[-122.16552587407497,37.127961341680376],[-122.16561854539802,37.12821898314739],[-122.16594657889704,37.1281461973603],[-122.16603925190181,37.128403838485596],[-122.16636728580299,37.12833105156345],[-122.16655263581566,37.128846333032236],[-122.16688067116091,37.128773544731516],[-122.16697334816891,37.129031185075135],[-122.16730138391628,37.128958395639266],[-122.16748674193553,37.12947367554486],[-122.16781477912699,37.12940088473035],[-122.16827819058199,37.13068908155853],[-122.16860623234331,37.13061628863459],[-122.16869891759585,37.130873927462225],[-122.16935500128284,37.13072833845261],[-122.16944768925916,37.13098597669483],[-122.16977573118477,37.130913180609184],[-122.16996111114105,37.131428456312015],[-122.17028915451067,37.131355658847625],[-122.17075262080988,37.13264384516918],[-122.17108066874941,37.132571045595114],[-122.171636855679,37.1341168644812],[-122.17196490923052,37.13404406255378],[-122.17224301446127,37.13481696994147],[-122.17191495778366,37.13488977259992],[-122.17200765976524,37.135147408443245],[-122.17167960140557,37.13522021045386],[-122.17186500520471,37.135735482333736],[-122.17219306564846,37.13566267983581],[-122.17256388509543,37.13669322144404],[-122.1728919490674,37.13662041707989],[-122.17307736471538,37.137135686808314],[-122.17340543013144,37.13706288106522],[-122.17349813995762,37.13732051553865],[-122.17448233549142,37.13710209222897],[-122.1745750490839,37.137359725873246],[-122.17555924198287,37.137141293808625],[-122.17565195934166,37.13739892662369],[-122.1759800234031,37.137326113908735],[-122.17616546212524,37.13784137875725],[-122.17649352763064,37.13776856466325],[-122.17658624899401,37.13802619669672],[-122.1769143149013,37.13795338146748],[-122.17709976163269,37.13846864475275],[-122.17775589569487,37.13832301064472],[-122.17784862210496,37.13858064165283],[-122.17916088671505,37.13828936176346],[-122.17925361793357,37.13854699169848],[-122.18023781279474,37.138328521689125],[-122.18033054777958,37.13858615079477],[-122.18131474000448,37.13836767203045],[-122.18140747875565,37.13862530030674],[-122.18239166834397,37.138406812787444],[-122.18248441086142,37.138664440234386],[-122.18281247381894,37.13859160903442],[-122.18290521801867,37.138849236139485],[-122.1835613440967,37.13870357057757],[-122.18365409102076,37.13896119709696],[-122.18431021662137,37.13881552748141],[-122.18440296626974,37.13907315341506],[-122.18473102915152,37.139000317026266],[-122.18482378048223,37.13925794261811],[-122.18515184376561,37.139185105093944],[-122.18552285966028,37.14021560550525],[-122.18519479220896,37.14028844400469],[-122.18538030191469,37.14080369410967],[-122.18505223173894,37.14087653220518],[-122.1852377419223,37.14139178240573],[-122.18556581418208,37.14131894382243],[-122.18575132901118,37.14183419314314],[-122.18640747577764,37.14168851232672],[-122.18650023623691,37.1419461363523],[-122.1871563825256,37.14180045148213],[-122.18734190953369,37.14231569826384],[-122.18766998380137,37.142242854003804],[-122.18776274930816,37.14250047700367],[-122.1880908239774,37.14242763160824],[-122.18818359116672,37.142685254266304],[-122.18851166623747,37.142612407735434],[-122.18860443510933,37.142870030051625],[-122.18991673315521,37.14257863403749],[-122.19000950683568,37.142836255280116],[-122.1903375807878,37.14276340380394],[-122.19098702178104,37.1445667480503],[-122.19197126167641,37.14434818315067],[-122.19206404464964,37.144605802633485],[-122.19272020346085,37.14446008775505],[-122.19281298915877,37.144717706651996],[-122.19314106864543,37.14464484763154],[-122.19323385602601,37.14490246618656],[-122.19356193591406,37.14482960603067],[-122.19393309601114,37.14586007829503],[-122.19426117942663,37.14578721627186],[-122.19444676540337,37.14630245132818],[-122.19477485026223,37.14622958792555],[-122.1949604408859,37.14674482210199],[-122.19528852718815,37.14667195731994],[-122.19547412245883,37.147187190616485]]]},"id":"globalwatershed","properties":{}}],"bbox":[-122.20283450008814,37.03613770196074,-121.97308571986851,37.26013040694924]}