{"type":"FeatureCollection","features":[{"type":"Feature","geometry":{"type":"Point","coordinates":[-122.22659033401845,37.05415108178749]},"id":"globalwatershedpoint","properties":{}},{"type":"Feature","geometry":{"type":"Polygon","coordinates":[[[-122.26724825003443,37.09866211651614],[-122.26692044499369,37.09873517778959],[-122.26719940147744,37.099507877830895],[-122.26687159267595,37.099580938946104],[-122.26733652778,37.10086877158459],[-122.26766434178037,37.10079570924853],[-122.26785032239222,37.10131084112117],[-122.2671946895907,37.10145696587916],[-122.26738066860943,37.10197209833165],[-122.26705284916673,37.10204515986294],[-122.26723882867196,37.10256029240706],[-122.26691100650802,37.10263335353601],[-122.26709698649974,37.103148486171825],[-122.26676916161455,37.10322154689832],[-122.26686215153288,37.103479113311714],[-122.26653432496624,37.10355217339171],[-122.26662731448624,37.10380973995007],[-122.26629948623817,37.10388279938356],[-122.26639247535984,37.10414036608699],[-122.2660646454303,37.10421342487386],[-122.26625062351849,37.10472855847171],[-122.26592279086755,37.1048016168562],[-122.26601577983406,37.10505918375067],[-122.26568794550165,37.10513224148862],[-122.2658739232795,37.105647375468436],[-122.26554608622565,37.1057204328041],[-122.26573206448987,37.10623556687592],[-122.26540422471449,37.10630862380914],[-122.26559020346507,37.10682375797298],[-122.26526236096817,37.106896814503884],[-122.26563432200841,37.107927082619405],[-122.26530647470986,37.10800013923636],[-122.26558544910684,37.1087728400155],[-122.26525759804659,37.10884589647425],[-122.26535058975543,37.10910346344677],[-122.26502273701351,37.10917651925896],[-122.26520872027594,37.10969165339534],[-122.26488086481227,37.10976470880519],[-122.26506684856103,37.11027984303382],[-122.26473899037555,37.110352898041334],[-122.26492497461066,37.110868032362404],[-122.26426925215442,37.11101414068197],[-122.2643622431542,37.111271708182436],[-122.26370651605116,37.111417813427124],[-122.26379950561228,37.11167538131706],[-122.2634716400582,37.111748432847456],[-122.26356462922081,37.112006000882616],[-122.26323676198493,37.112079051766415],[-122.26332975074901,37.112336619946866],[-122.262674012272,37.1124827195303],[-122.26276699959735,37.11274028810024],[-122.26243912835622,37.112813336799974],[-122.26234614207107,37.112555767985825],[-122.26169039974434,37.11270186222424],[-122.26159741618119,37.1124442928227],[-122.26126954509563,37.11251733836145],[-122.26117656321428,37.1122597686167],[-122.26052082119881,37.1124058565332],[-122.26061380099975,37.112663426766424],[-122.26028592798943,37.11273646963257],[-122.26037890739174,37.11299404001101],[-122.25972315736594,37.11314012355929],[-122.25981613532936,37.11339769432721],[-122.25948825831385,37.11347073500924],[-122.25958123587856,37.11372830592243],[-122.25925335718122,37.113801345957796],[-122.25934633434724,37.11405891701627],[-122.25901845396807,37.114131956405025],[-122.2591114307354,37.11438952760878],[-122.25845566597177,37.11453560420209],[-122.25854864130008,37.11479317579537],[-122.25822075691562,37.11486621299992],[-122.25831373184518,37.11512378473852],[-122.25798584577882,37.115196821296365],[-122.25807882030965,37.11545439318032],[-122.25742304417159,37.115600464111765],[-122.25751601726328,37.115858036385234],[-122.25718812719158,37.11593107075885],[-122.25746704719504,37.11670378771869],[-122.25713915336065,37.11677682193402],[-122.25732510115677,37.11729196656805],[-122.25699720460003,37.11736500038097],[-122.25718315288167,37.117880145108],[-122.25652735368183,37.11802621103795],[-122.25662032670421,37.11828378374171],[-122.25629242510149,37.1183568156145],[-122.25638539772501,37.118614388463634],[-122.25605749444026,37.11868741968974],[-122.25615046666492,37.11894499268427],[-122.25582256169817,37.11901802326369],[-122.25591553352396,37.11927559640369],[-122.2552597195847,37.119421655378105],[-122.25535268997116,37.119679228907714],[-122.25502478099868,37.11975225730274],[-122.25511775098622,37.12000983097779],[-122.25478984033167,37.120082858726136],[-122.25497578015047,37.12059800626839],[-122.25464786677331,37.120671033614144],[-122.2547408366046,37.12092860748136],[-122.25441292154534,37.12100163418044],[-122.25450589097764,37.12125920819311],[-122.2538500568533,37.12140525940684],[-122.25403599348051,37.121920408112864],[-122.25370807337482,37.12199343287173],[-122.25380104161027,37.122251007320806],[-122.25281727432197,37.1224700769843],[-122.25291024007723,37.122727652067375],[-122.25258231532405,37.1228006737508],[-122.25267528068028,37.123058248979405],[-122.24972391966546,37.12371540623321],[-122.24981687629746,37.12397298356118],[-122.24948894304741,37.124045996822964],[-122.24958189928026,37.12430357429642],[-122.24892602877418,37.124449598635444],[-122.24901898356715,37.12470717649869],[-122.24836310841356,37.12485319776204],[-122.24845606176663,37.12511077601507],[-122.24780018196547,37.125256794202656],[-122.24789313387862,37.12551437284548],[-122.24592547283441,37.12595240748851],[-122.24704087089474,37.12904336109345],[-122.24540107326668,37.1294083801117],[-122.24549402207069,37.129665960159095],[-122.24516605957955,37.129738961533725],[-122.24525900798417,37.12999654172681],[-122.2446030789955,37.1301425422912],[-122.24469602595981,37.130400122874185],[-122.24436805946227,37.130473122063975],[-122.24446100602718,37.130730702792654],[-122.2424931873242,37.13116868068322],[-122.2425861282849,37.13142626277876],[-122.24225815521478,37.13149925621916],[-122.242351095776,37.131756838460404],[-122.24202312102341,37.131829831253896],[-122.24211606118511,37.13208741364086],[-122.24178808475,37.13216040578745],[-122.24188102451221,37.13241798832017],[-122.24155304639459,37.13249097981978],[-122.24164598575727,37.13274856249828],[-122.24099002551543,37.132894543312574],[-122.24108296343755,37.133152126381056],[-122.24075498131334,37.1332251156957],[-122.24084791883588,37.133482698909894],[-122.2405199350291,37.133555687577605],[-122.2406128721521,37.133813270937544],[-122.24028488666272,37.13388625895833],[-122.24037782338614,37.13414384246411],[-122.2393938599458,37.13436280191214],[-122.23948679418741,37.13462038605208],[-122.23883081327084,37.13476635505007],[-122.23892374607172,37.135023939580044],[-122.23793976676234,37.13524288712574],[-122.23803269708124,37.13550047229001],[-122.2373767055853,37.13564643335293],[-122.23728377734874,37.13538884770026],[-122.23662778536928,37.135534804709984],[-122.2367207115235,37.135792390851115],[-122.23639271353044,37.13586536826341],[-122.23648563928492,37.136122954550316],[-122.23615763960919,37.13619593131557],[-122.23625056496392,37.13645351774838],[-122.23559456160572,37.1365994690937],[-122.23568748551946,37.13685705591652],[-122.23470347254764,37.13707597698304],[-122.23479639397911,37.13733356444014],[-122.23348436353828,37.137625447695164],[-122.23357728144612,37.13788303603073],[-122.23292126029462,37.138028972799255],[-122.23301417676127,37.138286561524836],[-122.2326861641821,37.13835952881644],[-122.23287199695706,37.138874706461074],[-122.23254398165383,37.13894767334983],[-122.23263689796214,37.13920526226888],[-122.23230888097616,37.13927822851063],[-122.2324017968845,37.13953581757554],[-122.23207377821576,37.139608783170175],[-122.23216669372418,37.13986637238104],[-122.23183867337268,37.13993933732863],[-122.23202450423106,37.140454515943894],[-122.23235252666532,37.14038155050783],[-122.23253836217219,37.14089672824143],[-122.23221033765518,37.14096969416591],[-122.23239617364507,37.14148487199489],[-122.23206814640379,37.14155783751655],[-122.23216106431951,37.141815426527785],[-122.2318330353954,37.14188839140241],[-122.23201887106835,37.142403569618644],[-122.23169083941993,37.142476534090406],[-122.23187667557586,37.1429917124021],[-122.23154864120308,37.14306467647105],[-122.23164155920178,37.143322265723775],[-122.23131352314606,37.14339522914561],[-122.23159227786661,37.14416799704715],[-122.23126423804497,37.14424096031043],[-122.23135715652663,37.144498549658735],[-122.23102911502201,37.144571512274894],[-122.23121495182676,37.14508669116542],[-122.23088690759764,37.145159653378805],[-122.23097982592073,37.14541724292097],[-122.23065178000857,37.14549020448728],[-122.23093053570219,37.14626297325746],[-122.23060248602391,37.146335934665245],[-122.23069540482989,37.146593524303185],[-122.23036735346854,37.14666648506382],[-122.2306461106108,37.14743925412149],[-122.2303180554832,37.147512214723605],[-122.23050389470241,37.1480273940932],[-122.23017583685008,37.1481003542924],[-122.23045459736551,37.148873123343556],[-122.2297984734865,37.149019042533624],[-122.22989139285811,37.14927663250956],[-122.22956332891465,37.14934959101182],[-122.23021377518741,37.151152719806866],[-122.22988570331064,37.1512256791277],[-122.22997862573128,37.151483268807475],[-122.22965055217124,37.151556227481244],[-122.22974347419172,37.15181381730727],[-122.22908732306345,37.1519597324692],[-122.22918024364206,37.152217322685715],[-122.22786792951979,37.15250914328985],[-122.22796084657293,37.15276673438553],[-122.22763276539669,37.152839687552266],[-122.22772568204958,37.153097278794164],[-122.22739759919003,37.153170231313844],[-122.22749051544271,37.153427822702014],[-122.22716243089977,37.153500774574525],[-122.22725534675217,37.153758366108924],[-122.2269272605259,37.153831317334316],[-122.22702017597803,37.15408890901502],[-122.22669208806839,37.154161859593266],[-122.22678500312024,37.15441945142025],[-122.22612882329263,37.15456535039104],[-122.22603591032444,37.15430775807545],[-122.22439545473777,37.15467248868054],[-122.22448836249664,37.15493008221753],[-122.22416026841286,37.155003025908485],[-122.22434608377132,37.15551821317708],[-122.22303369268597,37.15580998098046],[-122.2231265971598,37.15606757544491],[-122.22214229398422,37.15628639266977],[-122.22223519597374,37.15654398776918],[-122.22190709259026,37.1566169253054],[-122.22199999417928,37.1568745205511],[-122.2193751356826,37.157457990701644],[-122.21946802957709,37.15771558780355],[-122.21881180645428,37.157861446914666],[-122.21890469890616,37.1581190444072],[-122.21857658534053,37.158191972869716],[-122.2186694773918,37.15844957050865],[-122.2183413621427,37.15852249832395],[-122.21843425379335,37.158780096109204],[-122.21810613686071,37.15885302327724],[-122.21829192000217,37.15936821904266],[-122.21796380034394,37.15944114580769],[-122.21814958396703,37.159956341670195],[-122.2178214615831,37.16002926803224],[-122.21791435331474,37.16028686606094],[-122.2172581045383,37.16043271659889],[-122.21735099482711,37.16069031501833],[-122.21669474140056,37.160836162478596],[-122.21660185319604,37.160578563570674],[-122.21627372656276,37.16065148571918],[-122.2161808400418,37.160393886469116],[-122.21552458693527,37.16053972760303],[-122.21543170314007,37.16028212776661],[-122.21444732179616,37.16050088204798],[-122.21435444176883,37.160243281380964],[-122.213370057779,37.16046202690552],[-122.21346293467977,37.160719628305245],[-122.21313480435822,37.1607925419412],[-122.21322768085813,37.16105014348737],[-122.2106026068592,37.161633422432],[-122.21050973869711,37.161375818931994],[-122.20919719047473,37.161667436029205],[-122.209104327123,37.16140983145453],[-122.20877618950644,37.16148273325569],[-122.20868332783829,37.16122512833901],[-122.20737077512841,37.16151672565053],[-122.20727791827066,37.16125911965934],[-122.20694977953235,37.16133201651396],[-122.20685692435814,37.16107441018078],[-122.20652878602088,37.161147305899675],[-122.2064359325302,37.160889699224505],[-122.20610779459402,37.16096259380757],[-122.20601494278687,37.16070498679048],[-122.20568680525176,37.16077788023777],[-122.2055939551281,37.16052027287868],[-122.2052658179941,37.16059316519021],[-122.20517296955393,37.16033555748917],[-122.20484483282104,37.16040844866488],[-122.20475198606432,37.160150840621874],[-122.20442384973258,37.16022373066181],[-122.2034025891897,37.15739003304891],[-122.20307446368179,37.15746291951164],[-122.20298162670318,37.157205309806756],[-122.20265350159644,37.157278195133806],[-122.20228216426167,37.15624775435932],[-122.20195404268279,37.15632063781837],[-122.20158271977367,37.15529019450196],[-122.20125460172262,37.15536307609298],[-122.2011617736401,37.15510546477518],[-122.20083365599027,37.15517834523049],[-122.20074082959096,37.15492073357076],[-122.20008459445268,37.15506649131855],[-122.1999917707788,37.15480887907274],[-122.19933553516104,37.15495463276608],[-122.19924271421255,37.154697019934254],[-122.19891459648444,37.1547698951995],[-122.19882177721915,37.15451228202576],[-122.1984936598923,37.15458515615534],[-122.19840084231015,37.15432754263969],[-122.19807272538462,37.15440041563362],[-122.19797990948562,37.15414280177603],[-122.19830802536893,37.154069929026214],[-122.19812239340926,37.15355470150561],[-122.19779427961036,37.15362757376739],[-122.1977014656341,37.15336995961623],[-122.19737335223651,37.15344283074235],[-122.19690929717953,37.15215475729827],[-122.19723740536614,37.15208188739227],[-122.1964949422622,37.15002096674321],[-122.19682304147081,37.14994809789782],[-122.19626621480467,37.148402404761995],[-122.19593812184868,37.14847527214343],[-122.1956597202925,37.147702423521174],[-122.19533162982198,37.14777528927911],[-122.19514603407247,37.147260055886534],[-122.19547412245883,37.147187190616485],[-122.19528852718815,37.14667195731994],[-122.1949604408859,37.14674482210199],[-122.19477485026223,37.14622958792555],[-122.19444676540337,37.14630245132818],[-122.19426117942663,37.14578721627186],[-122.19393309601114,37.14586007829503],[-122.19356193591406,37.14482960603067],[-122.19323385602601,37.14490246618656],[-122.19314106864543,37.14464484763154],[-122.19281298915877,37.144717706651996],[-122.19272020346085,37.14446008775505],[-122.19206404464964,37.144605802633485],[-122.19197126167641,37.14434818315067],[-122.19098702178104,37.1445667480503],[-122.1903375807878,37.14276340380394],[-122.19000950683568,37.142836255280116],[-122.18991673315521,37.14257863403749],[-122.18860443510933,37.142870030051625],[-122.18851166623747,37.142612407735434],[-122.18818359116672,37.142685254266304],[-122.1880908239774,37.14242763160824],[-122.18776274930816,37.14250047700367],[-122.18766998380137,37.142242854003804],[-122.18734190953369,37.14231569826384],[-122.1871563825256,37.14180045148213],[-122.18650023623691,37.1419461363523],[-122.18640747577764,37.14168851232672],[-122.18575132901118,37.14183419314314],[-122.18556581418208,37.14131894382243],[-122.1852377419223,37.14139178240573],[-122.18505223173894,37.14087653220518],[-122.18538030191469,37.14080369410967],[-122.18519479220896,37.14028844400469],[-122.18552285966028,37.14021560550525],[-122.18515184376561,37.139185105093944],[-122.18482378048223,37.13925794261811],[-122.18473102915152,37.139000317026266],[-122.18440296626974,37.13907315341506],[-122.18431021662137,37.13881552748141],[-122.18365409102076,37.13896119709696],[-122.1835613440967,37.13870357057757],[-122.18290521801867,37.138849236139485],[-122.18281247381894,37.13859160903442],[-122.18248441086142,37.138664440234386],[-122.18239166834397,37.138406812787444],[-122.18140747875565,37.13862530030674],[-122.18131474000448,37.13836767203045],[-122.18033054777958,37.13858615079477],[-122.18023781279474,37.138328521689125],[-122.17925361793357,37.13854699169848],[-122.17916088671505,37.13828936176346],[-122.17784862210496,37.13858064165283],[-122.17775589569487,37.13832301064472],[-122.17709976163269,37.13846864475275],[-122.1769143149013,37.13795338146748],[-122.17658624899401,37.13802619669672],[-122.17649352763064,37.13776856466325],[-122.17616546212524,37.13784137875725],[-122.1759800234031,37.137326113908735],[-122.17565195934166,37.13739892662369],[-122.17555924198287,37.137141293808625],[-122.1745750490839,37.137359725873246],[-122.17448233549142,37.13710209222897],[-122.17349813995762,37.13732051553865],[-122.17340543013144,37.13706288106522],[-122.17307736471538,37.137135686808314],[-122.1728919490674,37.13662041707989],[-122.17256388509543,37.13669322144404],[-122.17219306564846,37.13566267983581],[-122.17186500520471,37.135735482333736],[-122.17167960140557,37.13522021045386],[-122.17200765976524,37.135147408443245],[-122.17191495778366,37.13488977259992],[-122.17224301446127,37.13481696994147],[-122.17196490923052,37.13404406255378],[-122.171636855679,37.1341168644812],[-122.17108066874941,37.132571045595114],[-122.17075262080988,37.13264384516918],[-122.17028915451067,37.131355658847625],[-122.16996111114105,37.131428456312015],[-122.16977573118477,37.130913180609184],[-122.16944768925916,37.13098597669483],[-122.16935500128284,37.13072833845261],[-122.16869891759585,37.130873927462225],[-122.16860623234331,37.13061628863459],[-122.16827819058199,37.13068908155853],[-122.16781477912699,37.12940088473035],[-122.16748674193553,37.12947367554486],[-122.16730138391628,37.128958395639266],[-122.16697334816891,37.129031185075135],[-122.16688067116091,37.128773544731516],[-122.16655263581566,37.128846333032236],[-122.16636728580299,37.12833105156345],[-122.16603925190181,37.128403838485596],[-122.16594657889704,37.1281461973603],[-122.16561854539802,37.12821898314739],[-122.16552587407497,37.127961341680376],[-122.16519784097812,37.12803412633248],[-122.16510517133675,37.12777648452374],[-122.16477713864208,37.12784926804078],[-122.16459180336241,37.127333983641684],[-122.16426377211185,37.127406765780144],[-122.1637077878776,37.12586090876515],[-122.16337976223879,37.12593368855095],[-122.16328710148056,37.125676045127875],[-122.16295907624401,37.12574882377868],[-122.16286641716732,37.12549118001391],[-122.16253839233299,37.1255639575297],[-122.16244573493788,37.12530631342322],[-122.16211771050577,37.12537908980404],[-122.16202505479221,37.1251214453558],[-122.16169703076238,37.125194220601664],[-122.16151172333791,37.12467893092366],[-122.16118370075226,37.124751704791],[-122.16090574753827,37.123978768806815],[-122.16057772743865,37.12405154105227],[-122.1603924305777,37.123536249418095],[-122.16006441192229,37.123609020285066],[-122.15987911970335,37.123093727771],[-122.15955110249212,37.12316649725964],[-122.15945845838387,37.12290885061179],[-122.15913044157496,37.12298161896544],[-122.15903779914807,37.12272397197587],[-122.15870978274152,37.12279673919463],[-122.15861714199605,37.12253909186344],[-122.15828912599183,37.12261185794726],[-122.15810384850315,37.12209656250313],[-122.15777583394318,37.12216932720862],[-122.15768319719994,37.12191167909574],[-122.15735518304236,37.121984442666296],[-122.15726254798047,37.121726794211796],[-122.1575905610962,37.12165403088467],[-122.15740529080712,37.12113873416767],[-122.1577333011997,37.12106597043592],[-122.15708486803793,37.11926243053481],[-122.15675686493812,37.11933519256268],[-122.15620109627348,37.11778929592497],[-122.15587309878501,37.11786205560103],[-122.15568784976207,37.11734675544852],[-122.15535985371775,37.117419513746356],[-122.15508198810384,37.11664656205008],[-122.1554099810229,37.11657380448232],[-122.15531735938855,37.116316153963574],[-122.15564535062653,37.11624339574785],[-122.15555272858974,37.115985745374104],[-122.15588071814666,37.115912986510274],[-122.15513975653444,37.11385178192647],[-122.15481177531112,37.11392453884349],[-122.15444131401478,37.11289393321712],[-122.15411333631886,37.11296668826941],[-122.15402072363459,37.11270903637344],[-122.15369274634108,37.11278179029103],[-122.15360013533771,37.11252413805336],[-122.15327215844663,37.11259689083619],[-122.15317954912415,37.11233923825686],[-122.1528515726355,37.11241198990497],[-122.15275896499391,37.112154336983885],[-122.15243098890771,37.112227087497295],[-122.15233838294695,37.111969434234496],[-122.1520104072632,37.11204218361325],[-122.15191780298332,37.11178453000874],[-122.15158982770207,37.11185727825274],[-122.15149722510301,37.11159962430653],[-122.15116925022424,37.11167237141585],[-122.15098404902696,37.11115706274166],[-122.15065607559235,37.11122980847303],[-122.1505634769941,37.11097215374501],[-122.150235503962,37.11104489834166],[-122.15014290704451,37.11078724327195],[-122.14981493441495,37.11085998673398],[-122.14907419041633,37.108798740687],[-122.14940215471283,37.10872599917105],[-122.14912438313337,37.10795303100892],[-122.14879642196165,37.10802577179505],[-122.14870383375488,37.10776811530085],[-122.14837587298572,37.107840854952386],[-122.14754261725497,37.10552193988393],[-122.14721466522091,37.10559467645515],[-122.14675177294271,37.10430638564265],[-122.14707971976911,37.10423365028741],[-122.14698714218882,37.10397599207259],[-122.14731508733475,37.103903256069195],[-122.14722250935188,37.10364559799904],[-122.1475504528174,37.10357286134751],[-122.14745787443199,37.10331520342198],[-122.14778581621705,37.10324246612227],[-122.14769323742911,37.10298480834139],[-122.14802117753378,37.10291207039354],[-122.14792859834331,37.10265441275733],[-122.14825653676756,37.10258167416132],[-122.1481639571746,37.102324016669726],[-122.14849189391845,37.102251277425616],[-122.14839931392298,37.101993620078574],[-122.14872724898648,37.10192088018634],[-122.14863466858853,37.10166322298395],[-122.14896260197165,37.101590482443555],[-122.14887002117119,37.10133282538579],[-122.14919795287398,37.101260084197264],[-122.14910537167108,37.10100242728407],[-122.1494333016935,37.100929685447426],[-122.14934072008816,37.10067202867884],[-122.14966864843029,37.100599286194054],[-122.14957606642248,37.10034162957004],[-122.15088776923604,37.10005065169085],[-122.15079518370176,37.099792995940916],[-122.15112310676643,37.09972024948609],[-122.15103052082976,37.099462593880745],[-122.15135844221416,37.0993898467778],[-122.15126585587512,37.09913219131695],[-122.15159377557923,37.09905944356594],[-122.15150118883784,37.09880178824971],[-122.15182910686171,37.09872903985059],[-122.15173651971799,37.098471384678845],[-122.15206443606158,37.098398635631604],[-122.15187926160841,37.09788332547855],[-122.1522071752305,37.097810576026426],[-122.15211458792108,37.09755292104506],[-122.15244249986297,37.097480170944905],[-122.15234991215124,37.097222516108],[-122.15267782241293,37.097149765359745],[-122.1524926468238,37.096634455876334],[-122.15282055436411,37.09656170472314],[-122.15272796648671,37.09630405007656],[-122.15305587234687,37.09623129827534],[-122.15296328406721,37.095973643773256],[-122.15329118824721,37.09590089132398],[-122.15319859956527,37.09564323696631],[-122.15418230514804,37.095424975000554],[-122.15408971398152,37.09516732127369],[-122.15441761352339,37.095094565745825],[-122.15432502195466,37.094836912163416],[-122.15530871362307,37.09461864096204],[-122.15521611956987,37.09436098801041],[-122.15554401447363,37.09428822940405],[-122.15545142001827,37.09403057659687],[-122.1564350977724,37.093812296160046],[-122.15634250083268,37.09355464398357],[-122.15667039109836,37.09348188229876],[-122.15657779375654,37.0932242302668],[-122.15920088455005,37.09264210665102],[-122.15910827951879,37.09238445646564],[-122.15976404374511,37.09223891713631],[-122.15967143727083,37.09198126733855],[-122.15999931738445,37.09190849658034],[-122.1599067105082,37.09165084692694],[-122.16023458894183,37.09157807552074],[-122.1601419816636,37.091320426011734],[-122.16046985841724,37.091247653957616],[-122.16037725073704,37.090990004592946],[-122.16103300024534,37.090844458297575],[-122.16094039112227,37.0905868093204],[-122.16225187830672,37.09029570700882],[-122.16215926565896,37.090038058905606],[-122.16281500333515,37.089892502889406],[-122.16272238924459,37.0896348551737],[-122.16305025608324,37.08956207607209],[-122.16314287121467,37.08981972354459],[-122.16347073845515,37.08974694330869],[-122.16356335526653,37.09000459043913],[-122.16389122290887,37.08993180906891],[-122.16407646053065,37.09044710254672],[-122.16440432961566,37.090374319798954],[-122.16449695042607,37.09063196614639],[-122.16482481991291,37.09055918226429],[-122.16501006553281,37.09107447417603],[-122.1656658067527,37.09092890276556],[-122.16575843260316,37.091186548086725],[-122.1660863032953,37.091113760801555],[-122.16617893082575,37.091371405780606],[-122.16650680191967,37.0912986173611],[-122.16659943113017,37.09155626199805],[-122.16692730262581,37.09148347244414],[-122.16701993351636,37.09174111673901],[-122.16734780541374,37.091668326050765],[-122.16744043798435,37.09192597000351],[-122.16776831028342,37.09185317818093],[-122.16786094453413,37.09211082179154],[-122.16818881723492,37.09203802883456],[-122.16828145316572,37.09229567210308],[-122.16860932626817,37.09222287801171],[-122.16870196387907,37.09248052093812],[-122.16902983738322,37.09240772571235],[-122.16912247667423,37.092665368296615],[-122.16945035058002,37.09259257193649],[-122.16954299155115,37.09285021417861],[-122.16987086585861,37.09277741668407],[-122.16996350850987,37.09303505858412],[-122.17389796282625,37.09216141622367],[-122.17399061860704,37.092419055105275],[-122.17464635412442,37.09227343508319],[-122.17473901262619,37.09253107337928],[-122.17506688046666,37.092458261788295],[-122.1751595406486,37.0927158997422],[-122.17581527649307,37.0925702734003],[-122.17609326712001,37.093343185208695],[-122.17740474362594,37.09305191891192],[-122.17749741261026,37.093309555010244],[-122.17782528117901,37.09323673596499],[-122.17791795184354,37.09349437172107],[-122.17824582081364,37.093421551541375],[-122.1784311661427,37.09393682227029],[-122.17875903655494,37.09386400071279],[-122.17885171121942,37.094121635685504],[-122.179179582033,37.094048812993556],[-122.17973564969402,37.09559461929367],[-122.18006352611299,37.095521794250345],[-122.17997084552992,37.09526416035755],[-122.18095446782722,37.095045680611264],[-122.18086178476123,37.09478804734979],[-122.18118965654048,37.094715219228895],[-122.18109697307324,37.09445758611195],[-122.18175271263158,37.09431192768374],[-122.1816600277223,37.09405429495471],[-122.18264362914101,37.09383580135956],[-122.18255094174903,37.093578169261775],[-122.18287880656878,37.09350533652471],[-122.18278611877561,37.09324770457139],[-122.18344184441499,37.09310203691083],[-122.18334915517991,37.092844405345424],[-122.18367701599958,37.09277157042193],[-122.18358432636336,37.09251393900101],[-122.18424004400265,37.092368266967696],[-122.1841473529246,37.09211063593465],[-122.18447520974422,37.09203779882481],[-122.18438251826505,37.0917801679362],[-122.18471037340449,37.09170733017875],[-122.18461768152422,37.09144969943462],[-122.18494553498341,37.091376861029524],[-122.18466746005797,37.090603968933465],[-122.18565100723256,37.090385450562614],[-122.18555831374798,37.090127820396134],[-122.18654185204481,37.0899092947364],[-122.18570761136732,37.08759062535485],[-122.18537977527296,37.08766346594201],[-122.18528708610249,37.0874058352723],[-122.18495925040916,37.08747867472504],[-122.18431045140511,37.08567525556043],[-122.18463827981488,37.08560241781106],[-122.18436022956921,37.0848295231276],[-122.18468805421807,37.08475668521731],[-122.18450268850385,37.084241422086315],[-122.18483051043238,37.0841685837717],[-122.18408906482868,37.082107529230576],[-122.18441687779443,37.08203469197153],[-122.18432419893085,37.08177705995121],[-122.18465201021681,37.081704222044586],[-122.18455933095223,37.08144659016842],[-122.18488714055847,37.081373751614166],[-122.18479446089289,37.08111611988216],[-122.18512226881937,37.081043280680284],[-122.18493690932566,37.080528017405484],[-122.18526471453205,37.08045517779925],[-122.18461596916167,37.078651754916905],[-122.18494376644652,37.07857891612289],[-122.18485109005354,37.07832128412908],[-122.18517888565876,37.07824844468743],[-122.18508620886486,37.07799081283773],[-122.18574179607674,37.07784513176826],[-122.18564911784163,37.07758750030593],[-122.18663249074368,37.07736897274996],[-122.18653981002718,37.07711134191827],[-122.18686759867562,37.077038497861125],[-122.18677491755827,37.076780867173504],[-122.1871027045271,37.076708022468765],[-122.18701002300891,37.076450391925185],[-122.18733780829821,37.07637754657288],[-122.18724512637914,37.076119916173276],[-122.1875729099889,37.076047070173445],[-122.18748022766901,37.07578943991793],[-122.18780800959924,37.07571659327046],[-122.1877153268785,37.07545896315895],[-122.18804310712923,37.07538611586389],[-122.18785774152552,37.0748708558297],[-122.18818551905657,37.074798008130344],[-122.18800015392995,37.074282748185574],[-122.18832792874142,37.07420990008196],[-122.18823524609697,37.07395227020392],[-122.188563019229,37.07387942145274],[-122.18809961039612,37.07259127178936],[-122.18777184246461,37.072664119324244],[-122.18767916365604,37.0724064888504],[-122.18964575541517,37.07196939173841],[-122.18955307100558,37.071711762624815],[-122.18988083302114,37.07163891023159],[-122.18978814821081,37.07138128126183],[-122.19044366824389,37.07123557428948],[-122.19035098199286,37.07097794570692],[-122.19067874001038,37.07090509112782],[-122.1905860533587,37.07064746268921],[-122.19091380969691,37.07057460746256],[-122.19082112264455,37.07031697916784],[-122.19147663132303,37.0701712665287],[-122.19138394283007,37.06991363862114],[-122.19171169517035,37.06984078120867],[-122.19161900627675,37.069583153444924],[-122.19194675693775,37.06951029538499],[-122.19185406764356,37.06925266776511],[-122.19316505973441,37.06896122759059],[-122.19307236691985,37.06870360084437],[-122.1943833446215,37.06841214739082],[-122.19429064828675,37.06815452151828],[-122.19494613122161,37.06800878993348],[-122.19485343344651,37.067751164448055],[-122.19583664993397,37.0675325611202],[-122.19574394967871,37.06727493626516],[-122.19607168618927,37.067202066951],[-122.19597898553357,37.066944442239745],[-122.19663445455689,37.06679870142587],[-122.19644905100441,37.066283452678014],[-122.19775997306004,37.06599196230784],[-122.19766726808378,37.065734338757814],[-122.20094451806656,37.06500555291611],[-122.20103723344013,37.06526317403319],[-122.2016926778428,37.065117405689996],[-122.20178539593523,37.06537502622101],[-122.20604573571717,37.06442744198689],[-122.20613846796458,37.06468505925517],[-122.20646618297222,37.06461216168229],[-122.20655891689881,37.064869778607616],[-122.20688663230649,37.06479687990075],[-122.20697936791228,37.065054496483306],[-122.2076347988881,37.06490869591089],[-122.2077275372127,37.06516631190715],[-122.20903839564745,37.0648746991012],[-122.20894565316449,37.06461708407841],[-122.20927336513455,37.06454417889368],[-122.20918062225165,37.06428656401467],[-122.20950833254251,37.06421365818266],[-122.20941558925966,37.063956043447455],[-122.2100710058434,37.06381022959833],[-122.2099782611211,37.063552615250224],[-122.21030596741399,37.0634797072331],[-122.20993499076293,37.06244924981812],[-122.21026269225813,37.06237634188382],[-122.2100772056913,37.061861113065326],[-122.21040490446792,37.06178820472712],[-122.21031216110443,37.06153059041174],[-122.21063985820199,37.06145768142624],[-122.2105471144386,37.06120006725466],[-122.21120250463596,37.06105424709861],[-122.2111097594333,37.06079663331405],[-122.21209283681392,37.060577897130614],[-122.21200008913257,37.06032028397641],[-122.21265546877605,37.0601744558879],[-122.21256271965552,37.05991684312077],[-122.21321809466168,37.05977101195667],[-122.21312534410202,37.05951339957655],[-122.21345302960628,37.059440482902],[-122.21336027864686,37.059182870665566],[-122.21401564565774,37.05903703513154],[-122.21392289325924,37.05877942328205],[-122.21490593586024,37.05856066403192],[-122.21481318098336,37.0583030528128],[-122.21546853744049,37.05815720934672],[-122.21537578112462,37.05789959851464],[-122.21635880789499,37.0576808273665],[-122.21626604910092,37.05742321716476],[-122.2169213950043,37.057277365766794],[-122.21682863477135,37.05701975595196],[-122.22174363189691,37.05592576057742],[-122.22183640771807,37.05618336674161],[-122.22314705346498,37.0558915998294],[-122.22323983408252,37.05614920492013],[-122.22487813206658,37.05578447502718],[-122.2247853462534,37.05552687115351],[-122.22511300289165,37.05545392274689],[-122.22502021667917,37.0551963190168],[-122.22534787163852,37.05512336996319],[-122.22525508502679,37.05486576637666],[-122.22558273830721,37.05479281667602],[-122.2254899512962,37.05453521323312],[-122.22581760289773,37.05446226288537],[-122.22572481548747,37.054204659586006],[-122.22703541133922,37.053912850264375],[-122.2271282029057,37.054170452590064],[-122.2274558513081,37.05409749779013],[-122.22754864455345,37.05435509977258],[-122.22820394151675,37.05420918701455],[-122.22829673748004,37.05446678841024],[-122.22960732788425,37.054174951235275],[-122.2297001286435,37.05443255155736],[-122.23002777568387,37.054359589794146],[-122.23012057812201,37.054617189772905],[-122.23044822556145,37.05454422687574],[-122.23054102967855,37.054801826511195],[-122.23086867751705,37.05472886248019],[-122.23096148331311,37.05498646177236],[-122.23128913155071,37.05491349660748],[-122.23138193902568,37.055171095556304],[-122.23170958766232,37.0550981292575],[-122.23180239681629,37.05535572786301],[-122.23213004585197,37.05528276043035],[-122.23296536638804,37.05760114119529],[-122.23329302413501,37.0575281706808],[-122.23431405329052,37.06036173351244],[-122.23464172182733,37.060288759428815],[-122.23473454753928,37.06054635520757],[-122.23506221647509,37.060473379989915],[-122.23524787189756,37.060988570761005],[-122.23557554227148,37.06091559416583],[-122.23566837198206,37.06117318915822],[-122.23599604275492,37.06110021142896],[-122.23608887414476,37.061357806078],[-122.23739955499111,37.06106588528235],[-122.23767806547099,37.06183866570799],[-122.23800573719943,37.06176568255223],[-122.23865562466715,37.063568831681906],[-122.23800026602221,37.06371480051315],[-122.2380931075717,37.0639723933342],[-122.2377654262497,37.06404537665767],[-122.23785826740026,37.064302969622574],[-122.23753058439884,37.06437595229917],[-122.23762342515046,37.064633545407936],[-122.23729574046959,37.06470652743768],[-122.23738858082227,37.06496412069032],[-122.23771626654232,37.064891138416975],[-122.23780910857447,37.06514873132631],[-122.2384644801722,37.06500276362094],[-122.23855732492297,37.06526035594331],[-122.23888501080063,37.065187370511296],[-122.23897785723089,37.065444962490346],[-122.23963322914368,37.06529898846758],[-122.2397260782926,37.06555657985966],[-122.24038144972253,37.06541060178773],[-122.24047430159014,37.065668192592845],[-122.24211272415494,37.065303230611406],[-122.24220558185874,37.065560820098625],[-122.24253326548977,37.065487824787255],[-122.24299756881024,37.066775769509405],[-122.2433252569967,37.06670277208928],[-122.24341812062117,37.06696036049085],[-122.24374580920639,37.06688736193664],[-122.24402440703987,37.067660125812246],[-122.24435209810218,37.06758712563649],[-122.24444496636676,37.067844713151956],[-122.24542803882854,37.06762570655062],[-122.24552091085108,37.067883293235376],[-122.24683166932347,37.06759127099216],[-122.2472960598271,37.06887919804625],[-122.24762375303975,37.06880618904072],[-122.24771663410124,37.06906377390874],[-122.2480443277125,37.068990763769],[-122.2481372104537,37.06924834829363],[-122.24879259783295,37.0691023248552],[-122.24888548329307,37.0693599087927],[-122.249213177061,37.069286895494045],[-122.24949184040234,37.07005964597708],[-122.24981953664721,37.06998663105674],[-122.25000531748948,37.070501797059514],[-122.25033301517209,37.070428780761205],[-122.25051880065524,37.07094394587776],[-122.25084649977556,37.070870928201494],[-122.25093939451727,37.071128510366506],[-122.2502839935576,37.07127454531612],[-122.25037688686159,37.07153212786906],[-122.24972148126089,37.071678159744266],[-122.24981437312708,37.07193574268505],[-122.24948666832655,37.072008757530675],[-122.24976534465128,37.07278150648637],[-122.24943763609238,37.07285452117284],[-122.24953052844268,37.0731121042026],[-122.24920281820386,37.073185118242286],[-122.24938860274786,37.0737002844905],[-122.25004402674195,37.073554254545456],[-122.2501369220535,37.073811837032586],[-122.25112005635732,37.07359278470485],[-122.25121295542736,37.073850366361015],[-122.25154066661985,37.07377734689365],[-122.2520051767772,37.075065252461165],[-122.25266060763266,37.074919208416794],[-122.25275351366493,37.07517678874384],[-122.25308122917079,37.075103765142096],[-122.25326704523616,37.075618925009806],[-122.2535947621798,37.075545900029866],[-122.25368767221293,37.07580347957049],[-122.25434310625643,37.075657426451436],[-122.25443601900892,37.075915005404816],[-122.25476373610873,37.07584197726564],[-122.25494956561471,37.076357134385916],[-122.25527728415224,37.07628410486858],[-122.25537020090576,37.076541683035444],[-122.25569791984174,37.07646865238378],[-122.25588375734988,37.07698380793105],[-122.25621147772357,37.07691077590115],[-122.25649024191013,37.077683507743615],[-122.25681796476081,37.07761047409157],[-122.25728258975285,37.07889835728489],[-122.25761031715915,37.078825321522906],[-122.25788910296342,37.07959804951253],[-122.25821683284674,37.07952501212835],[-122.25849562753757,37.08029773849032],[-122.25816789453623,37.08037077660626],[-122.25835375878961,37.080885927504404],[-122.25802602306855,37.080958965217555],[-122.25830482113791,37.0817316915501],[-122.25797708165773,37.08180472910449],[-122.25816294816349,37.08231987998313],[-122.25849068972245,37.082246841940936],[-122.25867656087104,37.082761991933744],[-122.25933204622352,37.08261591220184],[-122.25961086399055,37.08338863498123],[-122.25993860882345,37.08331559304768],[-122.26058921332641,37.085118607676826],[-122.26091696479425,37.08504556314494],[-122.26100991189848,37.085303136021565],[-122.2616654149897,37.08515704379816],[-122.26175836481396,37.08541461608735],[-122.26143061254947,37.08548766288831],[-122.26180241410006,37.08651795202651],[-122.26114689933196,37.08666404490862],[-122.26123984924354,37.086921617432566],[-122.26091208985828,37.086994662781706],[-122.26100503937148,37.087252235450215],[-122.2606772783056,37.08732528015274],[-122.26077022742044,37.08758285296582],[-122.26044246467387,37.08765589702176],[-122.26053541339034,37.08791346997941],[-122.2602076489631,37.087986513388756],[-122.26057944608242,37.089016805201304],[-122.26025167685583,37.08908984869602],[-122.26034462669901,37.089347421644696],[-122.26001685579169,37.08942046449278],[-122.26020275532241,37.089935610580035],[-122.25987498169474,37.090008653025514],[-122.25996793138226,37.09026622616411],[-122.25964015607381,37.09033926796298],[-122.25973310536291,37.090596841246196],[-122.25940532837369,37.09066988239842],[-122.25987007923887,37.0919577485444],[-122.26019786142626,37.091884706172095],[-122.26038376834005,37.09239985144707],[-122.26071155196551,37.09232680769607],[-122.26117633566986,37.09361466792532],[-122.26150412385242,37.09354162206341],[-122.26178300488921,37.09431433627712],[-122.26211079554952,37.09424128879244],[-122.26238968547699,37.09501400138027],[-122.26271747861509,37.09494095227267],[-122.263089344989,37.09597123335686],[-122.26341714164458,37.09589818238233],[-122.26360308075901,37.09641332184062],[-122.26393087885269,37.096340269487136],[-122.26402385041168,37.09659783882332],[-122.26500724396357,37.0963786756867],[-122.26519319524402,37.096893812596576],[-122.2655209938913,37.0968207559482],[-122.2657069498168,37.0973358919728],[-122.26603474990206,37.09726283394544],[-122.26612772986667,37.097520401564736],[-122.26678333019237,37.09737428234982],[-122.26724825003443,37.09866211651614]]]},"id":"globalwatershed","properties":{}}],"bbox":[-122.26785032239222,37.053912850264375,-122.14675177294271,37.161667436029205]}